{"version": 0.6, "generator": "Overpass API 0.7.62.5 1bd436f1", "osm3s": {"timestamp_osm_base": "2025-04-18T11:21:38Z", "copyright": "The data included in this document is from www.openstreetmap.org. The data is made available under ODbL."}, "elements": [{"type": "node", "id": 6402067827, "lat": 38.7388096, "lon": -90.5445208, "tags": {"addr:housenumber": "1521", "addr:postcode": "63303", "addr:street": "Mount Vernon Drive"}}, {"type": "node", "id": 6402067835, "lat": 38.7392645, "lon": -90.5444307, "tags": {"addr:housenumber": "1510", "addr:postcode": "63303", "addr:street": "Mount Vernon Drive"}}, {"type": "node", "id": 6402067841, "lat": 38.7389503, "lon": -90.5439194, "tags": {"addr:housenumber": "1501", "addr:postcode": "63303", "addr:street": "Mount Vernon Drive"}}, {"type": "node", "id": 6402067842, "lat": 38.739235, "lon": -90.5440581, "tags": {"addr:housenumber": "1500", "addr:postcode": "63303", "addr:street": "Mount Vernon Drive"}}, {"type": "node", "id": 6402067844, "lat": 38.7388264, "lon": -90.544121, "tags": {"addr:housenumber": "1511", "addr:postcode": "63303", "addr:street": "Mount Vernon Drive"}}, {"type": "node", "id": 6402067845, "lat": 38.7391761, "lon": -90.5447729, "tags": {"addr:housenumber": "1520", "addr:postcode": "63303", "addr:street": "Mount Vernon Drive"}}, {"type": "node", "id": 6402067849, "lat": 38.7387843, "lon": -90.5448199, "tags": {"addr:housenumber": "1531", "addr:postcode": "63303", "addr:street": "Mount Vernon Drive"}}, {"type": "node", "id": 6481759241, "lat": 38.736228, "lon": -90.542398, "tags": {"addr:housenumber": "2941", "addr:postcode": "63303", "addr:street": "Upper Bottom Road"}}, {"type": "node", "id": 6481760645, "lat": 38.7414382, "lon": -90.5389881, "tags": {"addr:housenumber": "424", "addr:postcode": "63303", "addr:street": "Savannah Ridge Drive"}}, {"type": "node", "id": 6481760646, "lat": 38.7418842, "lon": -90.5394876, "tags": {"addr:housenumber": "421", "addr:postcode": "63303", "addr:street": "Savannah Ridge Drive"}}, {"type": "node", "id": 6481760647, "lat": 38.7419365, "lon": -90.5384905, "tags": {"addr:housenumber": "427", "addr:postcode": "63303", "addr:street": "Savannah Ridge Drive"}}, {"type": "node", "id": 6481760648, "lat": 38.7409508, "lon": -90.542512, "tags": {"addr:housenumber": "402", "addr:postcode": "63303", "addr:street": "Savannah Ridge Drive"}}, {"type": "node", "id": 6481760649, "lat": 38.7419157, "lon": -90.5417239, "tags": {"addr:housenumber": "409", "addr:postcode": "63303", "addr:street": "Savannah Ridge Drive"}}, {"type": "node", "id": 6481760650, "lat": 38.741485, "lon": -90.5399737, "tags": {"addr:housenumber": "418", "addr:postcode": "63303", "addr:street": "Savannah Ridge Drive"}}, {"type": "node", "id": 6481760651, "lat": 38.7415889, "lon": -90.5411308, "tags": {"addr:housenumber": "410", "addr:postcode": "63303", "addr:street": "Savannah Ridge Drive"}}, {"type": "node", "id": 6481760652, "lat": 38.7418257, "lon": -90.5388246, "tags": {"addr:housenumber": "425", "addr:postcode": "63303", "addr:street": "Savannah Ridge Drive"}}, {"type": "node", "id": 6481760653, "lat": 38.7416212, "lon": -90.5423663, "tags": {"addr:housenumber": "405", "addr:postcode": "63303", "addr:street": "Savannah Ridge Drive"}}, {"type": "node", "id": 6481760654, "lat": 38.7410188, "lon": -90.5428139, "tags": {"addr:housenumber": "400", "addr:postcode": "63303", "addr:street": "Savannah Ridge Drive"}}, {"type": "node", "id": 6481760655, "lat": 38.7417847, "lon": -90.5420929, "tags": {"addr:housenumber": "407", "addr:postcode": "63303", "addr:street": "Savannah Ridge Drive"}}, {"type": "node", "id": 6481760656, "lat": 38.7414863, "lon": -90.5396827, "tags": {"addr:housenumber": "420", "addr:postcode": "63303", "addr:street": "Savannah Ridge Drive"}}, {"type": "node", "id": 6481760657, "lat": 38.7412748, "lon": -90.5428903, "tags": {"addr:housenumber": "401", "addr:postcode": "63303", "addr:street": "Savannah Ridge Drive"}}, {"type": "node", "id": 6481760658, "lat": 38.741444, "lon": -90.5393586, "tags": {"addr:housenumber": "422", "addr:postcode": "63303", "addr:street": "Savannah Ridge Drive"}}, {"type": "node", "id": 6481760659, "lat": 38.7416418, "lon": -90.5382646, "tags": {"addr:housenumber": "428", "addr:postcode": "63303", "addr:street": "Savannah Ridge Drive"}}, {"type": "node", "id": 6481760660, "lat": 38.7414638, "lon": -90.542657, "tags": {"addr:housenumber": "403", "addr:postcode": "63303", "addr:street": "Savannah Ridge Drive"}}, {"type": "node", "id": 6481760661, "lat": 38.7414802, "lon": -90.5386265, "tags": {"addr:housenumber": "426", "addr:postcode": "63303", "addr:street": "Savannah Ridge Drive"}}, {"type": "node", "id": 6481760662, "lat": 38.7415578, "lon": -90.5416582, "tags": {"addr:housenumber": "408", "addr:postcode": "63303", "addr:street": "Savannah Ridge Drive"}}, {"type": "node", "id": 6481760663, "lat": 38.7417872, "lon": -90.5391508, "tags": {"addr:housenumber": "423", "addr:postcode": "63303", "addr:street": "Savannah Ridge Drive"}}, {"type": "node", "id": 6481760664, "lat": 38.7419756, "lon": -90.5410612, "tags": {"addr:housenumber": "413", "addr:postcode": "63303", "addr:street": "Savannah Ridge Drive"}}, {"type": "node", "id": 6481760665, "lat": 38.741747, "lon": -90.5378039, "tags": {"addr:housenumber": "430", "addr:postcode": "63303", "addr:street": "Savannah Ridge Drive"}}, {"type": "node", "id": 6481760666, "lat": 38.7419518, "lon": -90.5413959, "tags": {"addr:housenumber": "411", "addr:postcode": "63303", "addr:street": "Savannah Ridge Drive"}}, {"type": "node", "id": 6481760667, "lat": 38.7365963, "lon": -90.5408492, "tags": {"addr:housenumber": "2815", "addr:postcode": "63303", "addr:street": "Spruce Ridge Court"}}, {"type": "node", "id": 6481760668, "lat": 38.7368161, "lon": -90.5413645, "tags": {"addr:housenumber": "2818", "addr:postcode": "63303", "addr:street": "Spruce Ridge Court"}}, {"type": "node", "id": 6481760669, "lat": 38.7371589, "lon": -90.5400886, "tags": {"addr:housenumber": "2808", "addr:postcode": "63303", "addr:street": "Spruce Ridge Court"}}, {"type": "node", "id": 6481760670, "lat": 38.7370375, "lon": -90.5411535, "tags": {"addr:housenumber": "2816", "addr:postcode": "63303", "addr:street": "Spruce Ridge Court"}}, {"type": "node", "id": 6481760671, "lat": 38.7372627, "lon": -90.540647, "tags": {"addr:housenumber": "2812", "addr:postcode": "63303", "addr:street": "Spruce Ridge Court"}}, {"type": "node", "id": 6481760672, "lat": 38.7371915, "lon": -90.5403193, "tags": {"addr:housenumber": "2810", "addr:postcode": "63303", "addr:street": "Spruce Ridge Court"}}, {"type": "node", "id": 6481760673, "lat": 38.7367734, "lon": -90.5389004, "tags": {"addr:housenumber": "2803", "addr:postcode": "63303", "addr:street": "Spruce Ridge Court"}}, {"type": "node", "id": 6481760674, "lat": 38.7367711, "lon": -90.5391599, "tags": {"addr:housenumber": "2805", "addr:postcode": "63303", "addr:street": "Spruce Ridge Court"}}, {"type": "node", "id": 6481760675, "lat": 38.7371457, "lon": -90.5392074, "tags": {"addr:housenumber": "2802", "addr:postcode": "63303", "addr:street": "Spruce Ridge Court"}}, {"type": "node", "id": 6481760676, "lat": 38.7368681, "lon": -90.5386596, "tags": {"addr:housenumber": "2801", "addr:postcode": "63303", "addr:street": "Spruce Ridge Court"}}, {"type": "node", "id": 6481760677, "lat": 38.7372162, "lon": -90.5409428, "tags": {"addr:housenumber": "2814", "addr:postcode": "63303", "addr:street": "Spruce Ridge Court"}}, {"type": "node", "id": 6481760678, "lat": 38.7368135, "lon": -90.539533, "tags": {"addr:housenumber": "2807", "addr:postcode": "63303", "addr:street": "Spruce Ridge Court"}}, {"type": "node", "id": 6481760679, "lat": 38.7371481, "lon": -90.5397695, "tags": {"addr:housenumber": "2806", "addr:postcode": "63303", "addr:street": "Spruce Ridge Court"}}, {"type": "node", "id": 6481760680, "lat": 38.7368366, "lon": -90.5405188, "tags": {"addr:housenumber": "2811", "addr:postcode": "63303", "addr:street": "Spruce Ridge Court"}}, {"type": "node", "id": 6481760681, "lat": 38.7371742, "lon": -90.539469, "tags": {"addr:housenumber": "2804", "addr:postcode": "63303", "addr:street": "Spruce Ridge Court"}}, {"type": "node", "id": 6481760682, "lat": 38.7372086, "lon": -90.5388428, "tags": {"addr:housenumber": "2800", "addr:postcode": "63303", "addr:street": "Spruce Ridge Court"}}, {"type": "node", "id": 6481760683, "lat": 38.7366183, "lon": -90.5412818, "tags": {"addr:housenumber": "2817", "addr:postcode": "63303", "addr:street": "Spruce Ridge Court"}}, {"type": "node", "id": 6481760890, "lat": 38.7374115, "lon": -90.5444147, "tags": {"addr:housenumber": "2936", "addr:postcode": "63303", "addr:street": "Isle View Lane"}}, {"type": "node", "id": 6481760892, "lat": 38.737491, "lon": -90.5441824, "tags": {"addr:housenumber": "2932", "addr:postcode": "63303", "addr:street": "Isle View Lane"}}, {"type": "node", "id": 6481760893, "lat": 38.7376997, "lon": -90.543172, "tags": {"addr:housenumber": "2921", "addr:postcode": "63303", "addr:street": "Isle View Lane"}}, {"type": "node", "id": 6481760895, "lat": 38.7374986, "lon": -90.5426999, "tags": {"addr:housenumber": "2913", "addr:postcode": "63303", "addr:street": "Isle View Lane"}}, {"type": "node", "id": 6481760896, "lat": 38.7375436, "lon": -90.5438694, "tags": {"addr:housenumber": "2928", "addr:postcode": "63303", "addr:street": "Isle View Lane"}}, {"type": "node", "id": 6481760897, "lat": 38.7377379, "lon": -90.5444627, "tags": {"addr:housenumber": "2935", "addr:postcode": "63303", "addr:street": "Isle View Lane"}}, {"type": "node", "id": 6481760898, "lat": 38.7374693, "lon": -90.5435435, "tags": {"addr:housenumber": "2924", "addr:postcode": "63303", "addr:street": "Isle View Lane"}}, {"type": "node", "id": 6481760899, "lat": 38.7373702, "lon": -90.5433256, "tags": {"addr:housenumber": "2920", "addr:postcode": "63303", "addr:street": "Isle View Lane"}}, {"type": "node", "id": 6481760900, "lat": 38.7373328, "lon": -90.5426038, "tags": {"addr:housenumber": "2909", "addr:postcode": "63303", "addr:street": "Isle View Lane"}}, {"type": "node", "id": 6481760902, "lat": 38.7371537, "lon": -90.5423723, "tags": {"addr:housenumber": "2905", "addr:postcode": "63303", "addr:street": "Isle View Lane"}}, {"type": "node", "id": 6481760903, "lat": 38.7377178, "lon": -90.544794, "tags": {"addr:housenumber": "2941", "addr:postcode": "63303", "addr:street": "Isle View Lane"}}, {"type": "node", "id": 6481760904, "lat": 38.7367899, "lon": -90.542426, "tags": {"addr:housenumber": "2900", "addr:postcode": "63303", "addr:street": "Isle View Lane"}}, {"type": "node", "id": 6481760905, "lat": 38.737292, "lon": -90.5430474, "tags": {"addr:housenumber": "2916", "addr:postcode": "63303", "addr:street": "Isle View Lane"}}, {"type": "node", "id": 6481760906, "lat": 38.7376701, "lon": -90.5429439, "tags": {"addr:housenumber": "2917", "addr:postcode": "63303", "addr:street": "Isle View Lane"}}, {"type": "node", "id": 6481760907, "lat": 38.73693, "lon": -90.5422397, "tags": {"addr:housenumber": "2901", "addr:postcode": "63303", "addr:street": "Isle View Lane"}}, {"type": "node", "id": 6481760909, "lat": 38.7374083, "lon": -90.5447067, "tags": {"addr:housenumber": "2940", "addr:postcode": "63303", "addr:street": "Isle View Lane"}}, {"type": "node", "id": 6481760910, "lat": 38.7411338, "lon": -90.5377018, "tags": {"addr:housenumber": "2483", "addr:postcode": "63303", "addr:street": "Annapolis Way"}}, {"type": "node", "id": 6481760911, "lat": 38.7401053, "lon": -90.5376644, "tags": {"addr:housenumber": "2475", "addr:postcode": "63303", "addr:street": "Annapolis Way"}}, {"type": "node", "id": 6481760921, "lat": 38.7403644, "lon": -90.5377942, "tags": {"addr:housenumber": "2477", "addr:postcode": "63303", "addr:street": "Annapolis Way"}}, {"type": "node", "id": 6481760930, "lat": 38.7415055, "lon": -90.5376735, "tags": {"addr:housenumber": "2485", "addr:postcode": "63303", "addr:street": "Annapolis Way"}}, {"type": "node", "id": 6481760934, "lat": 38.7421817, "lon": -90.5381847, "tags": {"addr:housenumber": "2489", "addr:postcode": "63303", "addr:street": "Annapolis Way"}}, {"type": "node", "id": 6481760939, "lat": 38.7377922, "lon": -90.5386951, "tags": {"addr:housenumber": "2280", "addr:postcode": "63303", "addr:street": "Delaware Drive"}}, {"type": "node", "id": 6481760940, "lat": 38.7384287, "lon": -90.5407274, "tags": {"addr:housenumber": "2308", "addr:postcode": "63303", "addr:street": "Delaware Drive"}}, {"type": "node", "id": 6481760941, "lat": 38.737883, "lon": -90.540751, "tags": {"addr:housenumber": "2305", "addr:postcode": "63303", "addr:street": "Delaware Drive"}}, {"type": "node", "id": 6481760943, "lat": 38.7395357, "lon": -90.5431629, "tags": {"addr:housenumber": "2340", "addr:postcode": "63303", "addr:street": "Delaware Drive"}}, {"type": "node", "id": 6481760944, "lat": 38.7356063, "lon": -90.537713, "tags": {"addr:housenumber": "2249", "addr:postcode": "63303", "addr:street": "Delaware Drive"}}, {"type": "node", "id": 6481760945, "lat": 38.7376903, "lon": -90.540539, "tags": {"addr:housenumber": "2301", "addr:postcode": "63303", "addr:street": "Delaware Drive"}}, {"type": "node", "id": 6481760947, "lat": 38.7370844, "lon": -90.5381433, "tags": {"addr:housenumber": "2264", "addr:postcode": "63303", "addr:street": "Delaware Drive"}}, {"type": "node", "id": 6481760948, "lat": 38.7375058, "lon": -90.538988, "tags": {"addr:housenumber": "2281", "addr:postcode": "63303", "addr:street": "Delaware Drive"}}, {"type": "node", "id": 6481760949, "lat": 38.7403127, "lon": -90.5442927, "tags": {"addr:housenumber": "2357", "addr:postcode": "63303", "addr:street": "Delaware Drive"}}, {"type": "node", "id": 6481760950, "lat": 38.7399677, "lon": -90.5434401, "tags": {"addr:housenumber": "2348", "addr:postcode": "63303", "addr:street": "Delaware Drive"}}, {"type": "node", "id": 6481760952, "lat": 38.7400089, "lon": -90.5440741, "tags": {"addr:housenumber": "2353", "addr:postcode": "63303", "addr:street": "Delaware Drive"}}, {"type": "node", "id": 6481760953, "lat": 38.7374406, "lon": -90.5384133, "tags": {"addr:housenumber": "2272", "addr:postcode": "63303", "addr:street": "Delaware Drive"}}, {"type": "node", "id": 6481760954, "lat": 38.7376241, "lon": -90.5392333, "tags": {"addr:housenumber": "2285", "addr:postcode": "63303", "addr:street": "Delaware Drive"}}, {"type": "node", "id": 6481760955, "lat": 38.7386773, "lon": -90.5430097, "tags": {"addr:housenumber": "2329", "addr:postcode": "63303", "addr:street": "Delaware Drive"}}, {"type": "node", "id": 6481760956, "lat": 38.7405103, "lon": -90.5441241, "tags": {"addr:housenumber": "2361", "addr:postcode": "63303", "addr:street": "Delaware Drive"}}, {"type": "node", "id": 6481760957, "lat": 38.7379865, "lon": -90.5395426, "tags": {"addr:housenumber": "2292", "addr:postcode": "63303", "addr:street": "Delaware Drive"}}, {"type": "node", "id": 6481760958, "lat": 38.7381482, "lon": -90.5414854, "tags": {"addr:housenumber": "2313", "addr:postcode": "63303", "addr:street": "Delaware Drive"}}, {"type": "node", "id": 6481760959, "lat": 38.738542, "lon": -90.5417514, "tags": {"addr:housenumber": "2316", "addr:postcode": "63303", "addr:street": "Delaware Drive"}}, {"type": "node", "id": 6481760960, "lat": 38.7385801, "lon": -90.5422148, "tags": {"addr:housenumber": "2320", "addr:postcode": "63303", "addr:street": "Delaware Drive"}}, {"type": "node", "id": 6481760961, "lat": 38.7391423, "lon": -90.5434001, "tags": {"addr:housenumber": "2337", "addr:postcode": "63303", "addr:street": "Delaware Drive"}}, {"type": "node", "id": 6481760962, "lat": 38.7372517, "lon": -90.5382968, "tags": {"addr:housenumber": "2268", "addr:postcode": "63303", "addr:street": "Delaware Drive"}}, {"type": "node", "id": 6481760963, "lat": 38.740327, "lon": -90.5436023, "tags": {"addr:housenumber": "2352", "addr:postcode": "63303", "addr:street": "Delaware Drive"}}, {"type": "node", "id": 6481760964, "lat": 38.7375413, "lon": -90.5402097, "tags": {"addr:housenumber": "2297", "addr:postcode": "63303", "addr:street": "Delaware Drive"}}, {"type": "node", "id": 6481760965, "lat": 38.7393669, "lon": -90.543592, "tags": {"addr:housenumber": "2341", "addr:postcode": "63303", "addr:street": "Delaware Drive"}}, {"type": "node", "id": 6481760966, "lat": 38.739199, "lon": -90.5428581, "tags": {"addr:housenumber": "2336", "addr:postcode": "63303", "addr:street": "Delaware Drive"}}, {"type": "node", "id": 6481760967, "lat": 38.7375851, "lon": -90.5395718, "tags": {"addr:housenumber": "2289", "addr:postcode": "63303", "addr:street": "Delaware Drive"}}, {"type": "node", "id": 6481760968, "lat": 38.7388724, "lon": -90.5431816, "tags": {"addr:housenumber": "2333", "addr:postcode": "63303", "addr:street": "Delaware Drive"}}, {"type": "node", "id": 6481760969, "lat": 38.7375223, "lon": -90.5399064, "tags": {"addr:housenumber": "2293", "addr:postcode": "63303", "addr:street": "Delaware Drive"}}, {"type": "node", "id": 6481760970, "lat": 38.7396004, "lon": -90.5437805, "tags": {"addr:housenumber": "2345", "addr:postcode": "63303", "addr:street": "Delaware Drive"}}, {"type": "node", "id": 6481760971, "lat": 38.7381567, "lon": -90.5404325, "tags": {"addr:housenumber": "2304", "addr:postcode": "63303", "addr:street": "Delaware Drive"}}, {"type": "node", "id": 6481760974, "lat": 38.7379075, "lon": -90.5398795, "tags": {"addr:housenumber": "2296", "addr:postcode": "63303", "addr:street": "Delaware Drive"}}, {"type": "node", "id": 6481760975, "lat": 38.736621, "lon": -90.5378091, "tags": {"addr:housenumber": "2260", "addr:postcode": "63303", "addr:street": "Delaware Drive"}}, {"type": "node", "id": 6481760976, "lat": 38.7379258, "lon": -90.5401921, "tags": {"addr:housenumber": "2300", "addr:postcode": "63303", "addr:street": "Delaware Drive"}}, {"type": "node", "id": 6481760977, "lat": 38.7398339, "lon": -90.5439455, "tags": {"addr:housenumber": "2349", "addr:postcode": "63303", "addr:street": "Delaware Drive"}}, {"type": "node", "id": 6481760978, "lat": 38.7380942, "lon": -90.54115, "tags": {"addr:housenumber": "2309", "addr:postcode": "63303", "addr:street": "Delaware Drive"}}, {"type": "node", "id": 6481760979, "lat": 38.7405323, "lon": -90.5437508, "tags": {"addr:housenumber": "2356", "addr:postcode": "63303", "addr:street": "Delaware Drive"}}, {"type": "node", "id": 6481760980, "lat": 38.7376825, "lon": -90.5385232, "tags": {"addr:housenumber": "2276", "addr:postcode": "63303", "addr:street": "Delaware Drive"}}, {"type": "node", "id": 6481760981, "lat": 38.7384098, "lon": -90.5427574, "tags": {"addr:housenumber": "2325", "addr:postcode": "63303", "addr:street": "Delaware Drive"}}, {"type": "node", "id": 6481762026, "lat": 38.7407879, "lon": -90.5400523, "tags": {"addr:housenumber": "2518", "addr:postcode": "63303", "addr:street": "Trenton Station"}}, {"type": "node", "id": 6481762031, "lat": 38.7422459, "lon": -90.5405092, "tags": {"addr:housenumber": "2530", "addr:postcode": "63303", "addr:street": "Trenton Station"}}, {"type": "node", "id": 6481762036, "lat": 38.7405521, "lon": -90.5398271, "tags": {"addr:housenumber": "2516", "addr:postcode": "63303", "addr:street": "Trenton Station"}}, {"type": "node", "id": 6481762037, "lat": 38.7410206, "lon": -90.5408211, "tags": {"addr:housenumber": "2521", "addr:postcode": "63303", "addr:street": "Trenton Station"}}, {"type": "node", "id": 6481762038, "lat": 38.7409994, "lon": -90.5402946, "tags": {"addr:housenumber": "2520", "addr:postcode": "63303", "addr:street": "Trenton Station"}}, {"type": "node", "id": 6481762040, "lat": 38.7407012, "lon": -90.5406764, "tags": {"addr:housenumber": "2519", "addr:postcode": "63303", "addr:street": "Trenton Station"}}, {"type": "node", "id": 6481762042, "lat": 38.7414685, "lon": -90.5405745, "tags": {"addr:housenumber": "2524", "addr:postcode": "63303", "addr:street": "Trenton Station"}}, {"type": "node", "id": 6481762043, "lat": 38.7412604, "lon": -90.541014, "tags": {"addr:housenumber": "2523", "addr:postcode": "63303", "addr:street": "Trenton Station"}}, {"type": "node", "id": 6481762044, "lat": 38.7403751, "lon": -90.5403258, "tags": {"addr:housenumber": "2517", "addr:postcode": "63303", "addr:street": "Trenton Station"}}, {"type": "node", "id": 6481762045, "lat": 38.7399603, "lon": -90.5398856, "tags": {"addr:housenumber": "2513", "addr:postcode": "63303", "addr:street": "Trenton Station"}}, {"type": "node", "id": 6481762046, "lat": 38.7400869, "lon": -90.5395827, "tags": {"addr:housenumber": "2512", "addr:postcode": "63303", "addr:street": "Trenton Station"}}, {"type": "node", "id": 6481762047, "lat": 38.7419647, "lon": -90.5405327, "tags": {"addr:housenumber": "2526", "addr:postcode": "63303", "addr:street": "Trenton Station"}}, {"type": "node", "id": 6481762048, "lat": 38.7403489, "lon": -90.5396109, "tags": {"addr:housenumber": "2514", "addr:postcode": "63303", "addr:street": "Trenton Station"}}, {"type": "node", "id": 6481762049, "lat": 38.7401085, "lon": -90.5401692, "tags": {"addr:housenumber": "2515", "addr:postcode": "63303", "addr:street": "Trenton Station"}}, {"type": "node", "id": 6481762060, "lat": 38.7411884, "lon": -90.5403989, "tags": {"addr:housenumber": "2522", "addr:postcode": "63303", "addr:street": "Trenton Station"}}, {"type": "node", "id": 6557448593, "lat": 38.7412382, "lon": -90.5420961, "tags": {"addr:housenumber": "1", "addr:postcode": "63303", "addr:street": "Ironside Court"}}, {"type": "node", "id": 6557448594, "lat": 38.7401585, "lon": -90.5407102, "tags": {"addr:housenumber": "396", "addr:postcode": "63303", "addr:street": "Portsmouth Drive"}}, {"type": "node", "id": 6557448595, "lat": 38.7386973, "lon": -90.5405769, "tags": {"addr:housenumber": "51", "addr:postcode": "63303", "addr:street": "Lansdowne Court"}}, {"type": "node", "id": 6557448596, "lat": 38.7399309, "lon": -90.5408914, "tags": {"addr:housenumber": "394", "addr:postcode": "63303", "addr:street": "Portsmouth Drive"}}, {"type": "node", "id": 6557448597, "lat": 38.7390402, "lon": -90.5421679, "tags": {"addr:housenumber": "382", "addr:postcode": "63303", "addr:street": "Portsmouth Drive"}}, {"type": "node", "id": 6557448599, "lat": 38.740611, "lon": -90.5416866, "tags": {"addr:housenumber": "4", "addr:postcode": "63303", "addr:street": "Ironside Court"}}, {"type": "node", "id": 6557448600, "lat": 38.7405147, "lon": -90.5383933, "tags": {"addr:housenumber": "16", "addr:postcode": "63303", "addr:street": "Hancock Court"}}, {"type": "node", "id": 6557448601, "lat": 38.7391939, "lon": -90.5418479, "tags": {"addr:housenumber": "384", "addr:postcode": "63303", "addr:street": "Portsmouth Drive"}}, {"type": "node", "id": 6557448602, "lat": 38.7393501, "lon": -90.5415887, "tags": {"addr:housenumber": "386", "addr:postcode": "63303", "addr:street": "Portsmouth Drive"}}, {"type": "node", "id": 6557448603, "lat": 38.7385417, "lon": -90.5392084, "tags": {"addr:housenumber": "72", "addr:postcode": "63303", "addr:street": "Sandy Ridge Court"}}, {"type": "node", "id": 6557448604, "lat": 38.7410884, "lon": -90.538154, "tags": {"addr:housenumber": "11", "addr:postcode": "63303", "addr:street": "Hancock Court"}}, {"type": "node", "id": 6557448605, "lat": 38.7394919, "lon": -90.5422048, "tags": {"addr:housenumber": "387", "addr:postcode": "63303", "addr:street": "Portsmouth Drive"}}, {"type": "node", "id": 6557448607, "lat": 38.7409921, "lon": -90.5385026, "tags": {"addr:housenumber": "12", "addr:postcode": "63303", "addr:street": "Hancock Court"}}, {"type": "node", "id": 6557448610, "lat": 38.7408071, "lon": -90.5414374, "tags": {"addr:housenumber": "5", "addr:postcode": "63303", "addr:street": "Ironside Court"}}, {"type": "node", "id": 6557448612, "lat": 38.7408916, "lon": -90.5388501, "tags": {"addr:housenumber": "13", "addr:postcode": "63303", "addr:street": "Hancock Court"}}, {"type": "node", "id": 6557448614, "lat": 38.7410014, "lon": -90.5414943, "tags": {"addr:housenumber": "6", "addr:postcode": "63303", "addr:street": "Ironside Court"}}, {"type": "node", "id": 6557448615, "lat": 38.7397558, "lon": -90.5427844, "tags": {"addr:housenumber": "41", "addr:postcode": "63303", "addr:street": "Boonesborough Court"}}, {"type": "node", "id": 6557448617, "lat": 38.7403346, "lon": -90.5428931, "tags": {"addr:housenumber": "44", "addr:postcode": "63303", "addr:street": "Boonesborough Court"}}, {"type": "node", "id": 6557448618, "lat": 38.7402992, "lon": -90.541177, "tags": {"addr:housenumber": "395", "addr:postcode": "63303", "addr:street": "Portsmouth Drive"}}, {"type": "node", "id": 6557448620, "lat": 38.740171, "lon": -90.5431755, "tags": {"addr:housenumber": "45", "addr:postcode": "63303", "addr:street": "Boonesborough Court"}}, {"type": "node", "id": 6557448621, "lat": 38.7385655, "lon": -90.5398609, "tags": {"addr:housenumber": "75", "addr:postcode": "63303", "addr:street": "Sandy Ridge Court"}}, {"type": "node", "id": 6557448622, "lat": 38.7399042, "lon": -90.5425657, "tags": {"addr:housenumber": "42", "addr:postcode": "63303", "addr:street": "Boonesborough Court"}}, {"type": "node", "id": 6557448623, "lat": 38.7387627, "lon": -90.5396827, "tags": {"addr:housenumber": "74", "addr:postcode": "63303", "addr:street": "Sandy Ridge Court"}}, {"type": "node", "id": 6557448624, "lat": 38.7404487, "lon": -90.5387308, "tags": {"addr:housenumber": "15", "addr:postcode": "63303", "addr:street": "Hancock Court"}}, {"type": "node", "id": 6557448625, "lat": 38.7402018, "lon": -90.5425736, "tags": {"addr:housenumber": "43", "addr:postcode": "63303", "addr:street": "Boonesborough Court"}}, {"type": "node", "id": 6557448626, "lat": 38.7406698, "lon": -90.53897, "tags": {"addr:housenumber": "14", "addr:postcode": "63303", "addr:street": "Hancock Court"}}, {"type": "node", "id": 6557448627, "lat": 38.742208, "lon": -90.5395085, "tags": {"addr:housenumber": "32", "addr:postcode": "63303", "addr:street": "Newton Court"}}, {"type": "node", "id": 6557448630, "lat": 38.7412639, "lon": -90.5416304, "tags": {"addr:housenumber": "7", "addr:postcode": "63303", "addr:street": "Ironside Court"}}, {"type": "node", "id": 6557448632, "lat": 38.7406633, "lon": -90.5420135, "tags": {"addr:housenumber": "3", "addr:postcode": "63303", "addr:street": "Ironside Court"}}, {"type": "node", "id": 6557448634, "lat": 38.7409216, "lon": -90.5420834, "tags": {"addr:housenumber": "2", "addr:postcode": "63303", "addr:street": "Ironside Court"}}, {"type": "node", "id": 6557448636, "lat": 38.7379867, "lon": -90.5390378, "tags": {"addr:housenumber": "70", "addr:postcode": "63303", "addr:street": "Sandy Ridge Court"}}, {"type": "node", "id": 6557448637, "lat": 38.7398356, "lon": -90.5415029, "tags": {"addr:housenumber": "391", "addr:postcode": "63303", "addr:street": "Portsmouth Drive"}}, {"type": "node", "id": 6557448638, "lat": 38.7400954, "lon": -90.5413598, "tags": {"addr:housenumber": "393", "addr:postcode": "63303", "addr:street": "Portsmouth Drive"}}, {"type": "node", "id": 6557448639, "lat": 38.7388518, "lon": -90.5403861, "tags": {"addr:housenumber": "52", "addr:postcode": "63303", "addr:street": "Lansdowne Court"}}, {"type": "node", "id": 6557448641, "lat": 38.7393482, "lon": -90.5404446, "tags": {"addr:housenumber": "54", "addr:postcode": "63303", "addr:street": "Lansdowne Court"}}, {"type": "node", "id": 6557448642, "lat": 38.7388602, "lon": -90.5425429, "tags": {"addr:housenumber": "380", "addr:postcode": "63303", "addr:street": "Portsmouth Drive"}}, {"type": "node", "id": 6557448643, "lat": 38.7391206, "lon": -90.5402328, "tags": {"addr:housenumber": "53", "addr:postcode": "63303", "addr:street": "Lansdowne Court"}}, {"type": "node", "id": 6557448644, "lat": 38.7393679, "lon": -90.5424821, "tags": {"addr:housenumber": "385", "addr:postcode": "63303", "addr:street": "Portsmouth Drive"}}, {"type": "node", "id": 6557448645, "lat": 38.7396145, "lon": -90.5418559, "tags": {"addr:housenumber": "389", "addr:postcode": "63303", "addr:street": "Portsmouth Drive"}}, {"type": "node", "id": 6557448646, "lat": 38.7405327, "lon": -90.5409675, "tags": {"addr:housenumber": "397", "addr:postcode": "63303", "addr:street": "Portsmouth Drive"}}, {"type": "node", "id": 6557448647, "lat": 38.738745, "lon": -90.5394006, "tags": {"addr:housenumber": "73", "addr:postcode": "63303", "addr:street": "Sandy Ridge Court"}}, {"type": "node", "id": 6557448649, "lat": 38.7383029, "lon": -90.5390937, "tags": {"addr:housenumber": "71", "addr:postcode": "63303", "addr:street": "Sandy Ridge Court"}}, {"type": "node", "id": 6557448650, "lat": 38.7419589, "lon": -90.5399737, "tags": {"addr:housenumber": "38", "addr:postcode": "63303", "addr:street": "Newton Court"}}, {"type": "node", "id": 6557448651, "lat": 38.7383445, "lon": -90.5398012, "tags": {"addr:housenumber": "76", "addr:postcode": "63303", "addr:street": "Sandy Ridge Court"}}, {"type": "node", "id": 6557448653, "lat": 38.7390791, "lon": -90.5409316, "tags": {"addr:housenumber": "56", "addr:postcode": "63303", "addr:street": "Lansdowne Court"}}, {"type": "node", "id": 6557448654, "lat": 38.7393335, "lon": -90.5407385, "tags": {"addr:housenumber": "55", "addr:postcode": "63303", "addr:street": "Lansdowne Court"}}, {"type": "node", "id": 6557448655, "lat": 38.7388412, "lon": -90.5411045, "tags": {"addr:housenumber": "57", "addr:postcode": "63303", "addr:street": "Lansdowne Court"}}, {"type": "node", "id": 6557448656, "lat": 38.7407109, "lon": -90.5379074, "tags": {"addr:housenumber": "17", "addr:postcode": "63303", "addr:street": "Hancock Court"}}, {"type": "node", "id": 6557448657, "lat": 38.7396732, "lon": -90.5409914, "tags": {"addr:housenumber": "390", "addr:postcode": "63303", "addr:street": "Portsmouth Drive"}}, {"type": "node", "id": 6557448658, "lat": 38.7394909, "lon": -90.5412838, "tags": {"addr:housenumber": "388", "addr:postcode": "63303", "addr:street": "Portsmouth Drive"}}, {"type": "node", "id": 6557448659, "lat": 38.7385705, "lon": -90.5413388, "tags": {"addr:housenumber": "58", "addr:postcode": "63303", "addr:street": "Lansdowne Court"}}, {"type": "node", "id": 6557448660, "lat": 38.7376231, "lon": -90.5377742, "tags": {"addr:housenumber": "2620", "addr:postcode": "63303", "addr:street": "Justin Way"}}, {"type": "node", "id": 6557448664, "lat": 38.7380085, "lon": -90.5380405, "tags": {"addr:housenumber": "2610", "addr:postcode": "63303", "addr:street": "Justin Way"}}, {"type": "node", "id": 6557448692, "lat": 38.7364879, "lon": -90.5401044, "tags": {"addr:housenumber": "81", "addr:postcode": "63303", "addr:street": "Pineview Ridge Court"}}, {"type": "node", "id": 6557448698, "lat": 38.7366151, "lon": -90.5446625, "tags": {"addr:housenumber": "3019", "addr:postcode": "63303", "addr:street": "Paddlewheel Court"}}, {"type": "node", "id": 6557448699, "lat": 38.7366273, "lon": -90.5443206, "tags": {"addr:housenumber": "3015", "addr:postcode": "63303", "addr:street": "Paddlewheel Court"}}, {"type": "node", "id": 6557448700, "lat": 38.7378839, "lon": -90.5440338, "tags": {"addr:housenumber": "20", "addr:postcode": "63303", "addr:street": "Streamside Court"}}, {"type": "node", "id": 6557448704, "lat": 38.7383495, "lon": -90.5441522, "tags": {"addr:housenumber": "22", "addr:postcode": "63303", "addr:street": "Streamside Court"}}, {"type": "node", "id": 6557448705, "lat": 38.7379251, "lon": -90.5431722, "tags": {"addr:housenumber": "11", "addr:postcode": "63303", "addr:street": "Rippling Water Court"}}, {"type": "node", "id": 6557448706, "lat": 38.7383995, "lon": -90.544636, "tags": {"addr:housenumber": "24", "addr:postcode": "63303", "addr:street": "Streamside Court"}}, {"type": "node", "id": 6557448710, "lat": 38.7373644, "lon": -90.5414507, "tags": {"addr:housenumber": "65", "addr:postcode": "63303", "addr:street": "Davenport Court"}}, {"type": "node", "id": 6557448727, "lat": 38.7360033, "lon": -90.5378491, "tags": {"addr:housenumber": "95", "addr:postcode": "63303", "addr:street": "Delaware Court"}}, {"type": "node", "id": 6557448734, "lat": 38.7362748, "lon": -90.5399491, "tags": {"addr:housenumber": "82", "addr:postcode": "63303", "addr:street": "Pineview Ridge Court"}}, {"type": "node", "id": 6557448737, "lat": 38.7363748, "lon": -90.5394632, "tags": {"addr:housenumber": "83", "addr:postcode": "63303", "addr:street": "Pineview Ridge Court"}}, {"type": "node", "id": 6557448739, "lat": 38.7381437, "lon": -90.5436988, "tags": {"addr:housenumber": "15", "addr:postcode": "63303", "addr:street": "Rippling Water Court"}}, {"type": "node", "id": 6557448742, "lat": 38.7383944, "lon": -90.5436832, "tags": {"addr:housenumber": "14", "addr:postcode": "63303", "addr:street": "Rippling Water Court"}}, {"type": "node", "id": 6557448743, "lat": 38.7371282, "lon": -90.544002, "tags": {"addr:housenumber": "3006", "addr:postcode": "63303", "addr:street": "Paddlewheel Court"}}, {"type": "node", "id": 6557448744, "lat": 38.7357607, "lon": -90.5381024, "tags": {"addr:housenumber": "94", "addr:postcode": "63303", "addr:street": "Delaware Court"}}, {"type": "node", "id": 6557448745, "lat": 38.7369665, "lon": -90.5446287, "tags": {"addr:housenumber": "3014", "addr:postcode": "63303", "addr:street": "Paddlewheel Court"}}, {"type": "node", "id": 6557448747, "lat": 38.7360955, "lon": -90.5438912, "tags": {"addr:housenumber": "3012", "addr:postcode": "63303", "addr:street": "Riverwood Drive"}}, {"type": "node", "id": 6557448748, "lat": 38.7369758, "lon": -90.544325, "tags": {"addr:housenumber": "3010", "addr:postcode": "63303", "addr:street": "Paddlewheel Court"}}, {"type": "node", "id": 6557448750, "lat": 38.7366275, "lon": -90.5437833, "tags": {"addr:housenumber": "3007", "addr:postcode": "63303", "addr:street": "Paddlewheel Court"}}, {"type": "node", "id": 6557448755, "lat": 38.7359316, "lon": -90.5432527, "tags": {"addr:housenumber": "3004", "addr:postcode": "63303", "addr:street": "Riverwood Drive"}}, {"type": "node", "id": 6557448772, "lat": 38.736635, "lon": -90.544066, "tags": {"addr:housenumber": "3011", "addr:postcode": "63303", "addr:street": "Paddlewheel Court"}}, {"type": "node", "id": 6557448774, "lat": 38.7356137, "lon": -90.5430199, "tags": {"addr:housenumber": "3000", "addr:postcode": "63303", "addr:street": "Riverwood Drive"}}, {"type": "node", "id": 6557448776, "lat": 38.7357176, "lon": -90.54413, "tags": {"addr:housenumber": "3005", "addr:postcode": "63303", "addr:street": "Riverwood Drive"}}, {"type": "node", "id": 6557448777, "lat": 38.7360982, "lon": -90.5443533, "tags": {"addr:housenumber": "3014", "addr:postcode": "63303", "addr:street": "Riverwood Drive"}}, {"type": "node", "id": 6557448778, "lat": 38.7361037, "lon": -90.5448144, "tags": {"addr:housenumber": "3016", "addr:postcode": "63303", "addr:street": "Riverwood Drive"}}, {"type": "node", "id": 6557448782, "lat": 38.7369612, "lon": -90.5448537, "tags": {"addr:housenumber": "3018", "addr:postcode": "63303", "addr:street": "Paddlewheel Court"}}, {"type": "node", "id": 6557448788, "lat": 38.7357359, "lon": -90.5445451, "tags": {"addr:housenumber": "3009", "addr:postcode": "63303", "addr:street": "Riverwood Drive"}}, {"type": "node", "id": 6557448789, "lat": 38.7360817, "lon": -90.543585, "tags": {"addr:housenumber": "3008", "addr:postcode": "63303", "addr:street": "Riverwood Drive"}}, {"type": "node", "id": 6557448790, "lat": 38.7367233, "lon": -90.5400152, "tags": {"addr:housenumber": "80", "addr:postcode": "63303", "addr:street": "Pineview Ridge Court"}}, {"type": "node", "id": 6557448794, "lat": 38.735717, "lon": -90.5383932, "tags": {"addr:housenumber": "93", "addr:postcode": "63303", "addr:street": "Delaware Court"}}, {"type": "node", "id": 6557448795, "lat": 38.7358579, "lon": -90.5385595, "tags": {"addr:housenumber": "92", "addr:postcode": "63303", "addr:street": "Delaware Court"}}, {"type": "node", "id": 6557448796, "lat": 38.738397, "lon": -90.5433409, "tags": {"addr:housenumber": "13", "addr:postcode": "63303", "addr:street": "Rippling Water Court"}}, {"type": "node", "id": 6557448798, "lat": 38.7380778, "lon": -90.5441248, "tags": {"addr:housenumber": "21", "addr:postcode": "63303", "addr:street": "Streamside Court"}}, {"type": "node", "id": 6557448799, "lat": 38.7370509, "lon": -90.5436572, "tags": {"addr:housenumber": "3002", "addr:postcode": "63303", "addr:street": "Paddlewheel Court"}}, {"type": "node", "id": 6557448802, "lat": 38.7356365, "lon": -90.543606, "tags": {"addr:housenumber": "3001", "addr:postcode": "63303", "addr:street": "Riverwood Drive"}}, {"type": "node", "id": 6557448803, "lat": 38.7362981, "lon": -90.5382292, "tags": {"addr:housenumber": "90", "addr:postcode": "63303", "addr:street": "Delaware Court"}}, {"type": "node", "id": 6557448804, "lat": 38.7361311, "lon": -90.5385757, "tags": {"addr:housenumber": "91", "addr:postcode": "63303", "addr:street": "Delaware Court"}}, {"type": "node", "id": 6557448805, "lat": 38.7384335, "lon": -90.5443497, "tags": {"addr:housenumber": "23", "addr:postcode": "63303", "addr:street": "Streamside Court"}}, {"type": "node", "id": 6557448806, "lat": 38.738092, "lon": -90.5419852, "tags": {"addr:housenumber": "68", "addr:postcode": "63303", "addr:street": "Davenport Court"}}, {"type": "node", "id": 6557448807, "lat": 38.7381772, "lon": -90.5446935, "tags": {"addr:housenumber": "25", "addr:postcode": "63303", "addr:street": "Streamside Court"}}, {"type": "node", "id": 6557448808, "lat": 38.7378092, "lon": -90.5417349, "tags": {"addr:housenumber": "67", "addr:postcode": "63303", "addr:street": "Davenport Court"}}, {"type": "node", "id": 6557448809, "lat": 38.7376823, "lon": -90.5422294, "tags": {"addr:housenumber": "62", "addr:postcode": "63303", "addr:street": "Davenport Court"}}, {"type": "node", "id": 6557448810, "lat": 38.7376095, "lon": -90.5413797, "tags": {"addr:housenumber": "66", "addr:postcode": "63303", "addr:street": "Davenport Court"}}, {"type": "node", "id": 6557448811, "lat": 38.7372961, "lon": -90.5418283, "tags": {"addr:housenumber": "64", "addr:postcode": "63303", "addr:street": "Davenport Court"}}, {"type": "node", "id": 6557448812, "lat": 38.7381636, "lon": -90.543175, "tags": {"addr:housenumber": "12", "addr:postcode": "63303", "addr:street": "Rippling Water Court"}}, {"type": "node", "id": 6557448813, "lat": 38.7378988, "lon": -90.5436105, "tags": {"addr:housenumber": "16", "addr:postcode": "63303", "addr:street": "Rippling Water Court"}}, {"type": "node", "id": 6557448814, "lat": 38.7374416, "lon": -90.5420644, "tags": {"addr:housenumber": "63", "addr:postcode": "63303", "addr:street": "Davenport Court"}}, {"type": "node", "id": 6557448815, "lat": 38.737902, "lon": -90.5424178, "tags": {"addr:housenumber": "61", "addr:postcode": "63303", "addr:street": "Davenport Court"}}, {"type": "node", "id": 6557448816, "lat": 38.7380248, "lon": -90.5445554, "tags": {"addr:housenumber": "26", "addr:postcode": "63303", "addr:street": "Streamside Court"}}, {"type": "node", "id": 6557448818, "lat": 38.7381809, "lon": -90.5425045, "tags": {"addr:housenumber": "60", "addr:postcode": "63303", "addr:street": "Davenport Court"}}, {"type": "node", "id": 6557448819, "lat": 38.7367999, "lon": -90.5435797, "tags": {"addr:housenumber": "3003", "addr:postcode": "63303", "addr:street": "Paddlewheel Court"}}, {"type": "node", "id": 6557462988, "lat": 38.742086, "lon": -90.5437502, "tags": {"addr:housenumber": "21", "addr:postcode": "63303", "addr:street": "Confederate Way"}}, {"type": "node", "id": 6557462989, "lat": 38.7419132, "lon": -90.5435589, "tags": {"addr:housenumber": "22", "addr:postcode": "63303", "addr:street": "Confederate Way"}}, {"type": "node", "id": 6557463000, "lat": 38.7409794, "lon": -90.5446426, "tags": {"addr:housenumber": "30", "addr:postcode": "63303", "addr:street": "Burnside Court"}}, {"type": "node", "id": 6557463029, "lat": 38.7421188, "lon": -90.5447287, "tags": {"addr:housenumber": "20", "addr:postcode": "63303", "addr:street": "Burnside Court"}}, {"type": "node", "id": 6557463031, "lat": 38.7419207, "lon": -90.5446734, "tags": {"addr:housenumber": "22", "addr:postcode": "63303", "addr:street": "Burnside Court"}}, {"type": "node", "id": 6557463038, "lat": 38.7417329, "lon": -90.544641, "tags": {"addr:housenumber": "24", "addr:postcode": "63303", "addr:street": "Burnside Court"}}, {"type": "node", "id": 6557463039, "lat": 38.7411476, "lon": -90.5444071, "tags": {"addr:housenumber": "28", "addr:postcode": "63303", "addr:street": "Burnside Court"}}, {"type": "node", "id": 6557463050, "lat": 38.7414529, "lon": -90.5445659, "tags": {"addr:housenumber": "26", "addr:postcode": "63303", "addr:street": "Burnside Court"}}, {"type": "node", "id": 6557463058, "lat": 38.7419708, "lon": -90.5432702, "tags": {"addr:housenumber": "23", "addr:postcode": "63303", "addr:street": "Confederate Way"}}, {"type": "node", "id": 6557463078, "lat": 38.7422169, "lon": -90.5432036, "tags": {"addr:housenumber": "24", "addr:postcode": "63303", "addr:street": "Confederate Way"}}]}