{"version": 0.6, "generator": "Overpass API 0.7.62.5 1bd436f1", "osm3s": {"timestamp_osm_base": "2025-04-18T11:24:41Z", "copyright": "The data included in this document is from www.openstreetmap.org. The data is made available under ODbL."}, "elements": [{"type": "node", "id": 4179144563, "lat": 38.768777, "lon": -90.4994452}, {"type": "node", "id": 4179144565, "lat": 38.7688046, "lon": -90.4994103}, {"type": "node", "id": 4179144566, "lat": 38.7688094, "lon": -90.4994346}, {"type": "node", "id": 4179144567, "lat": 38.7688096, "lon": -90.499609}, {"type": "node", "id": 4179144571, "lat": 38.7688491, "lon": -90.4995961}, {"type": "node", "id": 4179144573, "lat": 38.768855, "lon": -90.4996255}, {"type": "node", "id": 4179144576, "lat": 38.7688886, "lon": -90.4993828}, {"type": "node", "id": 4179144577, "lat": 38.7688906, "lon": -90.4993927}, {"type": "node", "id": 4179144582, "lat": 38.7689293, "lon": -90.4995848}, {"type": "node", "id": 4179144583, "lat": 38.7689324, "lon": -90.4996002}, {"type": "node", "id": 4179144586, "lat": 38.7689833, "lon": -90.4993448}, {"type": "node", "id": 4179144587, "lat": 38.7689866, "lon": -90.4993613}, {"type": "node", "id": 4179144588, "lat": 38.7690234, "lon": -90.499554}, {"type": "node", "id": 4179149389, "lat": 38.7690276, "lon": -90.4995752}, {"type": "node", "id": 4179149396, "lat": 38.7691604, "lon": -90.4992869}, {"type": "node", "id": 4179149398, "lat": 38.7691651, "lon": -90.4993106}, {"type": "node", "id": 4179149401, "lat": 38.7692016, "lon": -90.499502}, {"type": "node", "id": 4179149402, "lat": 38.7692046, "lon": -90.4995173}, {"type": "node", "id": 4179149405, "lat": 38.7692617, "lon": -90.4992687}, {"type": "node", "id": 4179149406, "lat": 38.7692637, "lon": -90.4992784}, {"type": "node", "id": 4179149409, "lat": 38.7693016, "lon": -90.4994693}, {"type": "node", "id": 4179149410, "lat": 38.7693054, "lon": -90.4994883}, {"type": "node", "id": 4179149417, "lat": 38.7693404, "lon": -90.499243}, {"type": "node", "id": 4179149418, "lat": 38.7693458, "lon": -90.4992699}, {"type": "node", "id": 4179149423, "lat": 38.769364, "lon": -90.4992639}, {"type": "node", "id": 4179149425, "lat": 38.7693771, "lon": -90.4994357}, {"type": "node", "id": 4179149426, "lat": 38.7693825, "lon": -90.4994631}, {"type": "node", "id": 4179149427, "lat": 38.7693969, "lon": -90.4994292}, {"type": "node", "id": 5628792244, "lat": 38.7681111, "lon": -90.4984509, "tags": {"addr:city": "Saint Charles", "addr:housenumber": "711", "addr:postcode": "63303", "addr:street": "Veterans Memorial Parkway"}}, {"type": "node", "id": 5633601090, "lat": 38.764895, "lon": -90.4972374, "tags": {"addr:city": "Saint Charles", "addr:housenumber": "1655", "addr:postcode": "63303", "addr:street": "South Fifth Street"}}, {"type": "node", "id": 5633601094, "lat": 38.7649291, "lon": -90.4971975, "tags": {"addr:city": "Saint Charles", "addr:housenumber": "1653", "addr:postcode": "63303", "addr:street": "South Fifth Street"}}, {"type": "node", "id": 5633601103, "lat": 38.764951, "lon": -90.4971582, "tags": {"addr:city": "Saint Charles", "addr:housenumber": "1651", "addr:postcode": "63303", "addr:street": "South Fifth Street"}}, {"type": "node", "id": 5633601635, "lat": 38.7648601, "lon": -90.4972832, "tags": {"addr:city": "Saint Charles", "addr:housenumber": "1657", "addr:postcode": "63303", "addr:street": "South Fifth Street"}}, {"type": "node", "id": 5633601637, "lat": 38.7648328, "lon": -90.4973222, "tags": {"addr:city": "Saint Charles", "addr:housenumber": "1659", "addr:postcode": "63303", "addr:street": "South Fifth Street"}}, {"type": "node", "id": 5635610485, "lat": 38.7651309, "lon": -90.4980861, "tags": {"addr:city": "Saint Charles", "addr:housenumber": "518", "addr:postcode": "63303", "addr:street": "San Juan Drive", "addr:unit": "2E"}}, {"type": "node", "id": 5635610486, "lat": 38.7651277, "lon": -90.4978217, "tags": {"addr:city": "Saint Charles", "addr:housenumber": "512", "addr:postcode": "63303", "addr:street": "San Juan Drive", "addr:unit": "1W"}}, {"type": "node", "id": 5635611142, "lat": 38.7652382, "lon": -90.4983362, "tags": {"addr:city": "Saint Charles", "addr:housenumber": "528", "addr:postcode": "63303", "addr:street": "San Juan Drive"}}, {"type": "node", "id": 5635611143, "lat": 38.7652565, "lon": -90.4984869, "tags": {"addr:city": "Saint Charles", "addr:housenumber": "534", "addr:postcode": "63303", "addr:street": "San Juan Drive"}}, {"type": "node", "id": 5635611144, "lat": 38.7650968, "lon": -90.4987021, "tags": {"addr:city": "Saint Charles", "addr:housenumber": "544", "addr:postcode": "63303", "addr:street": "San Juan Drive"}}, {"type": "node", "id": 5635611145, "lat": 38.7650632, "lon": -90.4987031, "tags": {"addr:city": "Saint Charles", "addr:housenumber": "546", "addr:postcode": "63303", "addr:street": "San Juan Drive"}}, {"type": "node", "id": 5635611146, "lat": 38.7652058, "lon": -90.4985806, "tags": {"addr:city": "Saint Charles", "addr:housenumber": "538", "addr:postcode": "63303", "addr:street": "San Juan Drive"}}, {"type": "node", "id": 5635611147, "lat": 38.7649608, "lon": -90.4974758, "tags": {"addr:city": "Saint Charles", "addr:housenumber": "504", "addr:postcode": "63303", "addr:street": "San Juan Drive", "addr:unit": "1E"}}, {"type": "node", "id": 5635611148, "lat": 38.7651937, "lon": -90.4986296, "tags": {"addr:city": "Saint Charles", "addr:housenumber": "540", "addr:postcode": "63303", "addr:street": "San Juan Drive"}}, {"type": "node", "id": 5635611149, "lat": 38.7652049, "lon": -90.4983269, "tags": {"addr:city": "Saint Charles", "addr:housenumber": "526", "addr:postcode": "63303", "addr:street": "San Juan Drive"}}, {"type": "node", "id": 5635611150, "lat": 38.7650991, "lon": -90.4977462, "tags": {"addr:city": "Saint Charles", "addr:housenumber": "512", "addr:postcode": "63303", "addr:street": "San Juan Drive", "addr:unit": "2E"}}, {"type": "node", "id": 5635611151, "lat": 38.7652376, "lon": -90.498529, "tags": {"addr:city": "Saint Charles", "addr:housenumber": "536", "addr:postcode": "63303", "addr:street": "San Juan Drive"}}, {"type": "node", "id": 5635611152, "lat": 38.7651566, "lon": -90.4982789, "tags": {"addr:city": "Saint Charles", "addr:housenumber": "522", "addr:postcode": "63303", "addr:street": "San Juan Drive"}}, {"type": "node", "id": 5635611153, "lat": 38.7650008, "lon": -90.4975489, "tags": {"addr:city": "Saint Charles", "addr:housenumber": "504", "addr:postcode": "63303", "addr:street": "San Juan Drive", "addr:unit": "2E"}}, {"type": "node", "id": 5635611155, "lat": 38.7651689, "lon": -90.4983169, "tags": {"addr:city": "Saint Charles", "addr:housenumber": "524", "addr:postcode": "63303", "addr:street": "San Juan Drive"}}, {"type": "node", "id": 5635611157, "lat": 38.7650263, "lon": -90.4987098, "tags": {"addr:city": "Saint Charles", "addr:housenumber": "548", "addr:postcode": "63303", "addr:street": "San Juan Drive"}}, {"type": "node", "id": 5635611159, "lat": 38.7649899, "lon": -90.4987096, "tags": {"addr:city": "Saint Charles", "addr:housenumber": "550", "addr:postcode": "63303", "addr:street": "San Juan Drive"}}, {"type": "node", "id": 5635611179, "lat": 38.7650896, "lon": -90.497846, "tags": {"addr:city": "Saint Charles", "addr:housenumber": "512", "addr:postcode": "63303", "addr:street": "San Juan Drive", "addr:unit": "1E"}}, {"type": "node", "id": 5635611180, "lat": 38.7649303, "lon": -90.4975099, "tags": {"addr:city": "Saint Charles", "addr:housenumber": "504", "addr:postcode": "63303", "addr:street": "San Juan Drive", "addr:unit": "2W"}}, {"type": "node", "id": 5635611184, "lat": 38.7651614, "lon": -90.4980837, "tags": {"addr:city": "Saint Charles", "addr:housenumber": "518", "addr:postcode": "63303", "addr:street": "San Juan Drive", "addr:unit": "1E"}}, {"type": "node", "id": 5635611187, "lat": 38.7651557, "lon": -90.4980106, "tags": {"addr:city": "Saint Charles", "addr:housenumber": "518", "addr:postcode": "63303", "addr:street": "San Juan Drive", "addr:unit": "1W"}}, {"type": "node", "id": 5635611188, "lat": 38.7650686, "lon": -90.4977705, "tags": {"addr:city": "Saint Charles", "addr:housenumber": "512", "addr:postcode": "63303", "addr:street": "San Juan Drive", "addr:unit": "2W"}}, {"type": "node", "id": 5635611189, "lat": 38.764976, "lon": -90.4975732, "tags": {"addr:city": "Saint Charles", "addr:housenumber": "504", "addr:postcode": "63303", "addr:street": "San Juan Drive", "addr:unit": "1W"}}, {"type": "node", "id": 5635611191, "lat": 38.7651271, "lon": -90.4980155, "tags": {"addr:city": "Saint Charles", "addr:housenumber": "518", "addr:postcode": "63303", "addr:street": "San Juan Drive", "addr:unit": "2W"}}, {"type": "node", "id": 8401310761, "lat": 38.7657307, "lon": -90.495684}, {"type": "node", "id": 8401310762, "lat": 38.7656652, "lon": -90.4955004}, {"type": "node", "id": 8401310763, "lat": 38.7652024, "lon": -90.4957717}, {"type": "node", "id": 8401310764, "lat": 38.765268, "lon": -90.4959555}, {"type": "way", "id": 417357662, "nodes": [4179149427, 4179149423, 4179149418, 4179149417, 4179149405, 4179149406, 4179149398, 4179149396, 4179144586, 4179144587, 4179144577, 4179144576, 4179144565, 4179144566, 4179144563, 4179144567, 4179144571, 4179144573, 4179144583, 4179144582, 4179144588, 4179149389, 4179149402, 4179149401, 4179149409, 4179149410, 4179149426, 4179149425, 4179149427], "tags": {"addr:city": "Saint Charles", "addr:housenumber": "801", "addr:postcode": "63303", "addr:state": "MO", "addr:street": "Veterans Memorial Parkway", "alt_name": "Baymont by Wyndham", "branch": "Saint Louis Saint Charles", "brand": "Fairfield Inn", "brand:wikidata": "Q5430314", "building": "yes", "building:levels": "3", "internet_access": "wlan", "name": "Baymont by Wyndham Saint Charles", "official_name": "Fairfield by Marriott", "phone": "+1-636-206-4355", "ref": "STLSC", "tourism": "hotel", "website": "https://www.wyndhamhotels.com/baymont/st-charles-missouri/baymont-st-charles/overview"}}, {"type": "way", "id": 904634812, "nodes": [8401310761, 8401310762, 8401310763, 8401310764, 8401310761], "tags": {"building": "roof", "layer": "1", "name": "Fuel Pumps"}}]}