{"version": 0.6, "generator": "Overpass API 0.7.62.5 1bd436f1", "osm3s": {"timestamp_osm_base": "2025-04-18T11:19:37Z", "copyright": "The data included in this document is from www.openstreetmap.org. The data is made available under ODbL."}, "elements": [{"type": "node", "id": 2543763633, "lat": 38.7673872, "lon": -90.5224153}, {"type": "node", "id": 2543763639, "lat": 38.7677222, "lon": -90.5217301}, {"type": "node", "id": 2543763641, "lat": 38.7677857, "lon": -90.5227598}, {"type": "node", "id": 2543763653, "lat": 38.7681294, "lon": -90.5220598}, {"type": "node", "id": 5633604000, "lat": 38.7699494, "lon": -90.524046, "tags": {"addr:city": "Saint Charles", "addr:housenumber": "1500", "addr:postcode": "63303", "addr:street": "Zumbehl Road", "brand": "QuikTrip", "brand:wikidata": "Q7271953", "name": "QuikTrip", "shop": "convenience", "short_name": "QT"}}, {"type": "node", "id": 5633605032, "lat": 38.7652181, "lon": -90.5298861, "tags": {"addr:city": "Saint Charles", "addr:housenumber": "1852", "addr:postcode": "63303", "addr:street": "Santa Fe Drive"}}, {"type": "node", "id": 5633605033, "lat": 38.7652945, "lon": -90.5297459, "tags": {"addr:city": "Saint Charles", "addr:housenumber": "1848", "addr:postcode": "63303", "addr:street": "Santa Fe Drive"}}, {"type": "node", "id": 5633605038, "lat": 38.7658168, "lon": -90.5292671, "tags": {"addr:city": "Saint Charles", "addr:housenumber": "1833", "addr:postcode": "63303", "addr:street": "Santa Fe Drive"}}, {"type": "node", "id": 5633605045, "lat": 38.7657595, "lon": -90.5294104, "tags": {"addr:city": "Saint Charles", "addr:housenumber": "1837", "addr:postcode": "63303", "addr:street": "Santa Fe Drive"}}, {"type": "node", "id": 5633605050, "lat": 38.7660723, "lon": -90.5287248, "tags": {"addr:city": "Saint Charles", "addr:housenumber": "1817", "addr:postcode": "63303", "addr:street": "Santa Fe Drive"}}, {"type": "node", "id": 5633605054, "lat": 38.7658861, "lon": -90.5291209, "tags": {"addr:city": "Saint Charles", "addr:housenumber": "1829", "addr:postcode": "63303", "addr:street": "Santa Fe Drive"}}, {"type": "node", "id": 5633605058, "lat": 38.7654969, "lon": -90.5299527, "tags": {"addr:city": "Saint Charles", "addr:housenumber": "1853", "addr:postcode": "63303", "addr:street": "Santa Fe Drive"}}, {"type": "node", "id": 5633605059, "lat": 38.765559, "lon": -90.5298126, "tags": {"addr:city": "Saint Charles", "addr:housenumber": "1849", "addr:postcode": "63303", "addr:street": "Santa Fe Drive"}}, {"type": "node", "id": 5633605060, "lat": 38.7660078, "lon": -90.5288558, "tags": {"addr:city": "Saint Charles", "addr:housenumber": "1821", "addr:postcode": "63303", "addr:street": "Santa Fe Drive"}}, {"type": "node", "id": 5633605062, "lat": 38.7656263, "lon": -90.5290146, "tags": {"addr:city": "Saint Charles", "addr:housenumber": "1828", "addr:postcode": "63303", "addr:street": "Santa Fe Drive"}}, {"type": "node", "id": 5633605064, "lat": 38.7655714, "lon": -90.5291334, "tags": {"addr:city": "Saint Charles", "addr:housenumber": "1832", "addr:postcode": "63303", "addr:street": "Santa Fe Drive"}}, {"type": "node", "id": 5633605066, "lat": 38.765941, "lon": -90.5290051, "tags": {"addr:city": "Saint Charles", "addr:housenumber": "1825", "addr:postcode": "63303", "addr:street": "Santa Fe Drive"}}, {"type": "node", "id": 5633605067, "lat": 38.7657529, "lon": -90.5286947, "tags": {"addr:city": "Saint Charles", "addr:housenumber": "1820", "addr:postcode": "63303", "addr:street": "Santa Fe Drive"}}, {"type": "node", "id": 5633605084, "lat": 38.7656908, "lon": -90.5288379, "tags": {"addr:city": "Saint Charles", "addr:housenumber": "1824", "addr:postcode": "63303", "addr:street": "Santa Fe Drive"}}, {"type": "node", "id": 5633605086, "lat": 38.7661555, "lon": -90.5280771, "tags": {"addr:city": "Saint Charles", "addr:housenumber": "1800", "addr:postcode": "63303", "addr:street": "Santa Fe Drive"}}, {"type": "node", "id": 5633605089, "lat": 38.7661415, "lon": -90.5285846, "tags": {"addr:city": "Saint Charles", "addr:housenumber": "1813", "addr:postcode": "63303", "addr:street": "Santa Fe Drive"}}, {"type": "node", "id": 5633605091, "lat": 38.7654091, "lon": -90.5294686, "tags": {"addr:city": "Saint Charles", "addr:housenumber": "1840", "addr:postcode": "63303", "addr:street": "Santa Fe Drive"}}, {"type": "node", "id": 5633605093, "lat": 38.7658483, "lon": -90.5285514, "tags": {"addr:city": "Saint Charles", "addr:housenumber": "1816", "addr:postcode": "63303", "addr:street": "Santa Fe Drive"}}, {"type": "node", "id": 5633605095, "lat": 38.7654903, "lon": -90.5292888, "tags": {"addr:city": "Saint Charles", "addr:housenumber": "1836", "addr:postcode": "63303", "addr:street": "Santa Fe Drive"}}, {"type": "node", "id": 5633605099, "lat": 38.7658937, "lon": -90.5284296, "tags": {"addr:city": "Saint Charles", "addr:housenumber": "1812", "addr:postcode": "63303", "addr:street": "Santa Fe Drive"}}, {"type": "node", "id": 5633605106, "lat": 38.7656975, "lon": -90.5295383, "tags": {"addr:city": "Saint Charles", "addr:housenumber": "1841", "addr:postcode": "63303", "addr:street": "Santa Fe Drive"}}, {"type": "node", "id": 5633605107, "lat": 38.7660369, "lon": -90.5281736, "tags": {"addr:city": "Saint Charles", "addr:housenumber": "1804", "addr:postcode": "63303", "addr:street": "Santa Fe Drive"}}, {"type": "node", "id": 5633605109, "lat": 38.7659534, "lon": -90.5282985, "tags": {"addr:city": "Saint Charles", "addr:housenumber": "1808", "addr:postcode": "63303", "addr:street": "Santa Fe Drive"}}, {"type": "node", "id": 5633605118, "lat": 38.7653613, "lon": -90.5295966, "tags": {"addr:city": "Saint Charles", "addr:housenumber": "1844", "addr:postcode": "63303", "addr:street": "Santa Fe Drive"}}, {"type": "node", "id": 5633605119, "lat": 38.765633, "lon": -90.5296785, "tags": {"addr:city": "Saint Charles", "addr:housenumber": "1845", "addr:postcode": "63303", "addr:street": "Santa Fe Drive"}}, {"type": "node", "id": 5635611678, "lat": 38.7711979, "lon": -90.5224672, "tags": {"addr:housenumber": "1601", "addr:postcode": "63303", "addr:street": "South Old Highway 94"}}, {"type": "node", "id": 5635611684, "lat": 38.7690733, "lon": -90.5245891, "tags": {"addr:city": "Saint Charles", "addr:housenumber": "1703", "addr:postcode": "63303", "addr:street": "South Old Highway 94"}}, {"type": "node", "id": 5635611714, "lat": 38.7619888, "lon": -90.5297014, "tags": {"addr:city": "Saint Charles", "addr:housenumber": "1974", "addr:postcode": "63303", "addr:street": "South Old Highway 94"}}, {"type": "node", "id": 5635612249, "lat": 38.7670539, "lon": -90.5261459, "tags": {"addr:city": "Saint Charles", "addr:housenumber": "1757", "addr:postcode": "63303", "addr:street": "South Old Highway 94"}}, {"type": "node", "id": 5635612250, "lat": 38.7702224, "lon": -90.5236806, "tags": {"addr:city": "Saint Charles", "addr:housenumber": "1615", "addr:postcode": "63303", "addr:street": "South Old Highway 94"}}, {"type": "node", "id": 5635612257, "lat": 38.7665172, "lon": -90.5263739, "tags": {"addr:city": "Saint Charles", "addr:housenumber": "1801", "addr:postcode": "63303", "addr:street": "South Old Highway 94"}}, {"type": "node", "id": 5635612266, "lat": 38.7635384, "lon": -90.5278739, "tags": {"addr:city": "Saint Charles", "addr:housenumber": "1881", "addr:postcode": "63303", "addr:street": "South Old Highway 94"}}, {"type": "node", "id": 5635612276, "lat": 38.7715993, "lon": -90.5218281, "tags": {"addr:city": "Saint Charles", "addr:housenumber": "1581", "addr:postcode": "63303", "addr:street": "South Old Highway 94"}}, {"type": "node", "id": 5635612288, "lat": 38.7632081, "lon": -90.5284027, "tags": {"addr:city": "Saint Charles", "addr:housenumber": "1883", "addr:postcode": "63303", "addr:street": "South Old Highway 94"}}, {"type": "node", "id": 5635612289, "lat": 38.7632702, "lon": -90.5291543, "tags": {"addr:housenumber": "1887", "addr:postcode": "63303", "addr:street": "South Old Highway 94"}}, {"type": "node", "id": 5635612294, "lat": 38.7718759, "lon": -90.5214384, "tags": {"addr:housenumber": "1579", "addr:postcode": "63303", "addr:street": "South Old Highway 94"}}, {"type": "node", "id": 5635612297, "lat": 38.7658618, "lon": -90.5273617, "tags": {"addr:city": "Saint Charles", "addr:housenumber": "1805", "addr:postcode": "63303", "addr:street": "South Old Highway 94"}}, {"type": "node", "id": 5635612311, "lat": 38.7645002, "lon": -90.5273579, "tags": {"addr:housenumber": "1875", "addr:postcode": "63303", "addr:street": "South Old Highway 94"}}, {"type": "node", "id": 5635612318, "lat": 38.7707563, "lon": -90.5231867, "tags": {"addr:housenumber": "1607", "addr:postcode": "63303", "addr:street": "South Old Highway 94"}}, {"type": "node", "id": 5635612319, "lat": 38.7638763, "lon": -90.5275351, "tags": {"addr:housenumber": "1879", "addr:postcode": "63303", "addr:street": "South Old Highway 94"}}, {"type": "node", "id": 5635612721, "lat": 38.7639536, "lon": -90.5274706, "tags": {"addr:housenumber": "1877", "addr:postcode": "63303", "addr:street": "South Old Highway 94"}}, {"type": "node", "id": 5635612722, "lat": 38.7637614, "lon": -90.5276953, "tags": {"addr:housenumber": "1879", "addr:postcode": "63303", "addr:street": "South Old Highway 94", "addr:unit": "B"}}, {"type": "node", "id": 5635612724, "lat": 38.7622257, "lon": -90.529126, "tags": {"addr:housenumber": "1960", "addr:postcode": "63303", "addr:street": "South Old Highway 94"}}, {"type": "node", "id": 5635612725, "lat": 38.7630874, "lon": -90.5289096, "tags": {"addr:housenumber": "1889", "addr:postcode": "63303", "addr:street": "South Old Highway 94", "addr:unit": "B"}}, {"type": "node", "id": 5635612726, "lat": 38.7623791, "lon": -90.5292286, "tags": {"addr:housenumber": "1966", "addr:postcode": "63303", "addr:street": "South Old Highway 94"}}, {"type": "node", "id": 5635612728, "lat": 38.7625389, "lon": -90.5297736, "tags": {"addr:housenumber": "1905", "addr:postcode": "63303", "addr:street": "South Old Highway 94"}}, {"type": "node", "id": 5635612729, "lat": 38.7622715, "lon": -90.5291626, "tags": {"addr:housenumber": "1962", "addr:postcode": "63303", "addr:street": "South Old Highway 94"}}, {"type": "node", "id": 5635612730, "lat": 38.7623142, "lon": -90.5291955, "tags": {"addr:housenumber": "1964", "addr:postcode": "63303", "addr:street": "South Old Highway 94", "name": "Mike's Guns", "phone": "636-949-8764", "shop": "weapons"}}, {"type": "node", "id": 5635612732, "lat": 38.7637215, "lon": -90.5289322, "tags": {"addr:housenumber": "1885", "addr:postcode": "63303", "addr:street": "South Old Highway 94"}}, {"type": "node", "id": 5635612733, "lat": 38.7620822, "lon": -90.5297647, "tags": {"addr:city": "Saint Charles", "addr:housenumber": "1972", "addr:postcode": "63303", "addr:street": "South Old Highway 94"}}, {"type": "node", "id": 5635612734, "lat": 38.7625828, "lon": -90.5296981, "tags": {"addr:housenumber": "1901", "addr:postcode": "63303", "addr:street": "South Old Highway 94"}}, {"type": "node", "id": 5635612735, "lat": 38.7619087, "lon": -90.5296374, "tags": {"addr:city": "Saint Charles", "addr:housenumber": "1976", "addr:postcode": "63303", "addr:street": "South Old Highway 94"}}, {"type": "node", "id": 5635612736, "lat": 38.7621451, "lon": -90.5298208, "tags": {"addr:city": "Saint Charles", "addr:housenumber": "1970", "addr:postcode": "63303", "addr:street": "South Old Highway 94"}}, {"type": "node", "id": 5635612737, "lat": 38.7629705, "lon": -90.5288777, "tags": {"addr:housenumber": "1889", "addr:postcode": "63303", "addr:street": "South Old Highway 94"}}, {"type": "node", "id": 6196665969, "lat": 38.7623129, "lon": -90.529366}, {"type": "node", "id": 6196665970, "lat": 38.7621454, "lon": -90.5292333}, {"type": "node", "id": 6196665971, "lat": 38.7622115, "lon": -90.5290959}, {"type": "node", "id": 6250176199, "lat": 38.7602698, "lon": -90.5241366}, {"type": "node", "id": 6250176200, "lat": 38.760233, "lon": -90.5242102}, {"type": "node", "id": 6250176201, "lat": 38.7601769, "lon": -90.524164}, {"type": "node", "id": 6250176202, "lat": 38.7601411, "lon": -90.5242353}, {"type": "node", "id": 6250176203, "lat": 38.7600659, "lon": -90.5241734}, {"type": "node", "id": 6250176204, "lat": 38.7601385, "lon": -90.5240285}, {"type": "node", "id": 6250176205, "lat": 38.7604206, "lon": -90.5242881}, {"type": "node", "id": 6250176206, "lat": 38.7603681, "lon": -90.5244044}, {"type": "node", "id": 6250176207, "lat": 38.7603098, "lon": -90.5243611}, {"type": "node", "id": 6250176208, "lat": 38.7603146, "lon": -90.5243505}, {"type": "node", "id": 6250176209, "lat": 38.7602302, "lon": -90.5242879}, {"type": "node", "id": 6250176210, "lat": 38.7602779, "lon": -90.5241822}, {"type": "node", "id": 6250176211, "lat": 38.7605933, "lon": -90.524389}, {"type": "node", "id": 6250176212, "lat": 38.7605218, "lon": -90.5245327}, {"type": "node", "id": 6250176213, "lat": 38.7604646, "lon": -90.5244859}, {"type": "node", "id": 6250176214, "lat": 38.7604751, "lon": -90.5244649}, {"type": "node", "id": 6250176215, "lat": 38.7604059, "lon": -90.5244083}, {"type": "node", "id": 6250176216, "lat": 38.760467, "lon": -90.5242856}, {"type": "node", "id": 6250176217, "lat": 38.7607464, "lon": -90.5245349}, {"type": "node", "id": 6250176218, "lat": 38.7606845, "lon": -90.5246647}, {"type": "node", "id": 6250176219, "lat": 38.7606301, "lon": -90.524622}, {"type": "node", "id": 6250176220, "lat": 38.7606381, "lon": -90.5246051}, {"type": "node", "id": 6250176221, "lat": 38.7605962, "lon": -90.5245722}, {"type": "node", "id": 6250176222, "lat": 38.7606022, "lon": -90.5245596}, {"type": "node", "id": 6250176223, "lat": 38.7605729, "lon": -90.5245367}, {"type": "node", "id": 6250176224, "lat": 38.7606208, "lon": -90.5244363}, {"type": "node", "id": 6250176225, "lat": 38.7608431, "lon": -90.5245932}, {"type": "node", "id": 6250176226, "lat": 38.7608262, "lon": -90.5246284}, {"type": "node", "id": 6250176227, "lat": 38.7609035, "lon": -90.5246894}, {"type": "node", "id": 6250176228, "lat": 38.7608575, "lon": -90.5247853}, {"type": "node", "id": 6250176229, "lat": 38.760779, "lon": -90.5247234}, {"type": "node", "id": 6250176230, "lat": 38.7607736, "lon": -90.5247346}, {"type": "node", "id": 6250176231, "lat": 38.7607181, "lon": -90.5246908}, {"type": "node", "id": 6250176232, "lat": 38.7607863, "lon": -90.5245484}, {"type": "node", "id": 6250176233, "lat": 38.7610707, "lon": -90.5247785}, {"type": "node", "id": 6250176234, "lat": 38.7610636, "lon": -90.524871}, {"type": "node", "id": 6250176235, "lat": 38.7609999, "lon": -90.524863}, {"type": "node", "id": 6250176236, "lat": 38.7610003, "lon": -90.5248579}, {"type": "node", "id": 6250176237, "lat": 38.7609047, "lon": -90.5248459}, {"type": "node", "id": 6250176238, "lat": 38.7609133, "lon": -90.5247324}, {"type": "node", "id": 6250176239, "lat": 38.7610105, "lon": -90.5247446}, {"type": "node", "id": 6250176240, "lat": 38.7610085, "lon": -90.5247707}, {"type": "node", "id": 6250176241, "lat": 38.7612206, "lon": -90.5248335}, {"type": "node", "id": 6250176242, "lat": 38.7612907, "lon": -90.5249284}, {"type": "node", "id": 6250176243, "lat": 38.761218, "lon": -90.5250166}, {"type": "node", "id": 6250176244, "lat": 38.7611966, "lon": -90.5249876}, {"type": "node", "id": 6250176245, "lat": 38.7611902, "lon": -90.5249955}, {"type": "node", "id": 6250176246, "lat": 38.7611031, "lon": -90.5248776}, {"type": "node", "id": 6250176247, "lat": 38.7611627, "lon": -90.5248051}, {"type": "node", "id": 6250176248, "lat": 38.7612012, "lon": -90.5248571}, {"type": "node", "id": 6250176249, "lat": 38.7613155, "lon": -90.525309}, {"type": "node", "id": 6250176250, "lat": 38.7612349, "lon": -90.5252844}, {"type": "node", "id": 6250176251, "lat": 38.7612738, "lon": -90.5250748}, {"type": "node", "id": 6250176252, "lat": 38.761335, "lon": -90.5250935}, {"type": "node", "id": 6250176253, "lat": 38.7613262, "lon": -90.5251409}, {"type": "node", "id": 6250176254, "lat": 38.7613456, "lon": -90.5251468}, {"type": "node", "id": 6250176255, "lat": 38.7612481, "lon": -90.5254492}, {"type": "node", "id": 6250176256, "lat": 38.7612016, "lon": -90.5254849}, {"type": "node", "id": 6250176257, "lat": 38.7611864, "lon": -90.5254524}, {"type": "node", "id": 6250176258, "lat": 38.7610937, "lon": -90.5255236}, {"type": "node", "id": 6250176259, "lat": 38.7610358, "lon": -90.5253997}, {"type": "node", "id": 6250176260, "lat": 38.7611751, "lon": -90.5252928}, {"type": "node", "id": 6250176261, "lat": 38.7609886, "lon": -90.5253926}, {"type": "node", "id": 6250176262, "lat": 38.7609542, "lon": -90.5255626}, {"type": "node", "id": 6250176263, "lat": 38.7608108, "lon": -90.5255149}, {"type": "node", "id": 6250176264, "lat": 38.7608399, "lon": -90.5253712}, {"type": "node", "id": 6250176265, "lat": 38.760918, "lon": -90.5253972}, {"type": "node", "id": 6250176266, "lat": 38.7609233, "lon": -90.5253709}, {"type": "node", "id": 6250176267, "lat": 38.7608381, "lon": -90.5253004}, {"type": "node", "id": 6250176268, "lat": 38.7607495, "lon": -90.5253875}, {"type": "node", "id": 6250176269, "lat": 38.7607322, "lon": -90.5253585}, {"type": "node", "id": 6250176270, "lat": 38.7607067, "lon": -90.5253836}, {"type": "node", "id": 6250176271, "lat": 38.7606823, "lon": -90.5253428}, {"type": "node", "id": 6250176272, "lat": 38.7607055, "lon": -90.52532}, {"type": "node", "id": 6250176273, "lat": 38.7606532, "lon": -90.5252327}, {"type": "node", "id": 6250176274, "lat": 38.7607441, "lon": -90.5251433}, {"type": "node", "id": 6250176275, "lat": 38.7606023, "lon": -90.5250082}, {"type": "node", "id": 6250176276, "lat": 38.7606088, "lon": -90.525088}, {"type": "node", "id": 6250176277, "lat": 38.760555, "lon": -90.5250953}, {"type": "node", "id": 6250176278, "lat": 38.7605575, "lon": -90.5251258}, {"type": "node", "id": 6250176279, "lat": 38.7604674, "lon": -90.5251379}, {"type": "node", "id": 6250176280, "lat": 38.7604567, "lon": -90.5250078}, {"type": "node", "id": 6250176281, "lat": 38.7605488, "lon": -90.5249954}, {"type": "node", "id": 6250176282, "lat": 38.7605504, "lon": -90.5250152}, {"type": "node", "id": 6250176283, "lat": 38.7604553, "lon": -90.5253848}, {"type": "node", "id": 6250176284, "lat": 38.7603566, "lon": -90.5253467}, {"type": "node", "id": 6250176285, "lat": 38.7603858, "lon": -90.5252225}, {"type": "node", "id": 6250176286, "lat": 38.7603903, "lon": -90.5252243}, {"type": "node", "id": 6250176287, "lat": 38.7604035, "lon": -90.5251683}, {"type": "node", "id": 6250176288, "lat": 38.7604701, "lon": -90.525194}, {"type": "node", "id": 6250176289, "lat": 38.7604541, "lon": -90.525262}, {"type": "node", "id": 6250176290, "lat": 38.7604752, "lon": -90.5252701}, {"type": "node", "id": 6250176291, "lat": 38.7604591, "lon": -90.5253388}, {"type": "node", "id": 6250176292, "lat": 38.7604655, "lon": -90.5253413}, {"type": "node", "id": 6250176293, "lat": 38.7603736, "lon": -90.5254175}, {"type": "node", "id": 6250176294, "lat": 38.7604693, "lon": -90.5255725}, {"type": "node", "id": 6250176295, "lat": 38.760422, "lon": -90.5256206}, {"type": "node", "id": 6250176296, "lat": 38.7604123, "lon": -90.5256049}, {"type": "node", "id": 6250176297, "lat": 38.7603424, "lon": -90.5256759}, {"type": "node", "id": 6250176298, "lat": 38.7602672, "lon": -90.5255541}, {"type": "node", "id": 6250176299, "lat": 38.760332, "lon": -90.5254884}, {"type": "node", "id": 6250176300, "lat": 38.7603211, "lon": -90.5254708}, {"type": "node", "id": 6250176301, "lat": 38.7602216, "lon": -90.5255575}, {"type": "node", "id": 6250176302, "lat": 38.7602071, "lon": -90.5257034}, {"type": "node", "id": 6250176303, "lat": 38.7601051, "lon": -90.5256866}, {"type": "node", "id": 6250176304, "lat": 38.7601039, "lon": -90.5256984}, {"type": "node", "id": 6250176305, "lat": 38.7600554, "lon": -90.5256905}, {"type": "node", "id": 6250176306, "lat": 38.7600675, "lon": -90.5255693}, {"type": "node", "id": 6250176307, "lat": 38.7601079, "lon": -90.5255759}, {"type": "node", "id": 6250176308, "lat": 38.76011, "lon": -90.5255554}, {"type": "node", "id": 6250176309, "lat": 38.7601602, "lon": -90.5255636}, {"type": "node", "id": 6250176310, "lat": 38.7601618, "lon": -90.5255477}, {"type": "node", "id": 6250176329, "lat": 38.7602428, "lon": -90.5248271}, {"type": "node", "id": 6250176330, "lat": 38.7601846, "lon": -90.5248644}, {"type": "node", "id": 6250176331, "lat": 38.7601596, "lon": -90.5248001}, {"type": "node", "id": 6250176332, "lat": 38.7601371, "lon": -90.5248145}, {"type": "node", "id": 6250176333, "lat": 38.7600971, "lon": -90.5247118}, {"type": "node", "id": 6250176334, "lat": 38.7601865, "lon": -90.5246545}, {"type": "node", "id": 6250176335, "lat": 38.7602261, "lon": -90.524756}, {"type": "node", "id": 6250176336, "lat": 38.7602173, "lon": -90.5247617}, {"type": "node", "id": 6372337956, "lat": 38.7701813, "lon": -90.5297003, "tags": {"addr:city": "Saint Charles", "addr:housenumber": "2056", "addr:postcode": "63303", "addr:street": "Graystone Drive", "source:addr": "https://gis.sccmo.opendata.arcgis.com/ (2018)"}}, {"type": "node", "id": 6372337961, "lat": 38.7705494, "lon": -90.5295242, "tags": {"addr:city": "Saint Charles", "addr:housenumber": "2048", "addr:postcode": "63303", "addr:street": "Graystone Drive", "source:addr": "https://gis.sccmo.opendata.arcgis.com/ (2018)"}}, {"type": "node", "id": 6372337962, "lat": 38.7700014, "lon": -90.5298492, "tags": {"addr:city": "Saint Charles", "addr:housenumber": "2060", "addr:postcode": "63303", "addr:street": "Graystone Drive", "source:addr": "https://gis.sccmo.opendata.arcgis.com/ (2018)"}}, {"type": "node", "id": 6372337973, "lat": 38.771782, "lon": -90.5297926, "tags": {"addr:city": "Saint Charles", "addr:housenumber": "2028", "addr:postcode": "63303", "addr:street": "Graystone Drive", "source:addr": "https://gis.sccmo.opendata.arcgis.com/ (2018)"}}, {"type": "node", "id": 6372337976, "lat": 38.7719636, "lon": -90.5298767, "tags": {"addr:city": "Saint Charles", "addr:housenumber": "2024", "addr:postcode": "63303", "addr:street": "Graystone Drive", "source:addr": "https://gis.sccmo.opendata.arcgis.com/ (2018)"}}, {"type": "node", "id": 6372337991, "lat": 38.7721206, "lon": -90.5299592, "tags": {"addr:city": "Saint Charles", "addr:housenumber": "2020", "addr:postcode": "63303", "addr:street": "Graystone Drive", "source:addr": "https://gis.sccmo.opendata.arcgis.com/ (2018)"}}, {"type": "node", "id": 6372337999, "lat": 38.7707796, "lon": -90.529554, "tags": {"addr:city": "Saint Charles", "addr:housenumber": "2044", "addr:postcode": "63303", "addr:street": "Graystone Drive", "source:addr": "https://gis.sccmo.opendata.arcgis.com/ (2018)"}}, {"type": "node", "id": 6372338001, "lat": 38.7709532, "lon": -90.5295295, "tags": {"addr:city": "Saint Charles", "addr:housenumber": "2040", "addr:postcode": "63303", "addr:street": "Graystone Drive", "source:addr": "https://gis.sccmo.opendata.arcgis.com/ (2018)"}}, {"type": "node", "id": 6372338012, "lat": 38.7703374, "lon": -90.5296057, "tags": {"addr:city": "Saint Charles", "addr:housenumber": "2052", "addr:postcode": "63303", "addr:street": "Graystone Drive", "source:addr": "https://gis.sccmo.opendata.arcgis.com/ (2018)"}}, {"type": "node", "id": 6396968640, "lat": 38.7675187, "lon": -90.5238818}, {"type": "node", "id": 6396968641, "lat": 38.7675978, "lon": -90.5238301}, {"type": "node", "id": 6396968642, "lat": 38.7675205, "lon": -90.5236354}, {"type": "node", "id": 6396968643, "lat": 38.7674414, "lon": -90.5236871}, {"type": "node", "id": 6396968648, "lat": 38.7695674, "lon": -90.5242782}, {"type": "node", "id": 6396968649, "lat": 38.7696609, "lon": -90.5240993}, {"type": "node", "id": 6396968650, "lat": 38.770026, "lon": -90.5244132}, {"type": "node", "id": 6396968651, "lat": 38.7699325, "lon": -90.5245921}, {"type": "node", "id": 6396968656, "lat": 38.7610587, "lon": -90.5291123}, {"type": "node", "id": 6396968657, "lat": 38.7609332, "lon": -90.5289963}, {"type": "node", "id": 6396968658, "lat": 38.7607262, "lon": -90.5293645}, {"type": "node", "id": 6396968659, "lat": 38.7608517, "lon": -90.5294805}, {"type": "node", "id": 6396968660, "lat": 38.7724063, "lon": -90.5186269, "tags": {"addr:city": "Saint Charles", "addr:housenumber": "1500", "addr:postcode": "63303", "addr:street": "South First Capitol Drive", "source:addr": "https://gis.sccmo.opendata.arcgis.com/ (2018)"}}, {"type": "node", "id": 6396968675, "lat": 38.7607199, "lon": -90.5290343, "tags": {"addr:city": "Saint Charles", "addr:housenumber": "1990", "addr:postcode": "63303", "addr:street": "South First Capitol Drive", "name": "Petro Mart", "shop": "convenience", "source:addr": "https://gis.sccmo.opendata.arcgis.com/ (2018)"}}, {"type": "node", "id": 6594620592, "lat": 38.7643405, "lon": -90.5280137, "tags": {"addr:housenumber": "1301", "addr:postcode": "63303", "addr:street": "Charlestown Industrial Drive"}}, {"type": "node", "id": 6594620594, "lat": 38.7646442, "lon": -90.528556, "tags": {"addr:housenumber": "1300", "addr:postcode": "63303", "addr:street": "Charlestown Industrial Drive"}}, {"type": "node", "id": 6594620621, "lat": 38.7639313, "lon": -90.529943, "tags": {"addr:housenumber": "1335", "addr:postcode": "63303", "addr:street": "Charlestown Industrial Drive"}}, {"type": "node", "id": 6594620636, "lat": 38.7645843, "lon": -90.52964, "tags": {"addr:housenumber": "1334", "addr:postcode": "63303", "addr:street": "Charlestown Industrial Drive"}}, {"type": "node", "id": 6594620794, "lat": 38.7670893, "lon": -90.5296164, "tags": {"addr:city": "Saint Charles", "addr:housenumber": "1808", "addr:postcode": "63303", "addr:street": "Santa Rosa Drive", "source:addr": "https://gis.sccmo.opendata.arcgis.com/ (2018)"}}, {"type": "node", "id": 6594620816, "lat": 38.7670206, "lon": -90.5297425, "tags": {"addr:city": "Saint Charles", "addr:housenumber": "1812", "addr:postcode": "63303", "addr:street": "Santa Rosa Drive", "source:addr": "https://gis.sccmo.opendata.arcgis.com/ (2018)"}}, {"type": "node", "id": 6594620817, "lat": 38.7674336, "lon": -90.5296006, "tags": {"addr:city": "Saint Charles", "addr:housenumber": "1805", "addr:postcode": "63303", "addr:street": "Santa Rosa Drive", "source:addr": "https://gis.sccmo.opendata.arcgis.com/ (2018)"}}, {"type": "node", "id": 6594620821, "lat": 38.7669497, "lon": -90.5298686, "tags": {"addr:city": "Saint Charles", "addr:housenumber": "1816", "addr:postcode": "63303", "addr:street": "Santa Rosa Drive", "source:addr": "https://gis.sccmo.opendata.arcgis.com/ (2018)"}}, {"type": "node", "id": 6594620825, "lat": 38.7672954, "lon": -90.529906, "tags": {"addr:city": "Saint Charles", "addr:housenumber": "1813", "addr:postcode": "63303", "addr:street": "Santa Rosa Drive", "source:addr": "https://gis.sccmo.opendata.arcgis.com/ (2018)"}}, {"type": "node", "id": 6594620830, "lat": 38.7673556, "lon": -90.5297716, "tags": {"addr:city": "Saint Charles", "addr:housenumber": "1809", "addr:postcode": "63303", "addr:street": "Santa Rosa Drive", "source:addr": "https://gis.sccmo.opendata.arcgis.com/ (2018)"}}, {"type": "node", "id": 6594620835, "lat": 38.7671602, "lon": -90.5294875, "tags": {"addr:city": "Saint Charles", "addr:housenumber": "1804", "addr:postcode": "63303", "addr:street": "Santa Rosa Drive", "source:addr": "https://gis.sccmo.opendata.arcgis.com/ (2018)"}}, {"type": "node", "id": 6594620861, "lat": 38.76628, "lon": -90.5295173, "tags": {"addr:city": "Saint Charles", "addr:housenumber": "1820", "addr:postcode": "63303", "addr:street": "Santa Monica Drive", "source:addr": "https://gis.sccmo.opendata.arcgis.com/ (2018)"}}, {"type": "node", "id": 6594620866, "lat": 38.7667828, "lon": -90.5291099, "tags": {"addr:city": "Saint Charles", "addr:housenumber": "1805", "addr:postcode": "63303", "addr:street": "Santa Monica Drive", "source:addr": "https://gis.sccmo.opendata.arcgis.com/ (2018)"}}, {"type": "node", "id": 6594620869, "lat": 38.7664626, "lon": -90.5290978, "tags": {"addr:city": "Saint Charles", "addr:housenumber": "1808", "addr:postcode": "63303", "addr:street": "Santa Monica Drive", "source:addr": "https://gis.sccmo.opendata.arcgis.com/ (2018)"}}, {"type": "node", "id": 6594620870, "lat": 38.7665528, "lon": -90.5289443, "tags": {"addr:city": "Saint Charles", "addr:housenumber": "1804", "addr:postcode": "63303", "addr:street": "Santa Monica Drive", "source:addr": "https://gis.sccmo.opendata.arcgis.com/ (2018)"}}, {"type": "node", "id": 6594620871, "lat": 38.7663636, "lon": -90.5299205, "tags": {"addr:city": "Saint Charles", "addr:housenumber": "1829", "addr:postcode": "63303", "addr:street": "Santa Monica Drive", "source:addr": "https://gis.sccmo.opendata.arcgis.com/ (2018)"}}, {"type": "node", "id": 6594620872, "lat": 38.7664302, "lon": -90.5297944, "tags": {"addr:city": "Saint Charles", "addr:housenumber": "1825", "addr:postcode": "63303", "addr:street": "Santa Monica Drive", "source:addr": "https://gis.sccmo.opendata.arcgis.com/ (2018)"}}, {"type": "node", "id": 6594620879, "lat": 38.7667162, "lon": -90.5292388, "tags": {"addr:city": "Saint Charles", "addr:housenumber": "1809", "addr:postcode": "63303", "addr:street": "Santa Monica Drive", "source:addr": "https://gis.sccmo.opendata.arcgis.com/ (2018)"}}, {"type": "node", "id": 6594620884, "lat": 38.7666235, "lon": -90.5293858, "tags": {"addr:city": "Saint Charles", "addr:housenumber": "1813", "addr:postcode": "63303", "addr:street": "Santa Monica Drive", "source:addr": "https://gis.sccmo.opendata.arcgis.com/ (2018)"}}, {"type": "node", "id": 6594620888, "lat": 38.766338, "lon": -90.5293857, "tags": {"addr:city": "Saint Charles", "addr:housenumber": "1816", "addr:postcode": "63303", "addr:street": "Santa Monica Drive", "source:addr": "https://gis.sccmo.opendata.arcgis.com/ (2018)"}}, {"type": "node", "id": 6594620889, "lat": 38.7664045, "lon": -90.5292486, "tags": {"addr:city": "Saint Charles", "addr:housenumber": "1812", "addr:postcode": "63303", "addr:street": "Santa Monica Drive", "source:addr": "https://gis.sccmo.opendata.arcgis.com/ (2018)"}}, {"type": "node", "id": 6594620890, "lat": 38.7665526, "lon": -90.5295202, "tags": {"addr:city": "Saint Charles", "addr:housenumber": "1817", "addr:postcode": "63303", "addr:street": "Santa Monica Drive", "source:addr": "https://gis.sccmo.opendata.arcgis.com/ (2018)"}}, {"type": "node", "id": 6594620896, "lat": 38.766078, "lon": -90.5299231, "tags": {"addr:city": "Saint Charles", "addr:housenumber": "1832", "addr:postcode": "63303", "addr:street": "Santa Monica Drive", "source:addr": "https://gis.sccmo.opendata.arcgis.com/ (2018)"}}, {"type": "node", "id": 6594620897, "lat": 38.7664968, "lon": -90.5296436, "tags": {"addr:city": "Saint Charles", "addr:housenumber": "1821", "addr:postcode": "63303", "addr:street": "Santa Monica Drive", "source:addr": "https://gis.sccmo.opendata.arcgis.com/ (2018)"}}, {"type": "node", "id": 6594620900, "lat": 38.7661532, "lon": -90.5297805, "tags": {"addr:city": "Saint Charles", "addr:housenumber": "1828", "addr:postcode": "63303", "addr:street": "Santa Monica Drive", "source:addr": "https://gis.sccmo.opendata.arcgis.com/ (2018)"}}, {"type": "node", "id": 6594620905, "lat": 38.7662177, "lon": -90.5296627, "tags": {"addr:city": "Saint Charles", "addr:housenumber": "1824", "addr:postcode": "63303", "addr:street": "Santa Monica Drive", "source:addr": "https://gis.sccmo.opendata.arcgis.com/ (2018)"}}, {"type": "node", "id": 6976794018, "lat": 38.762561, "lon": -90.527233}, {"type": "node", "id": 6976794019, "lat": 38.7624474, "lon": -90.5273473}, {"type": "node", "id": 6976794020, "lat": 38.7624361, "lon": -90.5273288}, {"type": "node", "id": 6976794021, "lat": 38.7622448, "lon": -90.5275215}, {"type": "node", "id": 6976794022, "lat": 38.7619665, "lon": -90.5270673}, {"type": "node", "id": 6976794023, "lat": 38.7621619, "lon": -90.5268704}, {"type": "node", "id": 6976794024, "lat": 38.7621535, "lon": -90.5268567}, {"type": "node", "id": 6976794025, "lat": 38.7622683, "lon": -90.5267409}, {"type": "node", "id": 6976794026, "lat": 38.7624873, "lon": -90.5261836}, {"type": "node", "id": 6976794027, "lat": 38.7625159, "lon": -90.5262027}, {"type": "node", "id": 6976794028, "lat": 38.7626072, "lon": -90.5260189}, {"type": "node", "id": 6976794029, "lat": 38.7626759, "lon": -90.5260728}, {"type": "node", "id": 6976794030, "lat": 38.7626859, "lon": -90.5260493}, {"type": "node", "id": 6976794031, "lat": 38.7627665, "lon": -90.5261067}, {"type": "node", "id": 6976794032, "lat": 38.7627744, "lon": -90.5260881}, {"type": "node", "id": 6976794033, "lat": 38.7629408, "lon": -90.5262196}, {"type": "node", "id": 6976794034, "lat": 38.7629305, "lon": -90.5262422}, {"type": "node", "id": 6976794035, "lat": 38.7630818, "lon": -90.5263557}, {"type": "node", "id": 6976794036, "lat": 38.7630665, "lon": -90.5263893}, {"type": "node", "id": 6976794037, "lat": 38.7631333, "lon": -90.5264397}, {"type": "node", "id": 6976794038, "lat": 38.7630555, "lon": -90.5266092}, {"type": "node", "id": 6976794039, "lat": 38.763066, "lon": -90.5266172}, {"type": "node", "id": 6976794040, "lat": 38.7630549, "lon": -90.5266411}, {"type": "node", "id": 6976794041, "lat": 38.7630773, "lon": -90.5266582}, {"type": "node", "id": 6976794042, "lat": 38.7629982, "lon": -90.5268279}, {"type": "node", "id": 6976794043, "lat": 38.7629297, "lon": -90.5267755}, {"type": "node", "id": 6976794044, "lat": 38.7629054, "lon": -90.5268277}, {"type": "node", "id": 6976794045, "lat": 38.7628582, "lon": -90.5267915}, {"type": "node", "id": 6976794046, "lat": 38.7628248, "lon": -90.526863}, {"type": "node", "id": 6976794047, "lat": 38.7626869, "lon": -90.5270013}, {"type": "node", "id": 6976794048, "lat": 38.7627179, "lon": -90.5270521}, {"type": "node", "id": 6976794049, "lat": 38.7626433, "lon": -90.527127}, {"type": "node", "id": 6976794050, "lat": 38.7626638, "lon": -90.5271606}, {"type": "node", "id": 6976794051, "lat": 38.7625727, "lon": -90.5272521}, {"type": "node", "id": 6976794283, "lat": 38.7623831, "lon": -90.5264033}, {"type": "node", "id": 11137538998, "lat": 38.7675844, "lon": -90.5235694}, {"type": "node", "id": 11137538999, "lat": 38.7674278, "lon": -90.5236716}, {"type": "node", "id": 11137539000, "lat": 38.7673883, "lon": -90.523572}, {"type": "node", "id": 11137539001, "lat": 38.7675449, "lon": -90.5234698}, {"type": "way", "id": 247496343, "nodes": [2543763639, 2543763633, 2543763641, 2543763653, 2543763639], "tags": {"building": "commercial"}}, {"type": "way", "id": 661881026, "nodes": [6196665969, 6196665970, 6196665971, 5635612726, 6196665969], "tags": {"building": "yes"}}, {"type": "way", "id": 667536218, "nodes": [6250176199, 6250176200, 6250176201, 6250176202, 6250176203, 6250176204, 6250176199], "tags": {"addr:city": "St. Charles", "addr:housenumber": "153", "addr:postcode": "63303", "addr:state": "MO", "addr:street": "Honey Locust Lane", "building": "detached", "source": "https://map.sccmo.org"}}, {"type": "way", "id": 667536219, "nodes": [6250176205, 6250176206, 6250176207, 6250176208, 6250176209, 6250176210, 6250176205], "tags": {"addr:city": "St. Charles", "addr:housenumber": "157", "addr:postcode": "63303", "addr:state": "MO", "addr:street": "Honey Locust Lane", "building": "detached", "source": "https://map.sccmo.org"}}, {"type": "way", "id": 667536220, "nodes": [6250176211, 6250176212, 6250176213, 6250176214, 6250176215, 6250176216, 6250176211], "tags": {"addr:city": "St. Charles", "addr:housenumber": "161", "addr:postcode": "63303", "addr:state": "MO", "addr:street": "Honey Locust Lane", "building": "detached", "source": "https://map.sccmo.org"}}, {"type": "way", "id": 667536221, "nodes": [6250176217, 6250176218, 6250176219, 6250176220, 6250176221, 6250176222, 6250176223, 6250176224, 6250176217], "tags": {"addr:city": "St. Charles", "addr:housenumber": "165", "addr:postcode": "63303", "addr:state": "MO", "addr:street": "Honey Locust Lane", "building": "detached", "source": "https://map.sccmo.org"}}, {"type": "way", "id": 667536222, "nodes": [6250176225, 6250176226, 6250176227, 6250176228, 6250176229, 6250176230, 6250176231, 6250176232, 6250176225], "tags": {"addr:city": "St. Charles", "addr:housenumber": "169", "addr:postcode": "63303", "addr:state": "MO", "addr:street": "Honey Locust Lane", "building": "detached", "source": "https://map.sccmo.org"}}, {"type": "way", "id": 667536223, "nodes": [6250176233, 6250176234, 6250176235, 6250176236, 6250176237, 6250176238, 6250176239, 6250176240, 6250176233], "tags": {"addr:city": "St. Charles", "addr:housenumber": "173", "addr:postcode": "63303", "addr:state": "MO", "addr:street": "Honey Locust Lane", "building": "detached", "source": "https://map.sccmo.org"}}, {"type": "way", "id": 667536224, "nodes": [6250176241, 6250176242, 6250176243, 6250176244, 6250176245, 6250176246, 6250176247, 6250176248, 6250176241], "tags": {"addr:city": "St. Charles", "addr:housenumber": "177", "addr:postcode": "63303", "addr:state": "MO", "addr:street": "Honey Locust Lane", "building": "detached", "source": "https://map.sccmo.org"}}, {"type": "way", "id": 667536225, "nodes": [6250176249, 6250176250, 6250176251, 6250176252, 6250176253, 6250176254, 6250176249], "tags": {"addr:city": "St. Charles", "addr:housenumber": "181", "addr:postcode": "63303", "addr:state": "MO", "addr:street": "Honey Locust Lane", "building": "detached", "source": "https://map.sccmo.org"}}, {"type": "way", "id": 667536227, "nodes": [6250176255, 6250176256, 6250176257, 6250176258, 6250176259, 6250176260, 6250176255], "tags": {"addr:city": "St. Charles", "addr:housenumber": "182", "addr:postcode": "63303", "addr:state": "MO", "addr:street": "Honey Locust Lane", "building": "detached", "source": "https://map.sccmo.org"}}, {"type": "way", "id": 667536229, "nodes": [6250176261, 6250176262, 6250176263, 6250176264, 6250176265, 6250176266, 6250176261], "tags": {"addr:city": "St. Charles", "addr:housenumber": "178", "addr:postcode": "63303", "addr:state": "MO", "addr:street": "Honey Locust Lane", "building": "detached", "source": "https://map.sccmo.org"}}, {"type": "way", "id": 667536231, "nodes": [6250176267, 6250176268, 6250176269, 6250176270, 6250176271, 6250176272, 6250176273, 6250176274, 6250176267], "tags": {"addr:city": "St. Charles", "addr:housenumber": "174", "addr:postcode": "63303", "addr:state": "MO", "addr:street": "Honey Locust Lane", "building": "detached", "source": "https://map.sccmo.org"}}, {"type": "way", "id": 667536232, "nodes": [6250176275, 6250176276, 6250176277, 6250176278, 6250176279, 6250176280, 6250176281, 6250176282, 6250176275], "tags": {"addr:city": "St. Charles", "addr:housenumber": "170", "addr:postcode": "63303", "addr:state": "MO", "addr:street": "Honey Locust Lane", "building": "detached", "source": "https://map.sccmo.org"}}, {"type": "way", "id": 667536233, "nodes": [6250176283, 6250176284, 6250176285, 6250176286, 6250176287, 6250176288, 6250176289, 6250176290, 6250176291, 6250176292, 6250176283], "tags": {"addr:city": "St. Charles", "addr:housenumber": "13", "addr:postcode": "63303", "addr:state": "MO", "addr:street": "Honey Locust Court", "building": "detached", "source": "https://map.sccmo.org"}}, {"type": "way", "id": 667536234, "nodes": [6250176293, 6250176294, 6250176295, 6250176296, 6250176297, 6250176298, 6250176299, 6250176300, 6250176293], "tags": {"addr:city": "St. Charles", "addr:housenumber": "11", "addr:postcode": "63303", "addr:state": "MO", "addr:street": "Honey Locust Court", "building": "detached", "source": "https://map.sccmo.org"}}, {"type": "way", "id": 667536235, "nodes": [6250176301, 6250176302, 6250176303, 6250176304, 6250176305, 6250176306, 6250176307, 6250176308, 6250176309, 6250176310, 6250176301], "tags": {"addr:city": "St. Charles", "addr:housenumber": "9", "addr:postcode": "63303", "addr:state": "MO", "addr:street": "Honey Locust Court", "building": "detached", "source": "https://map.sccmo.org"}}, {"type": "way", "id": 667536239, "nodes": [6250176329, 6250176330, 6250176331, 6250176332, 6250176333, 6250176334, 6250176335, 6250176336, 6250176329], "tags": {"addr:city": "St. Charles", "addr:housenumber": "1", "addr:postcode": "63303", "addr:state": "MO", "addr:street": "Honey Locust Lane", "building": "detached", "source": "https://map.sccmo.org"}}, {"type": "way", "id": 682962428, "nodes": [6396968643, 6396968642, 6396968641, 6396968640, 6396968643], "tags": {"amenity": "fuel", "brand": "Mobil", "brand:wikidata": "Q109676002", "building": "roof", "name": "Mobil", "self_service": "yes"}}, {"type": "way", "id": 682962430, "nodes": [6396968651, 6396968650, 6396968649, 6396968648, 6396968651], "tags": {"amenity": "fuel", "brand": "QuikTrip", "brand:wikidata": "Q7271953", "building": "roof", "name": "QuikTrip", "short_name": "QT"}}, {"type": "way", "id": 682962432, "nodes": [6396968659, 6396968658, 6396968657, 6396968656, 6396968659], "tags": {"amenity": "fuel", "brand": "Phillips 66", "brand:wikidata": "Q1656230", "building": "roof", "name": "Phillips 66", "website": "https://www.phillips66gas.com/station/P66-PETROMART-67-0000908232/"}}, {"type": "way", "id": 745320687, "nodes": [6976794018, 6976794019, 6976794020, 6976794021, 6976794022, 6976794023, 6976794024, 6976794025, 6976794283, 6976794026, 6976794027, 6976794028, 6976794029, 6976794030, 6976794031, 6976794032, 6976794033, 6976794034, 6976794035, 6976794036, 6976794037, 6976794038, 6976794039, 6976794040, 6976794041, 6976794042, 6976794043, 6976794044, 6976794045, 6976794046, 6976794047, 6976794048, 6976794049, 6976794050, 6976794051, 6976794018], "tags": {"addr:city": "Saint Charles", "addr:housenumber": "1830", "addr:postcode": "63303", "addr:state": "MO", "addr:street": "South 1st Capitol Drive", "amenity": "cinema", "brand": "Marcus Cinema", "brand:wikidata": "Q64083352", "building": "yes", "name": "Marcus St. Charles Cinema", "screen": "18", "short_name": "Marcus", "website": "https://www.marcustheatres.com/theatre-locations/marcus-st.-charles-stadium-18-cine", "wikidata": "Q42892916"}}, {"type": "way", "id": 1201228168, "nodes": [11137538998, 11137538999, 11137539000, 11137539001, 11137538998], "tags": {"brand": "Mobil Mart", "brand:wikidata": "Q109676002", "building": "yes", "name": "Mobil Mart", "shop": "convenience"}}]}