{"version": 0.6, "generator": "Overpass API 0.7.62.5 1bd436f1", "osm3s": {"timestamp_osm_base": "2025-04-18T11:21:38Z", "copyright": "The data included in this document is from www.openstreetmap.org. The data is made available under ODbL."}, "elements": [{"type": "node", "id": 6402070317, "lat": 38.7508031, "lon": -90.5513953, "tags": {"addr:city": "Saint Peters", "addr:housenumber": "1402", "addr:postcode": "63303", "addr:street": "Gettysburg Landing", "source:addr": "https://gis.sccmo.opendata.arcgis.com/ (2018)"}}, {"type": "node", "id": 6402070379, "lat": 38.7452161, "lon": -90.5489569, "tags": {"addr:housenumber": "1450", "addr:postcode": "63303", "addr:street": "Hudson Landing"}}, {"type": "node", "id": 6402070380, "lat": 38.7462028, "lon": -90.5497546, "tags": {"addr:housenumber": "1440", "addr:postcode": "63303", "addr:street": "Hudson Landing"}}, {"type": "node", "id": 6402070381, "lat": 38.7434024, "lon": -90.5474953, "tags": {"addr:housenumber": "1512", "addr:postcode": "63303", "addr:street": "Hudson Landing"}}, {"type": "node", "id": 6402070382, "lat": 38.743259, "lon": -90.5479975, "tags": {"addr:housenumber": "1511", "addr:postcode": "63303", "addr:street": "Hudson Landing"}}, {"type": "node", "id": 6402070384, "lat": 38.7451691, "lon": -90.5496364, "tags": {"addr:housenumber": "1449", "addr:postcode": "63303", "addr:street": "Hudson Landing"}}, {"type": "node", "id": 6402070485, "lat": 38.7436302, "lon": -90.5476884, "tags": {"addr:housenumber": "1510", "addr:postcode": "63303", "addr:street": "Hudson Landing"}}, {"type": "node", "id": 6402070488, "lat": 38.7431258, "lon": -90.5473105, "tags": {"addr:housenumber": "1514", "addr:postcode": "63303", "addr:street": "Hudson Landing"}}, {"type": "node", "id": 6402070492, "lat": 38.7454569, "lon": -90.5491606, "tags": {"addr:housenumber": "1448", "addr:postcode": "63303", "addr:street": "Hudson Landing"}}, {"type": "node", "id": 6402070497, "lat": 38.7471887, "lon": -90.55154, "tags": {"addr:housenumber": "1423", "addr:postcode": "63303", "addr:street": "Hudson Landing"}}, {"type": "node", "id": 6402070498, "lat": 38.7429948, "lon": -90.5478098, "tags": {"addr:housenumber": "1513", "addr:postcode": "63303", "addr:street": "Hudson Landing"}}, {"type": "node", "id": 6402070499, "lat": 38.7470777, "lon": -90.5512375, "tags": {"addr:housenumber": "1427", "addr:postcode": "63303", "addr:street": "Hudson Landing"}}, {"type": "node", "id": 6402070500, "lat": 38.7449893, "lon": -90.5487816, "tags": {"addr:housenumber": "1500", "addr:postcode": "63303", "addr:street": "Hudson Landing"}}, {"type": "node", "id": 6402070502, "lat": 38.7456449, "lon": -90.549265, "tags": {"addr:housenumber": "1446", "addr:postcode": "63303", "addr:street": "Hudson Landing"}}, {"type": "node", "id": 6402070503, "lat": 38.7441873, "lon": -90.5483975, "tags": {"addr:housenumber": "1504", "addr:postcode": "63303", "addr:street": "Hudson Landing"}}, {"type": "node", "id": 6402070505, "lat": 38.7440878, "lon": -90.5489361, "tags": {"addr:housenumber": "1503", "addr:postcode": "63303", "addr:street": "Hudson Landing"}}, {"type": "node", "id": 6402070506, "lat": 38.7438523, "lon": -90.5479265, "tags": {"addr:housenumber": "1508", "addr:postcode": "63303", "addr:street": "Hudson Landing"}}, {"type": "node", "id": 6402070507, "lat": 38.7463299, "lon": -90.5504993, "tags": {"addr:housenumber": "1435", "addr:postcode": "63303", "addr:street": "Hudson Landing"}}, {"type": "node", "id": 6402070508, "lat": 38.7436792, "lon": -90.5485158, "tags": {"addr:housenumber": "1507", "addr:postcode": "63303", "addr:street": "Hudson Landing"}}, {"type": "node", "id": 6402070509, "lat": 38.7460721, "lon": -90.5502689, "tags": {"addr:housenumber": "1439", "addr:postcode": "63303", "addr:street": "Hudson Landing"}}, {"type": "node", "id": 6402070510, "lat": 38.7439961, "lon": -90.5481065, "tags": {"addr:housenumber": "1506", "addr:postcode": "63303", "addr:street": "Hudson Landing"}}, {"type": "node", "id": 6402070511, "lat": 38.7435, "lon": -90.5482574, "tags": {"addr:housenumber": "1509", "addr:postcode": "63303", "addr:street": "Hudson Landing"}}, {"type": "node", "id": 6402070513, "lat": 38.7470503, "lon": -90.5504263, "tags": {"addr:housenumber": "1432", "addr:postcode": "63303", "addr:street": "Hudson Landing"}}, {"type": "node", "id": 6402070514, "lat": 38.7438655, "lon": -90.5487827, "tags": {"addr:housenumber": "1505", "addr:postcode": "63303", "addr:street": "Hudson Landing"}}, {"type": "node", "id": 6402070515, "lat": 38.7468657, "lon": -90.5502811, "tags": {"addr:housenumber": "1434", "addr:postcode": "63303", "addr:street": "Hudson Landing"}}, {"type": "node", "id": 6402070517, "lat": 38.7466251, "lon": -90.5500906, "tags": {"addr:housenumber": "1436", "addr:postcode": "63303", "addr:street": "Hudson Landing"}}, {"type": "node", "id": 6402070518, "lat": 38.7464047, "lon": -90.549912, "tags": {"addr:housenumber": "1438", "addr:postcode": "63303", "addr:street": "Hudson Landing"}}, {"type": "node", "id": 6402070519, "lat": 38.7458342, "lon": -90.5494408, "tags": {"addr:housenumber": "1444", "addr:postcode": "63303", "addr:street": "Hudson Landing"}}, {"type": "node", "id": 6402070520, "lat": 38.7472562, "lon": -90.5506173, "tags": {"addr:housenumber": "1430", "addr:postcode": "63303", "addr:street": "Hudson Landing"}}, {"type": "node", "id": 6402070522, "lat": 38.746019, "lon": -90.5496092, "tags": {"addr:housenumber": "1442", "addr:postcode": "63303", "addr:street": "Hudson Landing"}}, {"type": "node", "id": 6402070523, "lat": 38.7473835, "lon": -90.550898, "tags": {"addr:housenumber": "1428", "addr:postcode": "63303", "addr:street": "Hudson Landing"}}, {"type": "node", "id": 6402070525, "lat": 38.75065, "lon": -90.5447608, "tags": {"addr:housenumber": "1401", "addr:postcode": "63303", "addr:street": "Heritage Landing"}}, {"type": "node", "id": 6402070526, "lat": 38.7447502, "lon": -90.5450686, "tags": {"addr:housenumber": "2628", "addr:postcode": "63303", "addr:street": "Heritage Landing"}}, {"type": "node", "id": 6402070527, "lat": 38.7446379, "lon": -90.5454165, "tags": {"addr:housenumber": "2632", "addr:postcode": "63303", "addr:street": "Heritage Landing"}}, {"type": "node", "id": 6402070528, "lat": 38.7493631, "lon": -90.5434479, "tags": {"addr:housenumber": "1363", "addr:postcode": "63303", "addr:street": "Heritage Landing"}}, {"type": "node", "id": 6402070529, "lat": 38.7441355, "lon": -90.5458381, "tags": {"addr:housenumber": "2641", "addr:postcode": "63303", "addr:street": "Heritage Landing"}}, {"type": "node", "id": 6402070530, "lat": 38.7484945, "lon": -90.5483388, "tags": {"addr:housenumber": "2758", "addr:postcode": "63303", "addr:street": "Heritage Landing"}}, {"type": "node", "id": 6402070531, "lat": 38.7472354, "lon": -90.5430961, "tags": {"addr:housenumber": "2562", "addr:postcode": "63303", "addr:street": "Heritage Landing"}}, {"type": "node", "id": 6402070532, "lat": 38.7508384, "lon": -90.5457619, "tags": {"addr:housenumber": "1433", "addr:postcode": "63303", "addr:street": "Heritage Landing", "addr:unit": "101"}}, {"type": "node", "id": 6402070533, "lat": 38.7466804, "lon": -90.5437409, "tags": {"addr:housenumber": "2574", "addr:postcode": "63303", "addr:street": "Heritage Landing"}}, {"type": "node", "id": 6402070534, "lat": 38.7470397, "lon": -90.5432194, "tags": {"addr:housenumber": "2566", "addr:postcode": "63303", "addr:street": "Heritage Landing"}}, {"type": "node", "id": 6402070535, "lat": 38.7459691, "lon": -90.5438485, "tags": {"addr:housenumber": "2604", "addr:postcode": "63303", "addr:street": "Heritage Landing"}}, {"type": "node", "id": 6402070536, "lat": 38.7449064, "lon": -90.544755, "tags": {"addr:housenumber": "2624", "addr:postcode": "63303", "addr:street": "Heritage Landing"}}, {"type": "node", "id": 6402070537, "lat": 38.7458324, "lon": -90.5433038, "tags": {"addr:housenumber": "2605", "addr:postcode": "63303", "addr:street": "Heritage Landing"}}, {"type": "node", "id": 6402070538, "lat": 38.7459569, "lon": -90.5487, "tags": {"addr:housenumber": "2717", "addr:postcode": "63303", "addr:street": "Heritage Landing"}}, {"type": "node", "id": 6402070539, "lat": 38.7460183, "lon": -90.5432413, "tags": {"addr:housenumber": "2601", "addr:postcode": "63303", "addr:street": "Heritage Landing"}}, {"type": "node", "id": 6402070540, "lat": 38.7444685, "lon": -90.5445769, "tags": {"addr:housenumber": "2629", "addr:postcode": "63303", "addr:street": "Heritage Landing"}}, {"type": "node", "id": 6402070541, "lat": 38.7504865, "lon": -90.5452475, "tags": {"addr:housenumber": "1421", "addr:postcode": "63303", "addr:street": "Heritage Landing"}}, {"type": "node", "id": 6402070542, "lat": 38.7450213, "lon": -90.5436732, "tags": {"addr:housenumber": "2621", "addr:postcode": "63303", "addr:street": "Heritage Landing"}}, {"type": "node", "id": 6402070543, "lat": 38.7442925, "lon": -90.544916, "tags": {"addr:housenumber": "2633", "addr:postcode": "63303", "addr:street": "Heritage Landing"}}, {"type": "node", "id": 6402070544, "lat": 38.7489658, "lon": -90.5481296, "tags": {"addr:housenumber": "2766", "addr:postcode": "63303", "addr:street": "Heritage Landing"}}, {"type": "node", "id": 6402070545, "lat": 38.7446692, "lon": -90.5440447, "tags": {"addr:housenumber": "2625", "addr:postcode": "63303", "addr:street": "Heritage Landing"}}, {"type": "node", "id": 6402070546, "lat": 38.7508377, "lon": -90.5455207, "tags": {"addr:housenumber": "1431", "addr:postcode": "63303", "addr:street": "Heritage Landing", "addr:unit": "301"}}, {"type": "node", "id": 6402070548, "lat": 38.74966, "lon": -90.5480329, "tags": {"addr:housenumber": "2778", "addr:postcode": "63303", "addr:street": "Heritage Landing"}}, {"type": "node", "id": 6402070550, "lat": 38.748041, "lon": -90.5485841, "tags": {"addr:housenumber": "2750", "addr:postcode": "63303", "addr:street": "Heritage Landing"}}, {"type": "node", "id": 6402070551, "lat": 38.7477592, "lon": -90.5492855, "tags": {"addr:housenumber": "2745", "addr:postcode": "63303", "addr:street": "Heritage Landing"}}, {"type": "node", "id": 6402070552, "lat": 38.7499262, "lon": -90.5479002, "tags": {"addr:housenumber": "2782", "addr:postcode": "63303", "addr:street": "Heritage Landing"}}, {"type": "node", "id": 6402070553, "lat": 38.7494374, "lon": -90.5436657, "tags": {"addr:housenumber": "1371", "addr:postcode": "63303", "addr:street": "Heritage Landing"}}, {"type": "node", "id": 6402070554, "lat": 38.749724, "lon": -90.5485543, "tags": {"addr:housenumber": "1501", "addr:postcode": "63303", "addr:street": "Heritage Landing"}}, {"type": "node", "id": 6402070555, "lat": 38.7461114, "lon": -90.5488114, "tags": {"addr:housenumber": "2721", "addr:postcode": "63303", "addr:street": "Heritage Landing"}}, {"type": "node", "id": 6402070556, "lat": 38.7494793, "lon": -90.5434975, "tags": {"addr:housenumber": "1367", "addr:postcode": "63303", "addr:street": "Heritage Landing"}}, {"type": "node", "id": 6402070557, "lat": 38.7498258, "lon": -90.5489408, "tags": {"addr:housenumber": "1505", "addr:postcode": "63303", "addr:street": "Heritage Landing"}}, {"type": "node", "id": 6402070558, "lat": 38.7493165, "lon": -90.5436122, "tags": {"addr:housenumber": "1365", "addr:postcode": "63303", "addr:street": "Heritage Landing"}}, {"type": "node", "id": 6402070560, "lat": 38.7465459, "lon": -90.5491021, "tags": {"addr:housenumber": "2729", "addr:postcode": "63303", "addr:street": "Heritage Landing"}}, {"type": "node", "id": 6402070561, "lat": 38.7494202, "lon": -90.5480385, "tags": {"addr:housenumber": "2774", "addr:postcode": "63303", "addr:street": "Heritage Landing"}}, {"type": "node", "id": 6402070562, "lat": 38.7469916, "lon": -90.5486709, "tags": {"addr:housenumber": "2734", "addr:postcode": "63303", "addr:street": "Heritage Landing"}}, {"type": "node", "id": 6402070563, "lat": 38.7475135, "lon": -90.548733, "tags": {"addr:housenumber": "2742", "addr:postcode": "63303", "addr:street": "Heritage Landing"}}, {"type": "node", "id": 6402070564, "lat": 38.7507046, "lon": -90.5461977, "tags": {"addr:housenumber": "1437", "addr:postcode": "63303", "addr:street": "Heritage Landing", "addr:unit": "301"}}, {"type": "node", "id": 6402070565, "lat": 38.747255, "lon": -90.5487266, "tags": {"addr:housenumber": "2738", "addr:postcode": "63303", "addr:street": "Heritage Landing"}}, {"type": "node", "id": 6402070566, "lat": 38.750768, "lon": -90.5459542, "tags": {"addr:housenumber": "1435", "addr:postcode": "63303", "addr:street": "Heritage Landing", "addr:unit": "201"}}, {"type": "node", "id": 6402070567, "lat": 38.7446957, "lon": -90.5466189, "tags": {"addr:housenumber": "2648", "addr:postcode": "63303", "addr:street": "Heritage Landing"}}, {"type": "node", "id": 6402070568, "lat": 38.7482656, "lon": -90.5428988, "tags": {"addr:housenumber": "1343", "addr:postcode": "63303", "addr:street": "Heritage Landing"}}, {"type": "node", "id": 6402070569, "lat": 38.7463343, "lon": -90.5489301, "tags": {"addr:housenumber": "2725", "addr:postcode": "63303", "addr:street": "Heritage Landing"}}, {"type": "node", "id": 6402070570, "lat": 38.7482347, "lon": -90.5484188, "tags": {"addr:housenumber": "2754", "addr:postcode": "63303", "addr:street": "Heritage Landing"}}, {"type": "node", "id": 6402070571, "lat": 38.7479993, "lon": -90.5422681, "tags": {"addr:housenumber": "2563", "addr:postcode": "63303", "addr:street": "Heritage Landing"}}, {"type": "node", "id": 6402070572, "lat": 38.7468185, "lon": -90.549186, "tags": {"addr:housenumber": "2733", "addr:postcode": "63303", "addr:street": "Heritage Landing"}}, {"type": "node", "id": 6402070573, "lat": 38.744923, "lon": -90.548049, "tags": {"addr:housenumber": "2700", "addr:postcode": "63303", "addr:street": "Heritage Landing"}}, {"type": "node", "id": 6402070575, "lat": 38.7446321, "lon": -90.5476983, "tags": {"addr:housenumber": "2657", "addr:postcode": "63303", "addr:street": "Heritage Landing"}}, {"type": "node", "id": 6402070576, "lat": 38.7495458, "lon": -90.5437331, "tags": {"addr:housenumber": "1375", "addr:postcode": "63303", "addr:street": "Heritage Landing"}}, {"type": "node", "id": 6402070577, "lat": 38.7452803, "lon": -90.5482569, "tags": {"addr:housenumber": "2705", "addr:postcode": "63303", "addr:street": "Heritage Landing"}}, {"type": "node", "id": 6402070578, "lat": 38.7456903, "lon": -90.5485421, "tags": {"addr:housenumber": "2713", "addr:postcode": "63303", "addr:street": "Heritage Landing"}}, {"type": "node", "id": 6402070579, "lat": 38.745505, "lon": -90.5484224, "tags": {"addr:housenumber": "2709", "addr:postcode": "63303", "addr:street": "Heritage Landing"}}, {"type": "node", "id": 6402070580, "lat": 38.7495815, "lon": -90.543553, "tags": {"addr:housenumber": "1373", "addr:postcode": "63303", "addr:street": "Heritage Landing"}}, {"type": "node", "id": 6402070581, "lat": 38.7459198, "lon": -90.5480401, "tags": {"addr:housenumber": "2714", "addr:postcode": "63303", "addr:street": "Heritage Landing"}}, {"type": "node", "id": 6402070582, "lat": 38.7503998, "lon": -90.5502532, "tags": {"addr:housenumber": "1525", "addr:postcode": "63303", "addr:street": "Heritage Landing"}}, {"type": "node", "id": 6402070583, "lat": 38.7499521, "lon": -90.5495193, "tags": {"addr:housenumber": "1513", "addr:postcode": "63303", "addr:street": "Heritage Landing"}}, {"type": "node", "id": 6402070584, "lat": 38.7456979, "lon": -90.5439028, "tags": {"addr:housenumber": "2608", "addr:postcode": "63303", "addr:street": "Heritage Landing"}}, {"type": "node", "id": 6402070585, "lat": 38.7483257, "lon": -90.542932, "tags": {"addr:housenumber": "1345", "addr:postcode": "63303", "addr:street": "Heritage Landing"}}, {"type": "node", "id": 6402070586, "lat": 38.7451775, "lon": -90.5435459, "tags": {"addr:housenumber": "2617", "addr:postcode": "63303", "addr:street": "Heritage Landing"}}, {"type": "node", "id": 6402070587, "lat": 38.7470265, "lon": -90.5492433, "tags": {"addr:housenumber": "2737", "addr:postcode": "63303", "addr:street": "Heritage Landing"}}, {"type": "node", "id": 6402070588, "lat": 38.7506416, "lon": -90.5445929, "tags": {"addr:housenumber": "1407", "addr:postcode": "63303", "addr:street": "Heritage Landing"}}, {"type": "node", "id": 6402070589, "lat": 38.7455762, "lon": -90.5433737, "tags": {"addr:housenumber": "2609", "addr:postcode": "63303", "addr:street": "Heritage Landing"}}, {"type": "node", "id": 6402070590, "lat": 38.746669, "lon": -90.5484658, "tags": {"addr:housenumber": "2726", "addr:postcode": "63303", "addr:street": "Heritage Landing"}}, {"type": "node", "id": 6402070591, "lat": 38.7454269, "lon": -90.543439, "tags": {"addr:housenumber": "2613", "addr:postcode": "63303", "addr:street": "Heritage Landing"}}, {"type": "node", "id": 6402070592, "lat": 38.7452481, "lon": -90.5441803, "tags": {"addr:housenumber": "2616", "addr:postcode": "63303", "addr:street": "Heritage Landing"}}, {"type": "node", "id": 6402070593, "lat": 38.74988, "lon": -90.5492521, "tags": {"addr:housenumber": "1509", "addr:postcode": "63303", "addr:street": "Heritage Landing"}}, {"type": "node", "id": 6402070594, "lat": 38.7455093, "lon": -90.5439913, "tags": {"addr:housenumber": "2612", "addr:postcode": "63303", "addr:street": "Heritage Landing"}}, {"type": "node", "id": 6402070596, "lat": 38.7487367, "lon": -90.5482086, "tags": {"addr:housenumber": "2762", "addr:postcode": "63303", "addr:street": "Heritage Landing"}}, {"type": "node", "id": 6402070597, "lat": 38.7447958, "lon": -90.5469188, "tags": {"addr:housenumber": "2652", "addr:postcode": "63303", "addr:street": "Heritage Landing"}}, {"type": "node", "id": 6402070598, "lat": 38.7450584, "lon": -90.5444437, "tags": {"addr:housenumber": "2620", "addr:postcode": "63303", "addr:street": "Heritage Landing"}}, {"type": "node", "id": 6402070599, "lat": 38.7507442, "lon": -90.5435874, "tags": {"addr:housenumber": "1380", "addr:postcode": "63303", "addr:street": "Heritage Landing", "addr:unit": "305"}}, {"type": "node", "id": 6402070600, "lat": 38.7484248, "lon": -90.5430132, "tags": {"addr:housenumber": "1349", "addr:postcode": "63303", "addr:street": "Heritage Landing"}}, {"type": "node", "id": 6402070602, "lat": 38.7445968, "lon": -90.5459938, "tags": {"addr:housenumber": "2640", "addr:postcode": "63303", "addr:street": "Heritage Landing"}}, {"type": "node", "id": 6402070603, "lat": 38.7445833, "lon": -90.54565, "tags": {"addr:housenumber": "2636", "addr:postcode": "63303", "addr:street": "Heritage Landing"}}, {"type": "node", "id": 6402070605, "lat": 38.748798, "lon": -90.5430839, "tags": {"addr:housenumber": "1355", "addr:postcode": "63303", "addr:street": "Heritage Landing"}}, {"type": "node", "id": 6402070606, "lat": 38.7511059, "lon": -90.5475182, "tags": {"addr:housenumber": "1446", "addr:postcode": "63303", "addr:street": "Heritage Landing", "addr:unit": "110"}}, {"type": "node", "id": 6402070607, "lat": 38.7507896, "lon": -90.5497209, "tags": {"addr:housenumber": "1524", "addr:postcode": "63303", "addr:street": "Heritage Landing"}}, {"type": "node", "id": 6402070608, "lat": 38.7506277, "lon": -90.5494071, "tags": {"addr:housenumber": "1526", "addr:postcode": "63303", "addr:street": "Heritage Landing"}}, {"type": "node", "id": 6402070609, "lat": 38.7444435, "lon": -90.5474045, "tags": {"addr:housenumber": "2653", "addr:postcode": "63303", "addr:street": "Heritage Landing"}}, {"type": "node", "id": 6402070610, "lat": 38.7446379, "lon": -90.5463216, "tags": {"addr:housenumber": "2644", "addr:postcode": "63303", "addr:street": "Heritage Landing"}}, {"type": "node", "id": 6402070611, "lat": 38.7468114, "lon": -90.5434327, "tags": {"addr:housenumber": "2570", "addr:postcode": "63303", "addr:street": "Heritage Landing"}}, {"type": "node", "id": 6402070612, "lat": 38.7505238, "lon": -90.5452844, "tags": {"addr:housenumber": "1423", "addr:postcode": "63303", "addr:street": "Heritage Landing"}}, {"type": "node", "id": 6402070613, "lat": 38.7477735, "lon": -90.5486266, "tags": {"addr:housenumber": "2746", "addr:postcode": "63303", "addr:street": "Heritage Landing"}}, {"type": "node", "id": 6402070614, "lat": 38.750595, "lon": -90.5446286, "tags": {"addr:housenumber": "1405", "addr:postcode": "63303", "addr:street": "Heritage Landing"}}, {"type": "node", "id": 6402070615, "lat": 38.7483724, "lon": -90.5429707, "tags": {"addr:housenumber": "1347", "addr:postcode": "63303", "addr:street": "Heritage Landing"}}, {"type": "node", "id": 6402070617, "lat": 38.7488586, "lon": -90.5430806, "tags": {"addr:housenumber": "1357", "addr:postcode": "63303", "addr:street": "Heritage Landing"}}, {"type": "node", "id": 6402070618, "lat": 38.7506124, "lon": -90.5451619, "tags": {"addr:housenumber": "1427", "addr:postcode": "63303", "addr:street": "Heritage Landing"}}, {"type": "node", "id": 6402070619, "lat": 38.7487334, "lon": -90.5430915, "tags": {"addr:housenumber": "1353", "addr:postcode": "63303", "addr:street": "Heritage Landing"}}, {"type": "node", "id": 6402070620, "lat": 38.7489185, "lon": -90.5430672, "tags": {"addr:housenumber": "1359", "addr:postcode": "63303", "addr:street": "Heritage Landing"}}, {"type": "node", "id": 6402070621, "lat": 38.7505592, "lon": -90.545138, "tags": {"addr:housenumber": "1425", "addr:postcode": "63303", "addr:street": "Heritage Landing"}}, {"type": "node", "id": 6402070622, "lat": 38.7504071, "lon": -90.5468008, "tags": {"addr:housenumber": "1465", "addr:postcode": "63303", "addr:street": "Heritage Landing", "addr:unit": "211"}}, {"type": "node", "id": 6402070623, "lat": 38.7491924, "lon": -90.5480637, "tags": {"addr:housenumber": "2770", "addr:postcode": "63303", "addr:street": "Heritage Landing"}}, {"type": "node", "id": 6402070624, "lat": 38.7506429, "lon": -90.5503742, "tags": {"addr:housenumber": "1529", "addr:postcode": "63303", "addr:street": "Heritage Landing"}}, {"type": "node", "id": 6402070626, "lat": 38.750691, "lon": -90.5447239, "tags": {"addr:housenumber": "1403", "addr:postcode": "63303", "addr:street": "Heritage Landing"}}, {"type": "node", "id": 6402070627, "lat": 38.7480532, "lon": -90.5447721, "tags": {"addr:housenumber": "1302", "addr:postcode": "63303", "addr:street": "Musket Hollow"}}, {"type": "node", "id": 6402070628, "lat": 38.7480061, "lon": -90.5450942, "tags": {"addr:housenumber": "1310", "addr:postcode": "63303", "addr:street": "Musket Hollow"}}, {"type": "node", "id": 6402070629, "lat": 38.7480456, "lon": -90.5448616, "tags": {"addr:housenumber": "1304", "addr:postcode": "63303", "addr:street": "Musket Hollow"}}, {"type": "node", "id": 6402070630, "lat": 38.747556, "lon": -90.5453018, "tags": {"addr:housenumber": "1307", "addr:postcode": "63303", "addr:street": "Musket Hollow"}}, {"type": "node", "id": 6402070631, "lat": 38.7475346, "lon": -90.5453748, "tags": {"addr:housenumber": "1309", "addr:postcode": "63303", "addr:street": "Musket Hollow"}}, {"type": "node", "id": 6402070632, "lat": 38.7476276, "lon": -90.5450583, "tags": {"addr:housenumber": "1301", "addr:postcode": "63303", "addr:street": "Musket Hollow"}}, {"type": "node", "id": 6402070633, "lat": 38.7479835, "lon": -90.5451717, "tags": {"addr:housenumber": "1312", "addr:postcode": "63303", "addr:street": "Musket Hollow"}}, {"type": "node", "id": 6402070634, "lat": 38.7480186, "lon": -90.5450134, "tags": {"addr:housenumber": "1308", "addr:postcode": "63303", "addr:street": "Musket Hollow"}}, {"type": "node", "id": 6402070635, "lat": 38.7480362, "lon": -90.5449375, "tags": {"addr:housenumber": "1306", "addr:postcode": "63303", "addr:street": "Musket Hollow"}}, {"type": "node", "id": 6402070636, "lat": 38.7475775, "lon": -90.5452014, "tags": {"addr:housenumber": "1305", "addr:postcode": "63303", "addr:street": "Musket Hollow"}}, {"type": "node", "id": 6402070637, "lat": 38.747556, "lon": -90.545454, "tags": {"addr:housenumber": "1311", "addr:postcode": "63303", "addr:street": "Musket Hollow"}}, {"type": "node", "id": 6402070638, "lat": 38.7475966, "lon": -90.5451344, "tags": {"addr:housenumber": "1303", "addr:postcode": "63303", "addr:street": "Musket Hollow"}}, {"type": "node", "id": 6402070639, "lat": 38.7486021, "lon": -90.5445364, "tags": {"addr:housenumber": "2620", "addr:postcode": "63303", "addr:street": "Plantation Point"}}, {"type": "node", "id": 6402070640, "lat": 38.7490391, "lon": -90.5445807, "tags": {"addr:housenumber": "2623", "addr:postcode": "63303", "addr:street": "Plantation Point"}}, {"type": "node", "id": 6402070641, "lat": 38.748962, "lon": -90.544935, "tags": {"addr:housenumber": "2603", "addr:postcode": "63303", "addr:street": "Plantation Point"}}, {"type": "node", "id": 6402070642, "lat": 38.74851, "lon": -90.5454243, "tags": {"addr:housenumber": "2602", "addr:postcode": "63303", "addr:street": "Plantation Point"}}, {"type": "node", "id": 6402070643, "lat": 38.7491527, "lon": -90.5441159, "tags": {"addr:housenumber": "2641", "addr:postcode": "63303", "addr:street": "Plantation Point"}}, {"type": "node", "id": 6402070644, "lat": 38.7490562, "lon": -90.5444956, "tags": {"addr:housenumber": "2621", "addr:postcode": "63303", "addr:street": "Plantation Point"}}, {"type": "node", "id": 6402070645, "lat": 38.7485521, "lon": -90.5451156, "tags": {"addr:housenumber": "2610", "addr:postcode": "63303", "addr:street": "Plantation Point"}}, {"type": "node", "id": 6402070646, "lat": 38.748544, "lon": -90.5451926, "tags": {"addr:housenumber": "2608", "addr:postcode": "63303", "addr:street": "Plantation Point"}}, {"type": "node", "id": 6402070647, "lat": 38.748607, "lon": -90.5450352, "tags": {"addr:housenumber": "2612", "addr:postcode": "63303", "addr:street": "Plantation Point"}}, {"type": "node", "id": 6402070648, "lat": 38.7485277, "lon": -90.5452704, "tags": {"addr:housenumber": "2606", "addr:postcode": "63303", "addr:street": "Plantation Point"}}, {"type": "node", "id": 6402070649, "lat": 38.7493356, "lon": -90.5440547, "tags": {"addr:housenumber": "2639", "addr:postcode": "63303", "addr:street": "Plantation Point"}}, {"type": "node", "id": 6402070650, "lat": 38.748608, "lon": -90.5446434, "tags": {"addr:housenumber": "2618", "addr:postcode": "63303", "addr:street": "Plantation Point"}}, {"type": "node", "id": 6402070651, "lat": 38.748948, "lon": -90.5450161, "tags": {"addr:housenumber": "2605", "addr:postcode": "63303", "addr:street": "Plantation Point"}}, {"type": "node", "id": 6402070652, "lat": 38.7489371, "lon": -90.5450972, "tags": {"addr:housenumber": "2607", "addr:postcode": "63303", "addr:street": "Plantation Point"}}, {"type": "node", "id": 6402070653, "lat": 38.7489216, "lon": -90.5451705, "tags": {"addr:housenumber": "2609", "addr:postcode": "63303", "addr:street": "Plantation Point"}}, {"type": "node", "id": 6402070654, "lat": 38.7490779, "lon": -90.5444283, "tags": {"addr:housenumber": "2619", "addr:postcode": "63303", "addr:street": "Plantation Point"}}, {"type": "node", "id": 6402070655, "lat": 38.7486068, "lon": -90.5447489, "tags": {"addr:housenumber": "2614", "addr:postcode": "63303", "addr:street": "Plantation Point"}}, {"type": "node", "id": 6402070656, "lat": 38.7492039, "lon": -90.5439913, "tags": {"addr:housenumber": "2637", "addr:postcode": "63303", "addr:street": "Plantation Point"}}, {"type": "node", "id": 6402070657, "lat": 38.7488859, "lon": -90.5453189, "tags": {"addr:housenumber": "2613", "addr:postcode": "63303", "addr:street": "Plantation Point"}}, {"type": "node", "id": 6402070658, "lat": 38.7490252, "lon": -90.5446519, "tags": {"addr:housenumber": "2625", "addr:postcode": "63303", "addr:street": "Plantation Point"}}, {"type": "node", "id": 6402070659, "lat": 38.7493821, "lon": -90.5439221, "tags": {"addr:housenumber": "2635", "addr:postcode": "63303", "addr:street": "Plantation Point"}}, {"type": "node", "id": 6402070660, "lat": 38.7489045, "lon": -90.5452397, "tags": {"addr:housenumber": "2611", "addr:postcode": "63303", "addr:street": "Plantation Point"}}, {"type": "node", "id": 6402070661, "lat": 38.7490034, "lon": -90.5447212, "tags": {"addr:housenumber": "2627", "addr:postcode": "63303", "addr:street": "Plantation Point"}}, {"type": "node", "id": 6402070662, "lat": 38.7486285, "lon": -90.544447, "tags": {"addr:housenumber": "2622", "addr:postcode": "63303", "addr:street": "Plantation Point"}}, {"type": "node", "id": 6402070663, "lat": 38.7486596, "lon": -90.5443598, "tags": {"addr:housenumber": "2624", "addr:postcode": "63303", "addr:street": "Plantation Point"}}, {"type": "node", "id": 6402070664, "lat": 38.7492968, "lon": -90.544215, "tags": {"addr:housenumber": "2643", "addr:postcode": "63303", "addr:street": "Plantation Point"}}, {"type": "node", "id": 6402070665, "lat": 38.7492334, "lon": -90.5438726, "tags": {"addr:housenumber": "2633", "addr:postcode": "63303", "addr:street": "Plantation Point"}}, {"type": "node", "id": 6402070666, "lat": 38.7485087, "lon": -90.5453482, "tags": {"addr:housenumber": "2604", "addr:postcode": "63303", "addr:street": "Plantation Point"}}, {"type": "node", "id": 6402070667, "lat": 38.7490981, "lon": -90.5443393, "tags": {"addr:housenumber": "2617", "addr:postcode": "63303", "addr:street": "Plantation Point"}}, {"type": "node", "id": 6402070668, "lat": 38.7481495, "lon": -90.5455912, "tags": {"addr:housenumber": "1362", "addr:postcode": "63303", "addr:street": "Hampton Road"}}, {"type": "node", "id": 6402070669, "lat": 38.7480575, "lon": -90.5455536, "tags": {"addr:housenumber": "1364", "addr:postcode": "63303", "addr:street": "Hampton Road"}}, {"type": "node", "id": 6402070670, "lat": 38.7500089, "lon": -90.545052, "tags": {"addr:housenumber": "2635", "addr:postcode": "63303", "addr:street": "Hampton Road"}}, {"type": "node", "id": 6402070671, "lat": 38.7479554, "lon": -90.5460377, "tags": {"addr:housenumber": "1361", "addr:postcode": "63303", "addr:street": "Hampton Road"}}, {"type": "node", "id": 6402070672, "lat": 38.7491068, "lon": -90.5461546, "tags": {"addr:housenumber": "1389", "addr:postcode": "63303", "addr:street": "Hampton Road"}}, {"type": "node", "id": 6402070673, "lat": 38.7494214, "lon": -90.5461617, "tags": {"addr:housenumber": "2615", "addr:postcode": "63303", "addr:street": "Hampton Road"}}, {"type": "node", "id": 6402070674, "lat": 38.7499299, "lon": -90.5449906, "tags": {"addr:housenumber": "2633", "addr:postcode": "63303", "addr:street": "Hampton Road"}}, {"type": "node", "id": 6402070675, "lat": 38.7490061, "lon": -90.5461288, "tags": {"addr:housenumber": "1387", "addr:postcode": "63303", "addr:street": "Hampton Road"}}, {"type": "node", "id": 6402070676, "lat": 38.7494572, "lon": -90.5453132, "tags": {"addr:housenumber": "2632", "addr:postcode": "63303", "addr:street": "Hampton Road"}}, {"type": "node", "id": 6402070677, "lat": 38.7486103, "lon": -90.5460277, "tags": {"addr:housenumber": "1379", "addr:postcode": "63303", "addr:street": "Hampton Road"}}, {"type": "node", "id": 6402070678, "lat": 38.7493651, "lon": -90.5461871, "tags": {"addr:housenumber": "2613", "addr:postcode": "63303", "addr:street": "Hampton Road"}}, {"type": "node", "id": 6402070679, "lat": 38.7493454, "lon": -90.5446721, "tags": {"addr:housenumber": "2642", "addr:postcode": "63303", "addr:street": "Hampton Road"}}, {"type": "node", "id": 6402070680, "lat": 38.7493403, "lon": -90.5452301, "tags": {"addr:housenumber": "2630", "addr:postcode": "63303", "addr:street": "Hampton Road"}}, {"type": "node", "id": 6402070681, "lat": 38.7488976, "lon": -90.5461129, "tags": {"addr:housenumber": "1385", "addr:postcode": "63303", "addr:street": "Hampton Road"}}, {"type": "node", "id": 6402070682, "lat": 38.7488922, "lon": -90.5456532, "tags": {"addr:housenumber": "1384", "addr:postcode": "63303", "addr:street": "Hampton Road"}}, {"type": "node", "id": 6402070683, "lat": 38.7494812, "lon": -90.5461352, "tags": {"addr:housenumber": "2617", "addr:postcode": "63303", "addr:street": "Hampton Road"}}, {"type": "node", "id": 6402070684, "lat": 38.7495384, "lon": -90.5461263, "tags": {"addr:housenumber": "2619", "addr:postcode": "63303", "addr:street": "Hampton Road"}}, {"type": "node", "id": 6402070685, "lat": 38.7488124, "lon": -90.5460831, "tags": {"addr:housenumber": "1383", "addr:postcode": "63303", "addr:street": "Hampton Road"}}, {"type": "node", "id": 6402070686, "lat": 38.7470903, "lon": -90.5464626, "tags": {"addr:housenumber": "1333", "addr:postcode": "63303", "addr:street": "Hampton Road"}}, {"type": "node", "id": 6402070687, "lat": 38.7490735, "lon": -90.5457286, "tags": {"addr:housenumber": "1388", "addr:postcode": "63303", "addr:street": "Hampton Road"}}, {"type": "node", "id": 6402070688, "lat": 38.7492795, "lon": -90.5455288, "tags": {"addr:housenumber": "2622", "addr:postcode": "63303", "addr:street": "Hampton Road"}}, {"type": "node", "id": 6402070689, "lat": 38.7489789, "lon": -90.5456988, "tags": {"addr:housenumber": "1386", "addr:postcode": "63303", "addr:street": "Hampton Road"}}, {"type": "node", "id": 6402070690, "lat": 38.7471365, "lon": -90.5465135, "tags": {"addr:housenumber": "1337", "addr:postcode": "63303", "addr:street": "Hampton Road"}}, {"type": "node", "id": 6402070691, "lat": 38.7470673, "lon": -90.5463838, "tags": {"addr:housenumber": "1331", "addr:postcode": "63303", "addr:street": "Hampton Road"}}, {"type": "node", "id": 6402070692, "lat": 38.7476535, "lon": -90.5464197, "tags": {"addr:housenumber": "1351", "addr:postcode": "63303", "addr:street": "Hampton Road"}}, {"type": "node", "id": 6402070693, "lat": 38.7479119, "lon": -90.5460835, "tags": {"addr:housenumber": "1359", "addr:postcode": "63303", "addr:street": "Hampton Road"}}, {"type": "node", "id": 6402070694, "lat": 38.7478676, "lon": -90.5461506, "tags": {"addr:housenumber": "1357", "addr:postcode": "63303", "addr:street": "Hampton Road"}}, {"type": "node", "id": 6402070695, "lat": 38.7494364, "lon": -90.5454183, "tags": {"addr:housenumber": "2628", "addr:postcode": "63303", "addr:street": "Hampton Road"}}, {"type": "node", "id": 6402070696, "lat": 38.7487961, "lon": -90.5456373, "tags": {"addr:housenumber": "1382", "addr:postcode": "63303", "addr:street": "Hampton Road"}}, {"type": "node", "id": 6402070697, "lat": 38.748422, "lon": -90.546006, "tags": {"addr:housenumber": "1375", "addr:postcode": "63303", "addr:street": "Hampton Road"}}, {"type": "node", "id": 6402070698, "lat": 38.7493116, "lon": -90.5453828, "tags": {"addr:housenumber": "2626", "addr:postcode": "63303", "addr:street": "Hampton Road"}}, {"type": "node", "id": 6402070699, "lat": 38.7497737, "lon": -90.5456087, "tags": {"addr:housenumber": "2627", "addr:postcode": "63303", "addr:street": "Hampton Road"}}, {"type": "node", "id": 6402070700, "lat": 38.7498326, "lon": -90.5439864, "tags": {"addr:housenumber": "1383", "addr:postcode": "63303", "addr:street": "Hampton Landing"}}, {"type": "node", "id": 6402070701, "lat": 38.7483136, "lon": -90.5459956, "tags": {"addr:housenumber": "1373", "addr:postcode": "63303", "addr:street": "Hampton Road"}}, {"type": "node", "id": 6402070702, "lat": 38.749419, "lon": -90.5455489, "tags": {"addr:housenumber": "2624", "addr:postcode": "63303", "addr:street": "Hampton Road"}}, {"type": "node", "id": 6402070703, "lat": 38.7474292, "lon": -90.5459837, "tags": {"addr:housenumber": "1325", "addr:postcode": "63303", "addr:street": "Hampton Road"}}, {"type": "node", "id": 6402070704, "lat": 38.7496565, "lon": -90.5444928, "tags": {"addr:housenumber": "2648", "addr:postcode": "63303", "addr:street": "Hampton Road"}}, {"type": "node", "id": 6402070705, "lat": 38.7495562, "lon": -90.544795, "tags": {"addr:housenumber": "2636", "addr:postcode": "63303", "addr:street": "Hampton Road"}}, {"type": "node", "id": 6402070706, "lat": 38.7474377, "lon": -90.5459078, "tags": {"addr:housenumber": "1323", "addr:postcode": "63303", "addr:street": "Hampton Road"}}, {"type": "node", "id": 6402070707, "lat": 38.7478249, "lon": -90.5462149, "tags": {"addr:housenumber": "1355", "addr:postcode": "63303", "addr:street": "Hampton Road"}}, {"type": "node", "id": 6402070708, "lat": 38.7494922, "lon": -90.5443898, "tags": {"addr:housenumber": "2654", "addr:postcode": "63303", "addr:street": "Hampton Road"}}, {"type": "node", "id": 6402070709, "lat": 38.749548, "lon": -90.5444215, "tags": {"addr:housenumber": "2652", "addr:postcode": "63303", "addr:street": "Hampton Road"}}, {"type": "node", "id": 6402070710, "lat": 38.7497061, "lon": -90.5445245, "tags": {"addr:housenumber": "2646", "addr:postcode": "63303", "addr:street": "Hampton Road"}}, {"type": "node", "id": 6402070711, "lat": 38.749758, "lon": -90.5456729, "tags": {"addr:housenumber": "2625", "addr:postcode": "63303", "addr:street": "Hampton Road"}}, {"type": "node", "id": 6402070712, "lat": 38.7477791, "lon": -90.5462616, "tags": {"addr:housenumber": "1353", "addr:postcode": "63303", "addr:street": "Hampton Road"}}, {"type": "node", "id": 6402070713, "lat": 38.7496054, "lon": -90.5444492, "tags": {"addr:housenumber": "2650", "addr:postcode": "63303", "addr:street": "Hampton Road"}}, {"type": "node", "id": 6402070714, "lat": 38.7479717, "lon": -90.5455192, "tags": {"addr:housenumber": "1366", "addr:postcode": "63303", "addr:street": "Hampton Road"}}, {"type": "node", "id": 6402070715, "lat": 38.7497459, "lon": -90.545747, "tags": {"addr:housenumber": "2623", "addr:postcode": "63303", "addr:street": "Hampton Road"}}, {"type": "node", "id": 6402070716, "lat": 38.7478753, "lon": -90.5454912, "tags": {"addr:housenumber": "1368", "addr:postcode": "63303", "addr:street": "Hampton Road"}}, {"type": "node", "id": 6402070717, "lat": 38.7474499, "lon": -90.5458347, "tags": {"addr:housenumber": "1321", "addr:postcode": "63303", "addr:street": "Hampton Road"}}, {"type": "node", "id": 6402070718, "lat": 38.7498833, "lon": -90.5451231, "tags": {"addr:housenumber": "2637", "addr:postcode": "63303", "addr:street": "Hampton Road"}}, {"type": "node", "id": 6402070719, "lat": 38.7474996, "lon": -90.545601, "tags": {"addr:housenumber": "1315", "addr:postcode": "63303", "addr:street": "Hampton Road"}}, {"type": "node", "id": 6402070720, "lat": 38.7485073, "lon": -90.5460069, "tags": {"addr:housenumber": "1377", "addr:postcode": "63303", "addr:street": "Hampton Road"}}, {"type": "node", "id": 6402070721, "lat": 38.749958, "lon": -90.5451831, "tags": {"addr:housenumber": "2639", "addr:postcode": "63303", "addr:street": "Hampton Road"}}, {"type": "node", "id": 6402070722, "lat": 38.7494167, "lon": -90.5447157, "tags": {"addr:housenumber": "2640", "addr:postcode": "63303", "addr:street": "Hampton Road"}}, {"type": "node", "id": 6402070723, "lat": 38.7496197, "lon": -90.5448326, "tags": {"addr:housenumber": "2634", "addr:postcode": "63303", "addr:street": "Hampton Road"}}, {"type": "node", "id": 6402070724, "lat": 38.7494802, "lon": -90.5447692, "tags": {"addr:housenumber": "2638", "addr:postcode": "63303", "addr:street": "Hampton Road"}}, {"type": "node", "id": 6402070725, "lat": 38.7499814, "lon": -90.5439054, "tags": {"addr:housenumber": "1381", "addr:postcode": "63303", "addr:street": "Hampton Landing"}}, {"type": "node", "id": 6402070726, "lat": 38.7471618, "lon": -90.5465842, "tags": {"addr:housenumber": "1339", "addr:postcode": "63303", "addr:street": "Hampton Road"}}, {"type": "node", "id": 6402070727, "lat": 38.7475978, "lon": -90.546444, "tags": {"addr:housenumber": "1349", "addr:postcode": "63303", "addr:street": "Hampton Road"}}, {"type": "node", "id": 6402070728, "lat": 38.7470252, "lon": -90.5463094, "tags": {"addr:housenumber": "1329", "addr:postcode": "63303", "addr:street": "Hampton Road"}}, {"type": "node", "id": 6402070729, "lat": 38.7475528, "lon": -90.546481, "tags": {"addr:housenumber": "1347", "addr:postcode": "63303", "addr:street": "Hampton Road"}}, {"type": "node", "id": 6402070730, "lat": 38.7474812, "lon": -90.5456711, "tags": {"addr:housenumber": "1317", "addr:postcode": "63303", "addr:street": "Hampton Road"}}, {"type": "node", "id": 6402070731, "lat": 38.7474933, "lon": -90.546516, "tags": {"addr:housenumber": "1345", "addr:postcode": "63303", "addr:street": "Hampton Road"}}, {"type": "node", "id": 6402070732, "lat": 38.7499488, "lon": -90.5440162, "tags": {"addr:housenumber": "1385", "addr:postcode": "63303", "addr:street": "Hampton Landing"}}, {"type": "node", "id": 6402070733, "lat": 38.7503363, "lon": -90.5445816, "tags": {"addr:housenumber": "2649", "addr:postcode": "63303", "addr:street": "Hampton Road"}}, {"type": "node", "id": 6402070734, "lat": 38.7498575, "lon": -90.543836, "tags": {"addr:housenumber": "1379", "addr:postcode": "63303", "addr:street": "Hampton Landing"}}, {"type": "node", "id": 6402070735, "lat": 38.7497841, "lon": -90.5455368, "tags": {"addr:housenumber": "2629", "addr:postcode": "63303", "addr:street": "Hampton Road"}}, {"type": "node", "id": 6402070736, "lat": 38.7501909, "lon": -90.5446268, "tags": {"addr:housenumber": "2643", "addr:postcode": "63303", "addr:street": "Hampton Road"}}, {"type": "node", "id": 6402070737, "lat": 38.7474629, "lon": -90.5457539, "tags": {"addr:housenumber": "1319", "addr:postcode": "63303", "addr:street": "Hampton Road"}}, {"type": "node", "id": 6402070738, "lat": 38.7479874, "lon": -90.5459764, "tags": {"addr:housenumber": "1363", "addr:postcode": "63303", "addr:street": "Hampton Road"}}, {"type": "node", "id": 6402070739, "lat": 38.7473752, "lon": -90.5465696, "tags": {"addr:housenumber": "1341", "addr:postcode": "63303", "addr:street": "Hampton Road"}}, {"type": "node", "id": 6402070740, "lat": 38.7474406, "lon": -90.5465539, "tags": {"addr:housenumber": "1343", "addr:postcode": "63303", "addr:street": "Hampton Road"}}, {"type": "node", "id": 6402070741, "lat": 38.7502123, "lon": -90.5446839, "tags": {"addr:housenumber": "2645", "addr:postcode": "63303", "addr:street": "Hampton Road"}}, {"type": "node", "id": 6402070742, "lat": 38.7499287, "lon": -90.5441369, "tags": {"addr:housenumber": "1389", "addr:postcode": "63303", "addr:street": "Hampton Landing"}}, {"type": "node", "id": 6402070743, "lat": 38.7494318, "lon": -90.5443878, "tags": {"addr:housenumber": "2656", "addr:postcode": "63303", "addr:street": "Hampton Road"}}, {"type": "node", "id": 6402070744, "lat": 38.7503177, "lon": -90.5445209, "tags": {"addr:housenumber": "2647", "addr:postcode": "63303", "addr:street": "Hampton Road"}}, {"type": "node", "id": 6402070745, "lat": 38.7497985, "lon": -90.544125, "tags": {"addr:housenumber": "1387", "addr:postcode": "63303", "addr:street": "Hampton Landing"}}, {"type": "node", "id": 6481760134, "lat": 38.7492094, "lon": -90.5504137, "tags": {"addr:housenumber": "2712", "addr:postcode": "63303", "addr:street": "Stonewall Station"}}, {"type": "node", "id": 6481760135, "lat": 38.7497853, "lon": -90.5508358, "tags": {"addr:housenumber": "2725", "addr:postcode": "63303", "addr:street": "Stonewall Station"}}, {"type": "node", "id": 6481760136, "lat": 38.7501411, "lon": -90.5505046, "tags": {"addr:housenumber": "2733", "addr:postcode": "63303", "addr:street": "Stonewall Station"}}, {"type": "node", "id": 6481760137, "lat": 38.7488895, "lon": -90.5508745, "tags": {"addr:housenumber": "2709", "addr:postcode": "63303", "addr:street": "Stonewall Station"}}, {"type": "node", "id": 6481760138, "lat": 38.7487275, "lon": -90.5504149, "tags": {"addr:housenumber": "2704", "addr:postcode": "63303", "addr:street": "Stonewall Station"}}, {"type": "node", "id": 6481760139, "lat": 38.7499666, "lon": -90.5506803, "tags": {"addr:housenumber": "2729", "addr:postcode": "63303", "addr:street": "Stonewall Station"}}, {"type": "node", "id": 6481760140, "lat": 38.7499368, "lon": -90.5502141, "tags": {"addr:housenumber": "2732", "addr:postcode": "63303", "addr:street": "Stonewall Station"}}, {"type": "node", "id": 6481760141, "lat": 38.7495333, "lon": -90.550924, "tags": {"addr:housenumber": "2721", "addr:postcode": "63303", "addr:street": "Stonewall Station"}}, {"type": "node", "id": 6481760142, "lat": 38.7484572, "lon": -90.550487, "tags": {"addr:housenumber": "2700", "addr:postcode": "63303", "addr:street": "Stonewall Station"}}, {"type": "node", "id": 6481760143, "lat": 38.7489328, "lon": -90.5505332, "tags": {"addr:housenumber": "2708", "addr:postcode": "63303", "addr:street": "Stonewall Station"}}, {"type": "node", "id": 6481760144, "lat": 38.749323, "lon": -90.550932, "tags": {"addr:housenumber": "2717", "addr:postcode": "63303", "addr:street": "Stonewall Station"}}, {"type": "node", "id": 6481760145, "lat": 38.7497104, "lon": -90.5503797, "tags": {"addr:housenumber": "2728", "addr:postcode": "63303", "addr:street": "Stonewall Station"}}, {"type": "node", "id": 6481760146, "lat": 38.7501157, "lon": -90.5499217, "tags": {"addr:housenumber": "2736", "addr:postcode": "63303", "addr:street": "Stonewall Station"}}, {"type": "node", "id": 6481760147, "lat": 38.7491216, "lon": -90.5509533, "tags": {"addr:housenumber": "2713", "addr:postcode": "63303", "addr:street": "Stonewall Station"}}, {"type": "node", "id": 6481760148, "lat": 38.7484185, "lon": -90.5508332, "tags": {"addr:housenumber": "2701", "addr:postcode": "63303", "addr:street": "Stonewall Station"}}, {"type": "node", "id": 6481760149, "lat": 38.748646, "lon": -90.551011, "tags": {"addr:housenumber": "2705", "addr:postcode": "63303", "addr:street": "Stonewall Station"}}, {"type": "node", "id": 6481760315, "lat": 38.7496891, "lon": -90.5401585, "tags": {"addr:housenumber": "128", "addr:postcode": "63303", "addr:street": "Heritage Station"}}, {"type": "node", "id": 6481760316, "lat": 38.7499635, "lon": -90.5417565, "tags": {"addr:housenumber": "113", "addr:postcode": "63303", "addr:street": "Heritage Station"}}, {"type": "node", "id": 6481760317, "lat": 38.7490083, "lon": -90.540661, "tags": {"addr:housenumber": "144", "addr:postcode": "63303", "addr:street": "Heritage Station"}}, {"type": "node", "id": 6481760318, "lat": 38.7495592, "lon": -90.5415021, "tags": {"addr:housenumber": "112", "addr:postcode": "63303", "addr:street": "Heritage Station"}}, {"type": "node", "id": 6481760319, "lat": 38.7498828, "lon": -90.5420911, "tags": {"addr:housenumber": "109", "addr:postcode": "63303", "addr:street": "Heritage Station"}}, {"type": "node", "id": 6481760320, "lat": 38.7497201, "lon": -90.5412628, "tags": {"addr:housenumber": "116", "addr:postcode": "63303", "addr:street": "Heritage Station"}}, {"type": "node", "id": 6481760321, "lat": 38.7497699, "lon": -90.5405522, "tags": {"addr:housenumber": "124", "addr:postcode": "63303", "addr:street": "Heritage Station"}}, {"type": "node", "id": 6481760322, "lat": 38.7498313, "lon": -90.5424074, "tags": {"addr:housenumber": "105", "addr:postcode": "63303", "addr:street": "Heritage Station"}}, {"type": "node", "id": 6481760323, "lat": 38.7502355, "lon": -90.5405591, "tags": {"addr:housenumber": "125", "addr:postcode": "63303", "addr:street": "Heritage Station"}}, {"type": "node", "id": 6481760324, "lat": 38.7497587, "lon": -90.5427067, "tags": {"addr:housenumber": "101", "addr:postcode": "63303", "addr:street": "Heritage Station"}}, {"type": "node", "id": 6481760325, "lat": 38.7494219, "lon": -90.5396227, "tags": {"addr:housenumber": "133", "addr:postcode": "63303", "addr:street": "Heritage Station"}}, {"type": "node", "id": 6481760326, "lat": 38.7502058, "lon": -90.540909, "tags": {"addr:housenumber": "121", "addr:postcode": "63303", "addr:street": "Heritage Station"}}, {"type": "node", "id": 6481760327, "lat": 38.7489287, "lon": -90.5403913, "tags": {"addr:housenumber": "145", "addr:postcode": "63303", "addr:street": "Heritage Station"}}, {"type": "node", "id": 6481760328, "lat": 38.7491784, "lon": -90.5398375, "tags": {"addr:housenumber": "137", "addr:postcode": "63303", "addr:street": "Heritage Station"}}, {"type": "node", "id": 6481760329, "lat": 38.7493845, "lon": -90.5407599, "tags": {"addr:housenumber": "140", "addr:postcode": "63303", "addr:street": "Heritage Station"}}, {"type": "node", "id": 6481760330, "lat": 38.7490097, "lon": -90.5400626, "tags": {"addr:housenumber": "141", "addr:postcode": "63303", "addr:street": "Heritage Station"}}, {"type": "node", "id": 6481760331, "lat": 38.7497546, "lon": -90.5408613, "tags": {"addr:housenumber": "120", "addr:postcode": "63303", "addr:street": "Heritage Station"}}, {"type": "node", "id": 6481760332, "lat": 38.7494955, "lon": -90.54186, "tags": {"addr:housenumber": "108", "addr:postcode": "63303", "addr:street": "Heritage Station"}}, {"type": "node", "id": 6481760382, "lat": 38.7453367, "lon": -90.5513557, "tags": {"addr:housenumber": "225", "addr:postcode": "63303", "addr:street": "Victory Lane"}}, {"type": "node", "id": 6481760383, "lat": 38.7453782, "lon": -90.5509021, "tags": {"addr:housenumber": "224", "addr:postcode": "63303", "addr:street": "Victory Lane"}}, {"type": "node", "id": 6481760384, "lat": 38.7460514, "lon": -90.5512789, "tags": {"addr:housenumber": "213", "addr:postcode": "63303", "addr:street": "Victory Lane"}}, {"type": "node", "id": 6481760385, "lat": 38.7464814, "lon": -90.5510434, "tags": {"addr:housenumber": "205", "addr:postcode": "63303", "addr:street": "Victory Lane"}}, {"type": "node", "id": 6481760386, "lat": 38.7462629, "lon": -90.551186, "tags": {"addr:housenumber": "209", "addr:postcode": "63303", "addr:street": "Victory Lane"}}, {"type": "node", "id": 6481760387, "lat": 38.7457931, "lon": -90.5513879, "tags": {"addr:housenumber": "217", "addr:postcode": "63303", "addr:street": "Victory Lane"}}, {"type": "node", "id": 6481760388, "lat": 38.7456537, "lon": -90.5509306, "tags": {"addr:housenumber": "216", "addr:postcode": "63303", "addr:street": "Victory Lane"}}, {"type": "node", "id": 6481760389, "lat": 38.7444463, "lon": -90.5509126, "tags": {"addr:housenumber": "241", "addr:postcode": "63303", "addr:street": "Victory Lane"}}, {"type": "node", "id": 6481760390, "lat": 38.744833, "lon": -90.5511804, "tags": {"addr:housenumber": "233", "addr:postcode": "63303", "addr:street": "Victory Lane"}}, {"type": "node", "id": 6481760391, "lat": 38.7459805, "lon": -90.550854, "tags": {"addr:housenumber": "208", "addr:postcode": "63303", "addr:street": "Victory Lane"}}, {"type": "node", "id": 6481760392, "lat": 38.7455232, "lon": -90.5513789, "tags": {"addr:housenumber": "221", "addr:postcode": "63303", "addr:street": "Victory Lane"}}, {"type": "node", "id": 6481760393, "lat": 38.7442668, "lon": -90.5506461, "tags": {"addr:housenumber": "245", "addr:postcode": "63303", "addr:street": "Victory Lane"}}, {"type": "node", "id": 6481760394, "lat": 38.7445677, "lon": -90.5510404, "tags": {"addr:housenumber": "237", "addr:postcode": "63303", "addr:street": "Victory Lane"}}, {"type": "node", "id": 6481760395, "lat": 38.7445712, "lon": -90.5503573, "tags": {"addr:housenumber": "244", "addr:postcode": "63303", "addr:street": "Victory Lane"}}, {"type": "node", "id": 6481760396, "lat": 38.7450532, "lon": -90.5508115, "tags": {"addr:housenumber": "232", "addr:postcode": "63303", "addr:street": "Victory Lane"}}, {"type": "node", "id": 6481760397, "lat": 38.7447483, "lon": -90.5507067, "tags": {"addr:housenumber": "240", "addr:postcode": "63303", "addr:street": "Victory Lane"}}, {"type": "node", "id": 6481760398, "lat": 38.7467615, "lon": -90.5508429, "tags": {"addr:housenumber": "201", "addr:postcode": "63303", "addr:street": "Victory Lane"}}, {"type": "node", "id": 6481760399, "lat": 38.74505, "lon": -90.5512539, "tags": {"addr:housenumber": "229", "addr:postcode": "63303", "addr:street": "Victory Lane"}}, {"type": "node", "id": 6481760919, "lat": 38.7433259, "lon": -90.538952, "tags": {"addr:housenumber": "2499", "addr:postcode": "63303", "addr:street": "Annapolis Way"}}, {"type": "node", "id": 6481760926, "lat": 38.7430099, "lon": -90.5390775, "tags": {"addr:housenumber": "2497", "addr:postcode": "63303", "addr:street": "Annapolis Way"}}, {"type": "node", "id": 6481760929, "lat": 38.7433079, "lon": -90.5385888, "tags": {"addr:housenumber": "2498", "addr:postcode": "63303", "addr:street": "Annapolis Way"}}, {"type": "node", "id": 6481762023, "lat": 38.7437996, "lon": -90.5423268, "tags": {"addr:housenumber": "2562", "addr:postcode": "63303", "addr:street": "Trenton Station"}}, {"type": "node", "id": 6481762024, "lat": 38.7430066, "lon": -90.5416223, "tags": {"addr:housenumber": "2549", "addr:postcode": "63303", "addr:street": "Trenton Station"}}, {"type": "node", "id": 6481762025, "lat": 38.7432922, "lon": -90.5413094, "tags": {"addr:housenumber": "2546", "addr:postcode": "63303", "addr:street": "Trenton Station"}}, {"type": "node", "id": 6481762027, "lat": 38.7441293, "lon": -90.5434225, "tags": {"addr:housenumber": "2578", "addr:postcode": "63303", "addr:street": "Trenton Station"}}, {"type": "node", "id": 6481762028, "lat": 38.7435641, "lon": -90.5417861, "tags": {"addr:housenumber": "2554", "addr:postcode": "63303", "addr:street": "Trenton Station"}}, {"type": "node", "id": 6481762029, "lat": 38.7432054, "lon": -90.5418556, "tags": {"addr:housenumber": "2553", "addr:postcode": "63303", "addr:street": "Trenton Station"}}, {"type": "node", "id": 6481762032, "lat": 38.7433264, "lon": -90.5420773, "tags": {"addr:housenumber": "2557", "addr:postcode": "63303", "addr:street": "Trenton Station"}}, {"type": "node", "id": 6481762034, "lat": 38.743453, "lon": -90.5415509, "tags": {"addr:housenumber": "2550", "addr:postcode": "63303", "addr:street": "Trenton Station"}}, {"type": "node", "id": 6481762035, "lat": 38.743544, "lon": -90.5426328, "tags": {"addr:housenumber": "2565", "addr:postcode": "63303", "addr:street": "Trenton Station"}}, {"type": "node", "id": 6481762039, "lat": 38.7434255, "lon": -90.5423592, "tags": {"addr:housenumber": "2561", "addr:postcode": "63303", "addr:street": "Trenton Station"}}, {"type": "node", "id": 6481762050, "lat": 38.7437177, "lon": -90.5434816, "tags": {"addr:housenumber": "2577", "addr:postcode": "63303", "addr:street": "Trenton Station"}}, {"type": "node", "id": 6481762051, "lat": 38.7440313, "lon": -90.5431625, "tags": {"addr:housenumber": "2574", "addr:postcode": "63303", "addr:street": "Trenton Station"}}, {"type": "node", "id": 6481762052, "lat": 38.7442713, "lon": -90.5436981, "tags": {"addr:housenumber": "2582", "addr:postcode": "63303", "addr:street": "Trenton Station"}}, {"type": "node", "id": 6481762053, "lat": 38.7436949, "lon": -90.5420819, "tags": {"addr:housenumber": "2558", "addr:postcode": "63303", "addr:street": "Trenton Station"}}, {"type": "node", "id": 6481762054, "lat": 38.7444573, "lon": -90.5438948, "tags": {"addr:housenumber": "2586", "addr:postcode": "63303", "addr:street": "Trenton Station"}}, {"type": "node", "id": 6481762055, "lat": 38.7435804, "lon": -90.5430248, "tags": {"addr:housenumber": "2569", "addr:postcode": "63303", "addr:street": "Trenton Station"}}, {"type": "node", "id": 6481762056, "lat": 38.7439538, "lon": -90.5428959, "tags": {"addr:housenumber": "2570", "addr:postcode": "63303", "addr:street": "Trenton Station"}}, {"type": "node", "id": 6481762058, "lat": 38.743876, "lon": -90.5426093, "tags": {"addr:housenumber": "2566", "addr:postcode": "63303", "addr:street": "Trenton Station"}}, {"type": "node", "id": 6481762061, "lat": 38.7431108, "lon": -90.5410334, "tags": {"addr:housenumber": "2542", "addr:postcode": "63303", "addr:street": "Trenton Station"}}, {"type": "node", "id": 6481762062, "lat": 38.7462107, "lon": -90.5454321, "tags": {"addr:housenumber": "2626", "addr:postcode": "63303", "addr:street": "Horseshoe Ridge"}}, {"type": "node", "id": 6481762063, "lat": 38.7449927, "lon": -90.5471599, "tags": {"addr:housenumber": "2659", "addr:postcode": "63303", "addr:street": "Horseshoe Ridge"}}, {"type": "node", "id": 6481762064, "lat": 38.7462989, "lon": -90.5442722, "tags": {"addr:housenumber": "2607", "addr:postcode": "63303", "addr:street": "Horseshoe Ridge"}}, {"type": "node", "id": 6481762065, "lat": 38.7462968, "lon": -90.5451678, "tags": {"addr:housenumber": "2622", "addr:postcode": "63303", "addr:street": "Horseshoe Ridge"}}, {"type": "node", "id": 6481762066, "lat": 38.7460252, "lon": -90.5471678, "tags": {"addr:housenumber": "2646", "addr:postcode": "63303", "addr:street": "Horseshoe Ridge"}}, {"type": "node", "id": 6481762067, "lat": 38.7453438, "lon": -90.547583, "tags": {"addr:housenumber": "2658", "addr:postcode": "63303", "addr:street": "Horseshoe Ridge"}}, {"type": "node", "id": 6481762068, "lat": 38.7458215, "lon": -90.5473541, "tags": {"addr:housenumber": "2650", "addr:postcode": "63303", "addr:street": "Horseshoe Ridge"}}, {"type": "node", "id": 6481762069, "lat": 38.746523, "lon": -90.5446394, "tags": {"addr:housenumber": "2614", "addr:postcode": "63303", "addr:street": "Horseshoe Ridge"}}, {"type": "node", "id": 6481762070, "lat": 38.7466066, "lon": -90.5443711, "tags": {"addr:housenumber": "2610", "addr:postcode": "63303", "addr:street": "Horseshoe Ridge"}}, {"type": "node", "id": 6481762071, "lat": 38.7461526, "lon": -90.5469253, "tags": {"addr:housenumber": "2642", "addr:postcode": "63303", "addr:street": "Horseshoe Ridge"}}, {"type": "node", "id": 6481762072, "lat": 38.7466502, "lon": -90.5440706, "tags": {"addr:housenumber": "2606", "addr:postcode": "63303", "addr:street": "Horseshoe Ridge"}}, {"type": "node", "id": 6481762073, "lat": 38.7462492, "lon": -90.5466143, "tags": {"addr:housenumber": "2638", "addr:postcode": "63303", "addr:street": "Horseshoe Ridge"}}, {"type": "node", "id": 6481762074, "lat": 38.7457138, "lon": -90.5456503, "tags": {"addr:housenumber": "2631", "addr:postcode": "63303", "addr:street": "Horseshoe Ridge"}}, {"type": "node", "id": 6481762075, "lat": 38.7455549, "lon": -90.5473813, "tags": {"addr:housenumber": "2654", "addr:postcode": "63303", "addr:street": "Horseshoe Ridge"}}, {"type": "node", "id": 6481762076, "lat": 38.7461333, "lon": -90.5458861, "tags": {"addr:housenumber": "2630", "addr:postcode": "63303", "addr:street": "Horseshoe Ridge"}}, {"type": "node", "id": 6481762077, "lat": 38.7461726, "lon": -90.5462236, "tags": {"addr:housenumber": "2634", "addr:postcode": "63303", "addr:street": "Horseshoe Ridge"}}, {"type": "node", "id": 6481762078, "lat": 38.7455672, "lon": -90.5468887, "tags": {"addr:housenumber": "2647", "addr:postcode": "63303", "addr:street": "Horseshoe Ridge"}}, {"type": "node", "id": 6481762079, "lat": 38.745289, "lon": -90.5469988, "tags": {"addr:housenumber": "2655", "addr:postcode": "63303", "addr:street": "Horseshoe Ridge"}}, {"type": "node", "id": 6481762080, "lat": 38.74641, "lon": -90.5449357, "tags": {"addr:housenumber": "2618", "addr:postcode": "63303", "addr:street": "Horseshoe Ridge"}}, {"type": "node", "id": 6481762081, "lat": 38.7458411, "lon": -90.5467092, "tags": {"addr:housenumber": "2639", "addr:postcode": "63303", "addr:street": "Horseshoe Ridge"}}, {"type": "node", "id": 6481762082, "lat": 38.7462082, "lon": -90.5438148, "tags": {"addr:housenumber": "2603", "addr:postcode": "63303", "addr:street": "Horseshoe Ridge"}}, {"type": "node", "id": 6481762083, "lat": 38.7478559, "lon": -90.5385584, "tags": {"addr:housenumber": "521", "addr:postcode": "63303", "addr:street": "Lexington Landing"}}, {"type": "node", "id": 6481762084, "lat": 38.746468, "lon": -90.5386362, "tags": {"addr:housenumber": "540", "addr:postcode": "63303", "addr:street": "Lexington Landing"}}, {"type": "node", "id": 6481762086, "lat": 38.7472723, "lon": -90.5383957, "tags": {"addr:housenumber": "529", "addr:postcode": "63303", "addr:street": "Lexington Landing"}}, {"type": "node", "id": 6481762087, "lat": 38.7475685, "lon": -90.5385325, "tags": {"addr:housenumber": "525", "addr:postcode": "63303", "addr:street": "Lexington Landing"}}, {"type": "node", "id": 6481762090, "lat": 38.7458901, "lon": -90.5384306, "tags": {"addr:housenumber": "548", "addr:postcode": "63303", "addr:street": "Lexington Landing"}}, {"type": "node", "id": 6481762093, "lat": 38.7469937, "lon": -90.5388548, "tags": {"addr:housenumber": "532", "addr:postcode": "63303", "addr:street": "Lexington Landing"}}, {"type": "node", "id": 6481762095, "lat": 38.7462357, "lon": -90.5385968, "tags": {"addr:housenumber": "544", "addr:postcode": "63303", "addr:street": "Lexington Landing"}}, {"type": "node", "id": 6481762097, "lat": 38.7455157, "lon": -90.5384501, "tags": {"addr:housenumber": "556", "addr:postcode": "63303", "addr:street": "Lexington Landing"}}, {"type": "node", "id": 6481762098, "lat": 38.747553, "lon": -90.5390479, "tags": {"addr:housenumber": "524", "addr:postcode": "63303", "addr:street": "Lexington Landing"}}, {"type": "node", "id": 6481762099, "lat": 38.7472525, "lon": -90.5389902, "tags": {"addr:housenumber": "528", "addr:postcode": "63303", "addr:street": "Lexington Landing"}}, {"type": "node", "id": 6481762100, "lat": 38.7467445, "lon": -90.5387515, "tags": {"addr:housenumber": "536", "addr:postcode": "63303", "addr:street": "Lexington Landing"}}, {"type": "node", "id": 6481762101, "lat": 38.7477747, "lon": -90.5400949, "tags": {"addr:housenumber": "440", "addr:postcode": "63303", "addr:street": "Fort Saratoga"}}, {"type": "node", "id": 6481762102, "lat": 38.7491295, "lon": -90.541758, "tags": {"addr:housenumber": "405", "addr:postcode": "63303", "addr:street": "Fort Saratoga"}}, {"type": "node", "id": 6481762103, "lat": 38.7479722, "lon": -90.541407, "tags": {"addr:housenumber": "424", "addr:postcode": "63303", "addr:street": "Fort Saratoga"}}, {"type": "node", "id": 6481762104, "lat": 38.747721, "lon": -90.5404369, "tags": {"addr:housenumber": "436", "addr:postcode": "63303", "addr:street": "Fort Saratoga"}}, {"type": "node", "id": 6481762105, "lat": 38.7490123, "lon": -90.542299, "tags": {"addr:housenumber": "404", "addr:postcode": "63303", "addr:street": "Fort Saratoga"}}, {"type": "node", "id": 6481762106, "lat": 38.7487258, "lon": -90.5415572, "tags": {"addr:housenumber": "413", "addr:postcode": "63303", "addr:street": "Fort Saratoga"}}, {"type": "node", "id": 6481762107, "lat": 38.7486024, "lon": -90.5420767, "tags": {"addr:housenumber": "412", "addr:postcode": "63303", "addr:street": "Fort Saratoga"}}, {"type": "node", "id": 6481762108, "lat": 38.7482275, "lon": -90.5398314, "tags": {"addr:housenumber": "445", "addr:postcode": "63303", "addr:street": "Fort Saratoga"}}, {"type": "node", "id": 6481762109, "lat": 38.7489462, "lon": -90.5416734, "tags": {"addr:housenumber": "409", "addr:postcode": "63303", "addr:street": "Fort Saratoga"}}, {"type": "node", "id": 6481762110, "lat": 38.7478586, "lon": -90.5411122, "tags": {"addr:housenumber": "428", "addr:postcode": "63303", "addr:street": "Fort Saratoga"}}, {"type": "node", "id": 6481762111, "lat": 38.7482187, "lon": -90.5391829, "tags": {"addr:housenumber": "453", "addr:postcode": "63303", "addr:street": "Fort Saratoga"}}, {"type": "node", "id": 6481762112, "lat": 38.7484426, "lon": -90.541321, "tags": {"addr:housenumber": "417", "addr:postcode": "63303", "addr:street": "Fort Saratoga"}}, {"type": "node", "id": 6481762113, "lat": 38.7492647, "lon": -90.5424296, "tags": {"addr:housenumber": "400", "addr:postcode": "63303", "addr:street": "Fort Saratoga"}}, {"type": "node", "id": 6481762114, "lat": 38.7478619, "lon": -90.5398506, "tags": {"addr:housenumber": "444", "addr:postcode": "63303", "addr:street": "Fort Saratoga"}}, {"type": "node", "id": 6481762115, "lat": 38.7481515, "lon": -90.5404622, "tags": {"addr:housenumber": "437", "addr:postcode": "63303", "addr:street": "Fort Saratoga"}}, {"type": "node", "id": 6481762116, "lat": 38.7488458, "lon": -90.5422681, "tags": {"addr:housenumber": "408", "addr:postcode": "63303", "addr:street": "Fort Saratoga"}}, {"type": "node", "id": 6481762117, "lat": 38.7478825, "lon": -90.5394638, "tags": {"addr:housenumber": "448", "addr:postcode": "63303", "addr:street": "Fort Saratoga"}}, {"type": "node", "id": 6481762118, "lat": 38.7481969, "lon": -90.5407652, "tags": {"addr:housenumber": "429", "addr:postcode": "63303", "addr:street": "Fort Saratoga"}}, {"type": "node", "id": 6481762119, "lat": 38.748267, "lon": -90.5410475, "tags": {"addr:housenumber": "425", "addr:postcode": "63303", "addr:street": "Fort Saratoga"}}, {"type": "node", "id": 6481762120, "lat": 38.7477273, "lon": -90.5407496, "tags": {"addr:housenumber": "432", "addr:postcode": "63303", "addr:street": "Fort Saratoga"}}, {"type": "node", "id": 6481762121, "lat": 38.7482148, "lon": -90.5401191, "tags": {"addr:housenumber": "441", "addr:postcode": "63303", "addr:street": "Fort Saratoga"}}, {"type": "node", "id": 6481762122, "lat": 38.7483149, "lon": -90.5394599, "tags": {"addr:housenumber": "449", "addr:postcode": "63303", "addr:street": "Fort Saratoga"}}, {"type": "node", "id": 6481762123, "lat": 38.7481277, "lon": -90.5416274, "tags": {"addr:housenumber": "420", "addr:postcode": "63303", "addr:street": "Fort Saratoga"}}, {"type": "node", "id": 6481762124, "lat": 38.7483433, "lon": -90.5418763, "tags": {"addr:housenumber": "416", "addr:postcode": "63303", "addr:street": "Fort Saratoga"}}, {"type": "node", "id": 6481762125, "lat": 38.7478729, "lon": -90.5391857, "tags": {"addr:housenumber": "452", "addr:postcode": "63303", "addr:street": "Fort Saratoga"}}, {"type": "node", "id": 6481762408, "lat": 38.7509184, "lon": -90.548256, "tags": {"addr:housenumber": "1048", "addr:postcode": "63303", "addr:street": "Heritage Court"}}, {"type": "node", "id": 6481762409, "lat": 38.7506074, "lon": -90.5481647, "tags": {"addr:housenumber": "938", "addr:postcode": "63303", "addr:street": "Heritage Court"}}, {"type": "node", "id": 6557359865, "lat": 38.745367, "lon": -90.5392937, "tags": {"addr:housenumber": "609", "addr:postcode": "63303", "addr:street": "Bemis Heights Place"}}, {"type": "node", "id": 6557359871, "lat": 38.7458971, "lon": -90.5391496, "tags": {"addr:housenumber": "612", "addr:postcode": "63303", "addr:street": "Bemis Heights Place"}}, {"type": "node", "id": 6557425492, "lat": 38.7429828, "lon": -90.5487432, "tags": {"addr:housenumber": "306", "addr:postcode": "63303", "addr:street": "Rotunda Court"}}, {"type": "node", "id": 6557425497, "lat": 38.7440758, "lon": -90.5502018, "tags": {"addr:housenumber": "316", "addr:postcode": "63303", "addr:street": "Liberty Lane"}}, {"type": "node", "id": 6557425498, "lat": 38.7432827, "lon": -90.549303, "tags": {"addr:housenumber": "310", "addr:postcode": "63303", "addr:street": "Rotunda Court"}}, {"type": "node", "id": 6557425499, "lat": 38.7446397, "lon": -90.5496371, "tags": {"addr:housenumber": "304", "addr:postcode": "63303", "addr:street": "Liberty Lane"}}, {"type": "node", "id": 6557425500, "lat": 38.7448017, "lon": -90.5493244, "tags": {"addr:housenumber": "300", "addr:postcode": "63303", "addr:street": "Liberty Lane"}}, {"type": "node", "id": 6557425501, "lat": 38.7432422, "lon": -90.5507971, "tags": {"addr:housenumber": "332", "addr:postcode": "63303", "addr:street": "Liberty Lane"}}, {"type": "node", "id": 6557425502, "lat": 38.7454297, "lon": -90.5498385, "tags": {"addr:housenumber": "23", "addr:postcode": "63303", "addr:street": "Richmond Court"}}, {"type": "node", "id": 6557425503, "lat": 38.7432098, "lon": -90.5510448, "tags": {"addr:housenumber": "336", "addr:postcode": "63303", "addr:street": "Liberty Lane"}}, {"type": "node", "id": 6557425504, "lat": 38.7455769, "lon": -90.5503816, "tags": {"addr:housenumber": "21", "addr:postcode": "63303", "addr:street": "Richmond Court"}}, {"type": "node", "id": 6557425506, "lat": 38.7453495, "lon": -90.55016, "tags": {"addr:housenumber": "22", "addr:postcode": "63303", "addr:street": "Richmond Court"}}, {"type": "node", "id": 6557425507, "lat": 38.7437823, "lon": -90.5509394, "tags": {"addr:housenumber": "325", "addr:postcode": "63303", "addr:street": "Liberty Lane"}}, {"type": "node", "id": 6557425508, "lat": 38.7458026, "lon": -90.5501264, "tags": {"addr:housenumber": "20", "addr:postcode": "63303", "addr:street": "Richmond Court"}}, {"type": "node", "id": 6557425513, "lat": 38.7436843, "lon": -90.5505043, "tags": {"addr:housenumber": "324", "addr:postcode": "63303", "addr:street": "Liberty Lane"}}, {"type": "node", "id": 6557425515, "lat": 38.7432136, "lon": -90.5495988, "tags": {"addr:housenumber": "312", "addr:postcode": "63303", "addr:street": "Rotunda Court"}}, {"type": "node", "id": 6557425518, "lat": 38.7434334, "lon": -90.5512761, "tags": {"addr:housenumber": "333", "addr:postcode": "63303", "addr:street": "Liberty Lane"}}, {"type": "node", "id": 6557425527, "lat": 38.7439716, "lon": -90.550756, "tags": {"addr:housenumber": "321", "addr:postcode": "63303", "addr:street": "Liberty Lane"}}, {"type": "node", "id": 6557425528, "lat": 38.7436277, "lon": -90.5511577, "tags": {"addr:housenumber": "329", "addr:postcode": "63303", "addr:street": "Liberty Lane"}}, {"type": "node", "id": 6557425532, "lat": 38.7434354, "lon": -90.5506104, "tags": {"addr:housenumber": "328", "addr:postcode": "63303", "addr:street": "Liberty Lane"}}, {"type": "node", "id": 6557425543, "lat": 38.7447297, "lon": -90.5501339, "tags": {"addr:housenumber": "309", "addr:postcode": "63303", "addr:street": "Liberty Lane"}}, {"type": "node", "id": 6557425546, "lat": 38.743102, "lon": -90.5490386, "tags": {"addr:housenumber": "308", "addr:postcode": "63303", "addr:street": "Rotunda Court"}}, {"type": "node", "id": 6557425550, "lat": 38.7442545, "lon": -90.5499862, "tags": {"addr:housenumber": "312", "addr:postcode": "63303", "addr:street": "Liberty Lane"}}, {"type": "node", "id": 6557425551, "lat": 38.7444658, "lon": -90.5498737, "tags": {"addr:housenumber": "308", "addr:postcode": "63303", "addr:street": "Liberty Lane"}}, {"type": "node", "id": 6557425555, "lat": 38.7449847, "lon": -90.549875, "tags": {"addr:housenumber": "305", "addr:postcode": "63303", "addr:street": "Liberty Lane"}}, {"type": "node", "id": 6557425558, "lat": 38.7438705, "lon": -90.5503289, "tags": {"addr:housenumber": "320", "addr:postcode": "63303", "addr:street": "Liberty Lane"}}, {"type": "node", "id": 6557425562, "lat": 38.7480108, "lon": -90.5515676, "tags": {"addr:housenumber": "11", "addr:postcode": "63303", "addr:street": "Homestead Court"}}, {"type": "node", "id": 6557425573, "lat": 38.7480651, "lon": -90.5512943, "tags": {"addr:housenumber": "12", "addr:postcode": "63303", "addr:street": "Homestead Court"}}, {"type": "node", "id": 6557425577, "lat": 38.7478197, "lon": -90.5517675, "tags": {"addr:housenumber": "10", "addr:postcode": "63303", "addr:street": "Homestead Court"}}, {"type": "node", "id": 6557448585, "lat": 38.747577, "lon": -90.5511791, "tags": {"addr:housenumber": "14", "addr:postcode": "63303", "addr:street": "Homestead Court"}}, {"type": "node", "id": 6557448592, "lat": 38.7477825, "lon": -90.5510842, "tags": {"addr:housenumber": "13", "addr:postcode": "63303", "addr:street": "Homestead Court"}}, {"type": "node", "id": 6557462786, "lat": 38.7465889, "lon": -90.5395677, "tags": {"addr:housenumber": "624", "addr:postcode": "63303", "addr:street": "Bemis Heights Place"}}, {"type": "node", "id": 6557462789, "lat": 38.7463383, "lon": -90.5394142, "tags": {"addr:housenumber": "620", "addr:postcode": "63303", "addr:street": "Bemis Heights Place"}}, {"type": "node", "id": 6557462807, "lat": 38.745603, "lon": -90.5395087, "tags": {"addr:housenumber": "613", "addr:postcode": "63303", "addr:street": "Bemis Heights Place"}}, {"type": "node", "id": 6557462808, "lat": 38.7463389, "lon": -90.5400369, "tags": {"addr:housenumber": "625", "addr:postcode": "63303", "addr:street": "Bemis Heights Place"}}, {"type": "node", "id": 6557462809, "lat": 38.7481461, "lon": -90.5387069, "tags": {"addr:housenumber": "517", "addr:postcode": "63303", "addr:street": "Lexington Landing Court"}}, {"type": "node", "id": 6557462810, "lat": 38.7488581, "lon": -90.5389958, "tags": {"addr:housenumber": "508", "addr:postcode": "63303", "addr:street": "Lexington Landing Court"}}, {"type": "node", "id": 6557462811, "lat": 38.7458418, "lon": -90.5396717, "tags": {"addr:housenumber": "617", "addr:postcode": "63303", "addr:street": "Bemis Heights Place"}}, {"type": "node", "id": 6557462813, "lat": 38.74613, "lon": -90.5399086, "tags": {"addr:housenumber": "621", "addr:postcode": "63303", "addr:street": "Bemis Heights Place"}}, {"type": "node", "id": 6557462815, "lat": 38.7471393, "lon": -90.5398623, "tags": {"addr:housenumber": "632", "addr:postcode": "63303", "addr:street": "Bemis Heights Place"}}, {"type": "node", "id": 6557462817, "lat": 38.7452531, "lon": -90.5390094, "tags": {"addr:housenumber": "605", "addr:postcode": "63303", "addr:street": "Bemis Heights Place"}}, {"type": "node", "id": 6557462834, "lat": 38.7485717, "lon": -90.539037, "tags": {"addr:housenumber": "512", "addr:postcode": "63303", "addr:street": "Lexington Landing Court"}}, {"type": "node", "id": 6557462836, "lat": 38.745623, "lon": -90.5389104, "tags": {"addr:housenumber": "608", "addr:postcode": "63303", "addr:street": "Bemis Heights Place"}}, {"type": "node", "id": 6557462837, "lat": 38.7449613, "lon": -90.5386072, "tags": {"addr:housenumber": "564", "addr:postcode": "63303", "addr:street": "Lexington Landing Place"}}, {"type": "node", "id": 6557462839, "lat": 38.7465424, "lon": -90.540238, "tags": {"addr:housenumber": "629", "addr:postcode": "63303", "addr:street": "Bemis Heights Place"}}, {"type": "node", "id": 6557462840, "lat": 38.7467996, "lon": -90.5403446, "tags": {"addr:housenumber": "633", "addr:postcode": "63303", "addr:street": "Bemis Heights Place"}}, {"type": "node", "id": 6557462847, "lat": 38.7484125, "lon": -90.5386301, "tags": {"addr:housenumber": "513", "addr:postcode": "63303", "addr:street": "Lexington Landing Court"}}, {"type": "node", "id": 6557462849, "lat": 38.748623, "lon": -90.5385035, "tags": {"addr:housenumber": "509", "addr:postcode": "63303", "addr:street": "Lexington Landing Court"}}, {"type": "node", "id": 6557462851, "lat": 38.7441649, "lon": -90.5385568, "tags": {"addr:housenumber": "576", "addr:postcode": "63303", "addr:street": "Lexington Landing Place"}}, {"type": "node", "id": 6557462855, "lat": 38.7444294, "lon": -90.5386299, "tags": {"addr:housenumber": "572", "addr:postcode": "63303", "addr:street": "Lexington Landing Place"}}, {"type": "node", "id": 6557462857, "lat": 38.7446848, "lon": -90.5386569, "tags": {"addr:housenumber": "568", "addr:postcode": "63303", "addr:street": "Lexington Landing Place"}}, {"type": "node", "id": 6557462859, "lat": 38.7470439, "lon": -90.5403031, "tags": {"addr:housenumber": "637", "addr:postcode": "63303", "addr:street": "Bemis Heights Place"}}, {"type": "node", "id": 6557462876, "lat": 38.7461294, "lon": -90.5392686, "tags": {"addr:housenumber": "616", "addr:postcode": "63303", "addr:street": "Bemis Heights Place"}}, {"type": "node", "id": 6557462878, "lat": 38.7492185, "lon": -90.5385846, "tags": {"addr:housenumber": "500", "addr:postcode": "63303", "addr:street": "Lexington Landing Court"}}, {"type": "node", "id": 6557462880, "lat": 38.749117, "lon": -90.5389261, "tags": {"addr:housenumber": "504", "addr:postcode": "63303", "addr:street": "Lexington Landing Court"}}, {"type": "node", "id": 6557462895, "lat": 38.7468277, "lon": -90.5396313, "tags": {"addr:housenumber": "628", "addr:postcode": "63303", "addr:street": "Bemis Heights Place"}}, {"type": "node", "id": 6557462899, "lat": 38.7483353, "lon": -90.5497582, "tags": {"addr:housenumber": "4", "addr:postcode": "63303", "addr:street": "Summit Station"}}, {"type": "node", "id": 6557462900, "lat": 38.747903, "lon": -90.5473426, "tags": {"addr:housenumber": "2750", "addr:postcode": "63303", "addr:street": "Cumberland Landing"}}, {"type": "node", "id": 6557462901, "lat": 38.748532, "lon": -90.5496578, "tags": {"addr:housenumber": "3", "addr:postcode": "63303", "addr:street": "Summit Station"}}, {"type": "node", "id": 6557462902, "lat": 38.748164, "lon": -90.5496007, "tags": {"addr:housenumber": "5", "addr:postcode": "63303", "addr:street": "Summit Station"}}, {"type": "node", "id": 6557462903, "lat": 38.7481448, "lon": -90.5472835, "tags": {"addr:housenumber": "2754", "addr:postcode": "63303", "addr:street": "Cumberland Landing"}}, {"type": "node", "id": 6557462904, "lat": 38.7480104, "lon": -90.5492062, "tags": {"addr:housenumber": "6", "addr:postcode": "63303", "addr:street": "Summit Station"}}, {"type": "node", "id": 6557462905, "lat": 38.749348, "lon": -90.5487013, "tags": {"addr:housenumber": "1", "addr:postcode": "63303", "addr:street": "Saw Mill Way"}}, {"type": "node", "id": 6557462906, "lat": 38.7465892, "lon": -90.541935, "tags": {"addr:housenumber": "3", "addr:postcode": "63303", "addr:street": "Vicksburg Station"}}, {"type": "node", "id": 6557462907, "lat": 38.7447288, "lon": -90.5410059, "tags": {"addr:housenumber": "11", "addr:postcode": "63303", "addr:street": "Vicksburg Station"}}, {"type": "node", "id": 6557462908, "lat": 38.7475663, "lon": -90.542144, "tags": {"addr:housenumber": "25", "addr:postcode": "63303", "addr:street": "Vicksburg Station"}}, {"type": "node", "id": 6557462909, "lat": 38.74639, "lon": -90.5412504, "tags": {"addr:housenumber": "20", "addr:postcode": "63303", "addr:street": "Vicksburg Station"}}, {"type": "node", "id": 6557462910, "lat": 38.7490034, "lon": -90.5487485, "tags": {"addr:housenumber": "6", "addr:postcode": "63303", "addr:street": "Saw Mill Way"}}, {"type": "node", "id": 6557462911, "lat": 38.7511539, "lon": -90.5420835, "tags": {"addr:housenumber": "317", "addr:postcode": "63303", "addr:street": "Yorktown Square Court"}}, {"type": "node", "id": 6557462912, "lat": 38.749097, "lon": -90.5493404, "tags": {"addr:housenumber": "4", "addr:postcode": "63303", "addr:street": "Saw Mill Way"}}, {"type": "node", "id": 6557462913, "lat": 38.7507198, "lon": -90.5429194, "tags": {"addr:housenumber": "320", "addr:postcode": "63303", "addr:street": "Yorktown Square Court"}}, {"type": "node", "id": 6557462914, "lat": 38.7477532, "lon": -90.5496995, "tags": {"addr:housenumber": "2", "addr:postcode": "63303", "addr:street": "Hobbs Mill"}}, {"type": "node", "id": 6557462915, "lat": 38.7475073, "lon": -90.5478335, "tags": {"addr:housenumber": "2739", "addr:postcode": "63303", "addr:street": "Cumberland Landing"}}, {"type": "node", "id": 6557462916, "lat": 38.7507183, "lon": -90.5417165, "tags": {"addr:housenumber": "309", "addr:postcode": "63303", "addr:street": "Yorktown Square Court"}}, {"type": "node", "id": 6557462917, "lat": 38.7492464, "lon": -90.550044, "tags": {"addr:housenumber": "2", "addr:postcode": "63303", "addr:street": "Stonewall Court"}}, {"type": "node", "id": 6557462918, "lat": 38.7454572, "lon": -90.5416993, "tags": {"addr:housenumber": "7", "addr:postcode": "63303", "addr:street": "Vicksburg Station"}}, {"type": "node", "id": 6557462919, "lat": 38.7492981, "lon": -90.5492772, "tags": {"addr:housenumber": "3", "addr:postcode": "63303", "addr:street": "Saw Mill Way"}}, {"type": "node", "id": 6557462920, "lat": 38.7449404, "lon": -90.5415784, "tags": {"addr:housenumber": "9", "addr:postcode": "63303", "addr:street": "Vicksburg Station"}}, {"type": "node", "id": 6557462921, "lat": 38.7461489, "lon": -90.5410868, "tags": {"addr:housenumber": "19", "addr:postcode": "63303", "addr:street": "Vicksburg Station"}}, {"type": "node", "id": 6557462922, "lat": 38.7479135, "lon": -90.5477783, "tags": {"addr:housenumber": "2747", "addr:postcode": "63303", "addr:street": "Cumberland Landing"}}, {"type": "node", "id": 6557462923, "lat": 38.7472931, "lon": -90.5474335, "tags": {"addr:housenumber": "2738", "addr:postcode": "63303", "addr:street": "Cumberland Landing"}}, {"type": "node", "id": 6557462924, "lat": 38.7472697, "lon": -90.5478805, "tags": {"addr:housenumber": "2735", "addr:postcode": "63303", "addr:street": "Cumberland Landing"}}, {"type": "node", "id": 6557462925, "lat": 38.7483919, "lon": -90.5477906, "tags": {"addr:housenumber": "2759", "addr:postcode": "63303", "addr:street": "Cumberland Landing"}}, {"type": "node", "id": 6557462926, "lat": 38.7473205, "lon": -90.5419926, "tags": {"addr:housenumber": "24", "addr:postcode": "63303", "addr:street": "Vicksburg Station"}}, {"type": "node", "id": 6557462927, "lat": 38.7509676, "lon": -90.5418404, "tags": {"addr:housenumber": "313", "addr:postcode": "63303", "addr:street": "Yorktown Square Court"}}, {"type": "node", "id": 6557462928, "lat": 38.7455416, "lon": -90.540478, "tags": {"addr:housenumber": "16", "addr:postcode": "63303", "addr:street": "Vicksburg Station"}}, {"type": "node", "id": 6557462929, "lat": 38.7510105, "lon": -90.5430661, "tags": {"addr:housenumber": "324", "addr:postcode": "63303", "addr:street": "Yorktown Square Court"}}, {"type": "node", "id": 6557462930, "lat": 38.7472578, "lon": -90.5497088, "tags": {"addr:housenumber": "5", "addr:postcode": "63303", "addr:street": "Hobbs Mill"}}, {"type": "node", "id": 6557462931, "lat": 38.7469432, "lon": -90.5415707, "tags": {"addr:housenumber": "22", "addr:postcode": "63303", "addr:street": "Vicksburg Station"}}, {"type": "node", "id": 6557462932, "lat": 38.7457831, "lon": -90.5407057, "tags": {"addr:housenumber": "17", "addr:postcode": "63303", "addr:street": "Vicksburg Station"}}, {"type": "node", "id": 6557462933, "lat": 38.7476449, "lon": -90.5499715, "tags": {"addr:housenumber": "3", "addr:postcode": "63303", "addr:street": "Hobbs Mill"}}, {"type": "node", "id": 6557462935, "lat": 38.7452731, "lon": -90.5403211, "tags": {"addr:housenumber": "15", "addr:postcode": "63303", "addr:street": "Vicksburg Station"}}, {"type": "node", "id": 6557462936, "lat": 38.7511894, "lon": -90.5424405, "tags": {"addr:housenumber": "321", "addr:postcode": "63303", "addr:street": "Yorktown Square Court"}}, {"type": "node", "id": 6557462937, "lat": 38.7473277, "lon": -90.549374, "tags": {"addr:housenumber": "6", "addr:postcode": "63303", "addr:street": "Hobbs Mill"}}, {"type": "node", "id": 6557462938, "lat": 38.7450396, "lon": -90.540136, "tags": {"addr:housenumber": "14", "addr:postcode": "63303", "addr:street": "Vicksburg Station"}}, {"type": "node", "id": 6557462939, "lat": 38.7470742, "lon": -90.5425311, "tags": {"addr:housenumber": "1", "addr:postcode": "63303", "addr:street": "Vicksburg Station"}}, {"type": "node", "id": 6557462940, "lat": 38.7447932, "lon": -90.5406947, "tags": {"addr:housenumber": "12", "addr:postcode": "63303", "addr:street": "Vicksburg Station"}}, {"type": "node", "id": 6557462941, "lat": 38.7474119, "lon": -90.5499616, "tags": {"addr:housenumber": "4", "addr:postcode": "63303", "addr:street": "Hobbs Mill"}}, {"type": "node", "id": 6557462942, "lat": 38.7474883, "lon": -90.5473898, "tags": {"addr:housenumber": "2742", "addr:postcode": "63303", "addr:street": "Cumberland Landing"}}, {"type": "node", "id": 6557462943, "lat": 38.7481648, "lon": -90.5477442, "tags": {"addr:housenumber": "2751", "addr:postcode": "63303", "addr:street": "Cumberland Landing"}}, {"type": "node", "id": 6557462944, "lat": 38.7466219, "lon": -90.5477443, "tags": {"addr:housenumber": "2726", "addr:postcode": "63303", "addr:street": "Cumberland Landing"}}, {"type": "node", "id": 6557462945, "lat": 38.7502473, "lon": -90.5413346, "tags": {"addr:housenumber": "301", "addr:postcode": "63303", "addr:street": "Yorktown Square Court"}}, {"type": "node", "id": 6557462946, "lat": 38.7469433, "lon": -90.5421192, "tags": {"addr:housenumber": "2", "addr:postcode": "63303", "addr:street": "Vicksburg Station"}}, {"type": "node", "id": 6557462947, "lat": 38.7504325, "lon": -90.541507, "tags": {"addr:housenumber": "305", "addr:postcode": "63303", "addr:street": "Yorktown Square Court"}}, {"type": "node", "id": 6557462948, "lat": 38.748455, "lon": -90.5490552, "tags": {"addr:housenumber": "1", "addr:postcode": "63303", "addr:street": "Summit Station"}}, {"type": "node", "id": 6557462949, "lat": 38.7468393, "lon": -90.5475696, "tags": {"addr:housenumber": "2730", "addr:postcode": "63303", "addr:street": "Cumberland Landing"}}, {"type": "node", "id": 6557462950, "lat": 38.7470513, "lon": -90.5474766, "tags": {"addr:housenumber": "2734", "addr:postcode": "63303", "addr:street": "Cumberland Landing"}}, {"type": "node", "id": 6557462951, "lat": 38.7506808, "lon": -90.542598, "tags": {"addr:housenumber": "316", "addr:postcode": "63303", "addr:street": "Yorktown Square Court"}}, {"type": "node", "id": 6557462952, "lat": 38.7485777, "lon": -90.5493343, "tags": {"addr:housenumber": "2", "addr:postcode": "63303", "addr:street": "Summit Station"}}, {"type": "node", "id": 6557462953, "lat": 38.7507043, "lon": -90.5422586, "tags": {"addr:housenumber": "312", "addr:postcode": "63303", "addr:street": "Yorktown Square Court"}}, {"type": "node", "id": 6557462954, "lat": 38.7502365, "lon": -90.5419187, "tags": {"addr:housenumber": "304", "addr:postcode": "63303", "addr:street": "Yorktown Square Court"}}, {"type": "node", "id": 6557462955, "lat": 38.7470552, "lon": -90.5479514, "tags": {"addr:housenumber": "2731", "addr:postcode": "63303", "addr:street": "Cumberland Landing"}}, {"type": "node", "id": 6557462956, "lat": 38.7489733, "lon": -90.5490745, "tags": {"addr:housenumber": "5", "addr:postcode": "63303", "addr:street": "Saw Mill Way"}}, {"type": "node", "id": 6557462957, "lat": 38.7504294, "lon": -90.5421148, "tags": {"addr:housenumber": "308", "addr:postcode": "63303", "addr:street": "Yorktown Square Court"}}, {"type": "node", "id": 6557462958, "lat": 38.7493974, "lon": -90.5490488, "tags": {"addr:housenumber": "2", "addr:postcode": "63303", "addr:street": "Saw Mill Way"}}, {"type": "node", "id": 6557462959, "lat": 38.7476993, "lon": -90.5478144, "tags": {"addr:housenumber": "2743", "addr:postcode": "63303", "addr:street": "Cumberland Landing"}}, {"type": "node", "id": 6557462960, "lat": 38.7448479, "lon": -90.540307, "tags": {"addr:housenumber": "13", "addr:postcode": "63303", "addr:street": "Vicksburg Station"}}, {"type": "node", "id": 6557462961, "lat": 38.7495367, "lon": -90.5499813, "tags": {"addr:housenumber": "3", "addr:postcode": "63303", "addr:street": "Stonewall Court"}}, {"type": "node", "id": 6557462962, "lat": 38.7477066, "lon": -90.547405, "tags": {"addr:housenumber": "2746", "addr:postcode": "63303", "addr:street": "Cumberland Landing"}}, {"type": "node", "id": 6557462963, "lat": 38.7464996, "lon": -90.5479228, "tags": {"addr:housenumber": "2722", "addr:postcode": "63303", "addr:street": "Cumberland Landing"}}, {"type": "node", "id": 6557462964, "lat": 38.7459364, "lon": -90.5409003, "tags": {"addr:housenumber": "18", "addr:postcode": "63303", "addr:street": "Vicksburg Station"}}, {"type": "node", "id": 6557462965, "lat": 38.7451874, "lon": -90.54165, "tags": {"addr:housenumber": "8", "addr:postcode": "63303", "addr:street": "Vicksburg Station"}}, {"type": "node", "id": 6557462966, "lat": 38.7468434, "lon": -90.5481027, "tags": {"addr:housenumber": "2723", "addr:postcode": "63303", "addr:street": "Cumberland Landing"}}, {"type": "node", "id": 6557462967, "lat": 38.7462871, "lon": -90.5482513, "tags": {"addr:housenumber": "2718", "addr:postcode": "63303", "addr:street": "Cumberland Landing"}}, {"type": "node", "id": 6557462968, "lat": 38.7462523, "lon": -90.5418102, "tags": {"addr:housenumber": "4", "addr:postcode": "63303", "addr:street": "Vicksburg Station"}}, {"type": "node", "id": 6557462969, "lat": 38.7447493, "lon": -90.541411, "tags": {"addr:housenumber": "10", "addr:postcode": "63303", "addr:street": "Vicksburg Station"}}, {"type": "node", "id": 6557462970, "lat": 38.7486375, "lon": -90.5472623, "tags": {"addr:housenumber": "2762", "addr:postcode": "63303", "addr:street": "Cumberland Landing"}}, {"type": "node", "id": 6557462971, "lat": 38.7457269, "lon": -90.54175, "tags": {"addr:housenumber": "6", "addr:postcode": "63303", "addr:street": "Vicksburg Station"}}, {"type": "node", "id": 6557462972, "lat": 38.7471556, "lon": -90.5417348, "tags": {"addr:housenumber": "23", "addr:postcode": "63303", "addr:street": "Vicksburg Station"}}, {"type": "node", "id": 6557462973, "lat": 38.7486735, "lon": -90.5476056, "tags": {"addr:housenumber": "2761", "addr:postcode": "63303", "addr:street": "Cumberland Landing"}}, {"type": "node", "id": 6557462974, "lat": 38.7483397, "lon": -90.547206, "tags": {"addr:housenumber": "2758", "addr:postcode": "63303", "addr:street": "Cumberland Landing"}}, {"type": "node", "id": 6557462975, "lat": 38.7466578, "lon": -90.5414053, "tags": {"addr:housenumber": "21", "addr:postcode": "63303", "addr:street": "Vicksburg Station"}}, {"type": "node", "id": 6557462976, "lat": 38.745962, "lon": -90.541797, "tags": {"addr:housenumber": "5", "addr:postcode": "63303", "addr:street": "Vicksburg Station"}}, {"type": "node", "id": 6557462977, "lat": 38.744279, "lon": -90.547038, "tags": {"addr:housenumber": "1", "addr:postcode": "63303", "addr:street": "Rebels Way"}}, {"type": "node", "id": 6557462981, "lat": 38.7455645, "lon": -90.5446255, "tags": {"addr:housenumber": "3", "addr:postcode": "63303", "addr:street": "Union Way"}}, {"type": "node", "id": 6557462982, "lat": 38.7436488, "lon": -90.5441246, "tags": {"addr:housenumber": "31", "addr:postcode": "63303", "addr:street": "Confederate Way"}}, {"type": "node", "id": 6557462984, "lat": 38.7458013, "lon": -90.5445047, "tags": {"addr:housenumber": "4", "addr:postcode": "63303", "addr:street": "Union Way"}}, {"type": "node", "id": 6557462986, "lat": 38.7455771, "lon": -90.5449292, "tags": {"addr:housenumber": "2", "addr:postcode": "63303", "addr:street": "Union Way"}}, {"type": "node", "id": 6557462991, "lat": 38.7432038, "lon": -90.5435682, "tags": {"addr:housenumber": "42", "addr:postcode": "63303", "addr:street": "Bunker Hill"}}, {"type": "node", "id": 6557462992, "lat": 38.7434467, "lon": -90.5435555, "tags": {"addr:housenumber": "41", "addr:postcode": "63303", "addr:street": "Bunker Hill"}}, {"type": "node", "id": 6557462994, "lat": 38.7429903, "lon": -90.5447187, "tags": {"addr:housenumber": "16", "addr:postcode": "63303", "addr:street": "Confederate Way"}}, {"type": "node", "id": 6557462995, "lat": 38.7430897, "lon": -90.5428514, "tags": {"addr:housenumber": "53", "addr:postcode": "63303", "addr:street": "Bunker Hill"}}, {"type": "node", "id": 6557463005, "lat": 38.745474, "lon": -90.5461387, "tags": {"addr:housenumber": "2", "addr:postcode": "63303", "addr:street": "Dixie Way"}}, {"type": "node", "id": 6557463006, "lat": 38.7436314, "lon": -90.5464686, "tags": {"addr:housenumber": "5", "addr:postcode": "63303", "addr:street": "Rebels Way"}}, {"type": "node", "id": 6557463008, "lat": 38.745466, "lon": -90.5457014, "tags": {"addr:housenumber": "7", "addr:postcode": "63303", "addr:street": "Dixie Way"}}, {"type": "node", "id": 6557463010, "lat": 38.7457872, "lon": -90.5461764, "tags": {"addr:housenumber": "1", "addr:postcode": "63303", "addr:street": "Dixie Way"}}, {"type": "node", "id": 6557463018, "lat": 38.7435691, "lon": -90.5458359, "tags": {"addr:housenumber": "3", "addr:postcode": "63303", "addr:street": "Winchester Way"}}, {"type": "node", "id": 6557463019, "lat": 38.7438535, "lon": -90.5453269, "tags": {"addr:housenumber": "6", "addr:postcode": "63303", "addr:street": "Winchester Way"}}, {"type": "node", "id": 6557463021, "lat": 38.7434339, "lon": -90.5455551, "tags": {"addr:housenumber": "4", "addr:postcode": "63303", "addr:street": "Winchester Way"}}, {"type": "node", "id": 6557463025, "lat": 38.7452777, "lon": -90.54628, "tags": {"addr:housenumber": "3", "addr:postcode": "63303", "addr:street": "Dixie Way"}}, {"type": "node", "id": 6557463026, "lat": 38.7458462, "lon": -90.5451477, "tags": {"addr:housenumber": "1", "addr:postcode": "63303", "addr:street": "Union Way"}}, {"type": "node", "id": 6557463027, "lat": 38.7450623, "lon": -90.546223, "tags": {"addr:housenumber": "4", "addr:postcode": "63303", "addr:street": "Dixie Way"}}, {"type": "node", "id": 6557463028, "lat": 38.746096, "lon": -90.54469, "tags": {"addr:housenumber": "5", "addr:postcode": "63303", "addr:street": "Union Way"}}, {"type": "node", "id": 6557463034, "lat": 38.7435812, "lon": -90.5453, "tags": {"addr:housenumber": "5", "addr:postcode": "63303", "addr:street": "Winchester Way"}}, {"type": "node", "id": 6557463035, "lat": 38.7441467, "lon": -90.5452937, "tags": {"addr:housenumber": "7", "addr:postcode": "63303", "addr:street": "Winchester Way"}}, {"type": "node", "id": 6557463042, "lat": 38.7438144, "lon": -90.5458277, "tags": {"addr:housenumber": "2", "addr:postcode": "63303", "addr:street": "Winchester Way"}}, {"type": "node", "id": 6557463044, "lat": 38.7450469, "lon": -90.5458483, "tags": {"addr:housenumber": "5", "addr:postcode": "63303", "addr:street": "Dixie Way"}}, {"type": "node", "id": 6557463045, "lat": 38.7452262, "lon": -90.5456834, "tags": {"addr:housenumber": "6", "addr:postcode": "63303", "addr:street": "Dixie Way"}}, {"type": "node", "id": 6557463046, "lat": 38.7438983, "lon": -90.5438849, "tags": {"addr:housenumber": "32", "addr:postcode": "63303", "addr:street": "Confederate Way"}}, {"type": "node", "id": 6557463047, "lat": 38.7441353, "lon": -90.5442595, "tags": {"addr:housenumber": "11", "addr:postcode": "63303", "addr:street": "Confederate Way"}}, {"type": "node", "id": 6557463048, "lat": 38.7434774, "lon": -90.5446498, "tags": {"addr:housenumber": "14", "addr:postcode": "63303", "addr:street": "Confederate Way"}}, {"type": "node", "id": 6557463049, "lat": 38.7437576, "lon": -90.5469645, "tags": {"addr:housenumber": "3", "addr:postcode": "63303", "addr:street": "Rebels Way"}}, {"type": "node", "id": 6557463051, "lat": 38.7435909, "lon": -90.5467089, "tags": {"addr:housenumber": "4", "addr:postcode": "63303", "addr:street": "Rebels Way"}}, {"type": "node", "id": 6557463052, "lat": 38.7439108, "lon": -90.5462893, "tags": {"addr:housenumber": "6", "addr:postcode": "63303", "addr:street": "Rebels Way"}}, {"type": "node", "id": 6557463053, "lat": 38.7439827, "lon": -90.5469807, "tags": {"addr:housenumber": "2", "addr:postcode": "63303", "addr:street": "Rebels Way"}}, {"type": "node", "id": 6557463060, "lat": 38.7430454, "lon": -90.5442623, "tags": {"addr:housenumber": "29", "addr:postcode": "63303", "addr:street": "Confederate Way"}}, {"type": "node", "id": 6557463064, "lat": 38.7434396, "lon": -90.5442207, "tags": {"addr:housenumber": "30", "addr:postcode": "63303", "addr:street": "Confederate Way"}}, {"type": "node", "id": 6557463065, "lat": 38.7430043, "lon": -90.5434405, "tags": {"addr:housenumber": "43", "addr:postcode": "63303", "addr:street": "Bunker Hill"}}, {"type": "node", "id": 6557463066, "lat": 38.7441404, "lon": -90.5464542, "tags": {"addr:housenumber": "7", "addr:postcode": "63303", "addr:street": "Rebels Way"}}, {"type": "node", "id": 6557463067, "lat": 38.7431933, "lon": -90.5447473, "tags": {"addr:housenumber": "15", "addr:postcode": "63303", "addr:street": "Confederate Way"}}, {"type": "node", "id": 6557463068, "lat": 38.7432831, "lon": -90.543121, "tags": {"addr:housenumber": "54", "addr:postcode": "63303", "addr:street": "Bunker Hill"}}, {"type": "node", "id": 6557463073, "lat": 38.743914, "lon": -90.5444219, "tags": {"addr:housenumber": "12", "addr:postcode": "63303", "addr:street": "Confederate Way"}}, {"type": "node", "id": 6557463077, "lat": 38.7436846, "lon": -90.5445532, "tags": {"addr:housenumber": "13", "addr:postcode": "63303", "addr:street": "Confederate Way"}}, {"type": "node", "id": 9133879444, "lat": 38.751309, "lon": -90.5511591}, {"type": "node", "id": 9133879445, "lat": 38.7513696, "lon": -90.5510546}, {"type": "node", "id": 9133879446, "lat": 38.7513839, "lon": -90.5510683}, {"type": "node", "id": 9133879447, "lat": 38.7514036, "lon": -90.5510343}, {"type": "node", "id": 9133879448, "lat": 38.7514101, "lon": -90.5510405}, {"type": "node", "id": 9133879449, "lat": 38.7514517, "lon": -90.5509688}, {"type": "node", "id": 9133879450, "lat": 38.7514473, "lon": -90.5509645}, {"type": "node", "id": 9133879451, "lat": 38.7514699, "lon": -90.5509255}, {"type": "node", "id": 9133879452, "lat": 38.7514587, "lon": -90.5509148}, {"type": "node", "id": 9133879453, "lat": 38.7515198, "lon": -90.5508095}, {"type": "node", "id": 9133879454, "lat": 38.7513657, "lon": -90.5506624}, {"type": "node", "id": 9133879455, "lat": 38.751303, "lon": -90.5507703}, {"type": "node", "id": 9133879456, "lat": 38.7512846, "lon": -90.5507527}, {"type": "node", "id": 9133879457, "lat": 38.7512036, "lon": -90.5508922}, {"type": "node", "id": 9133879458, "lat": 38.7512225, "lon": -90.5509103}, {"type": "node", "id": 9133879459, "lat": 38.7512141, "lon": -90.5509248}, {"type": "node", "id": 9133879460, "lat": 38.7511799, "lon": -90.5508922}, {"type": "node", "id": 9133879461, "lat": 38.7511334, "lon": -90.5509724}, {"type": "node", "id": 9133879462, "lat": 38.7511685, "lon": -90.5510058}, {"type": "node", "id": 9133879463, "lat": 38.7511612, "lon": -90.5510183}, {"type": "node", "id": 9133879464, "lat": 38.7510933, "lon": -90.5515319}, {"type": "node", "id": 9133879465, "lat": 38.7510909, "lon": -90.5512391}, {"type": "node", "id": 9133879466, "lat": 38.7509326, "lon": -90.5512413}, {"type": "node", "id": 9133879467, "lat": 38.7509306, "lon": -90.5510014}, {"type": "node", "id": 9133879468, "lat": 38.7509209, "lon": -90.5510015}, {"type": "node", "id": 9133879469, "lat": 38.750829, "lon": -90.5509199}, {"type": "node", "id": 9133879470, "lat": 38.7506968, "lon": -90.5511647}, {"type": "node", "id": 9133879471, "lat": 38.7507618, "lon": -90.5512224}, {"type": "node", "id": 9133879472, "lat": 38.7508683, "lon": -90.5512208}, {"type": "node", "id": 9133879473, "lat": 38.7508685, "lon": -90.5512431}, {"type": "node", "id": 9133879474, "lat": 38.7508044, "lon": -90.551244}, {"type": "node", "id": 9133879475, "lat": 38.7508053, "lon": -90.5513468}, {"type": "node", "id": 9133879476, "lat": 38.750791, "lon": -90.551347}, {"type": "node", "id": 9133879477, "lat": 38.7507918, "lon": -90.551434}, {"type": "node", "id": 9133879478, "lat": 38.7508082, "lon": -90.5514337}, {"type": "node", "id": 9133879479, "lat": 38.7508091, "lon": -90.5515352}, {"type": "node", "id": 9133879480, "lat": 38.750921, "lon": -90.5515336}, {"type": "node", "id": 9133879481, "lat": 38.750921, "lon": -90.5515387}, {"type": "node", "id": 9133879482, "lat": 38.7509811, "lon": -90.5515379}, {"type": "node", "id": 9133879483, "lat": 38.7509811, "lon": -90.5515334}, {"type": "way", "id": 988191634, "nodes": [9133879444, 9133879445, 9133879446, 9133879447, 9133879448, 9133879449, 9133879450, 9133879451, 9133879452, 9133879453, 9133879454, 9133879455, 9133879456, 9133879457, 9133879458, 9133879459, 9133879460, 9133879461, 9133879462, 9133879463, 9133879444], "tags": {"building": "yes"}}, {"type": "way", "id": 988191635, "nodes": [9133879464, 9133879465, 9133879466, 9133879467, 9133879468, 9133879469, 9133879470, 9133879471, 9133879472, 9133879473, 9133879474, 9133879475, 9133879476, 9133879477, 9133879478, 9133879479, 9133879480, 9133879481, 9133879482, 9133879483, 9133879464], "tags": {"building": "yes"}}]}