{"version": 0.6, "generator": "Overpass API 0.7.62.5 1bd436f1", "osm3s": {"timestamp_osm_base": "2025-04-18T11:23:41Z", "copyright": "The data included in this document is from www.openstreetmap.org. The data is made available under ODbL."}, "elements": [{"type": "node", "id": 1701687599, "lat": 38.7844398, "lon": -90.535628}, {"type": "node", "id": 1701687600, "lat": 38.7843356, "lon": -90.535843}, {"type": "node", "id": 1701687601, "lat": 38.7840082, "lon": -90.5359087}, {"type": "node", "id": 1701687604, "lat": 38.7816241, "lon": -90.5340019}, {"type": "node", "id": 1701687607, "lat": 38.7828568, "lon": -90.5349353}, {"type": "node", "id": 1701687618, "lat": 38.7823058, "lon": -90.5350302}, {"type": "node", "id": 1701687632, "lat": 38.784566, "lon": -90.5357286}, {"type": "node", "id": 1701687634, "lat": 38.7817778, "lon": -90.5337339}, {"type": "node", "id": 1701687652, "lat": 38.7826559, "lon": -90.5353263}, {"type": "node", "id": 1701687670, "lat": 38.7851879, "lon": -90.5344451}, {"type": "node", "id": 1701687677, "lat": 38.7841188, "lon": -90.5356933}, {"type": "node", "id": 1701687679, "lat": 38.7848667, "lon": -90.534189}, {"type": "node", "id": 1701687684, "lat": 38.7819453, "lon": -90.5342748}, {"type": "node", "id": 1701687686, "lat": 38.7817655, "lon": -90.5346288}, {"type": "node", "id": 1701687688, "lat": 38.7822761, "lon": -90.5350661}, {"type": "node", "id": 2578603384, "lat": 38.7840081, "lon": -90.5357106, "tags": {"addr:city": "Saint Charles", "addr:housenumber": "2079", "addr:postcode": "63303", "addr:state": "MO", "addr:street": "Zumbehl Road", "amenity": "fast_food", "brand": "Panera Bread", "brand:wikidata": "Q7130852", "cuisine": "sandwich;bakery", "name": "Panera Bread", "opening_hours": "06:00-21:00", "phone": "+1 636-946-1701", "short_name": "Panera", "takeaway": "yes", "website": "https://locations.panerabread.com/mo/st-charles/2079-zumbehl-road.html"}}, {"type": "node", "id": 5633604527, "lat": 38.7835335, "lon": -90.5353216, "tags": {"addr:city": "Saint Charles", "addr:housenumber": "2055", "addr:postcode": "63303", "addr:street": "Zumbehl Road"}}, {"type": "node", "id": 5633604528, "lat": 38.783241, "lon": -90.5350814, "tags": {"addr:city": "Saint Charles", "addr:housenumber": "2045", "addr:postcode": "63303", "addr:street": "Zumbehl Road"}}, {"type": "node", "id": 5633604529, "lat": 38.783183, "lon": -90.5350213, "tags": {"addr:city": "Saint Charles", "addr:housenumber": "2041", "addr:postcode": "63303", "addr:street": "Zumbehl Road"}}, {"type": "node", "id": 5633604530, "lat": 38.7845142, "lon": -90.5350338, "tags": {"addr:city": "Saint Charles", "addr:housenumber": "2125", "addr:postcode": "63303", "addr:street": "Zumbehl Road", "name": "Fantasy Shop", "shop": "vacant"}}, {"type": "node", "id": 5633604532, "lat": 38.783611, "lon": -90.5353711, "tags": {"addr:city": "Saint Charles", "addr:housenumber": "2057", "addr:postcode": "63303", "addr:street": "Zumbehl Road"}}, {"type": "node", "id": 5633604533, "lat": 38.7831201, "lon": -90.5349704, "tags": {"addr:city": "Saint Charles", "addr:housenumber": "2039", "addr:postcode": "63303", "addr:street": "Zumbehl Road"}}, {"type": "node", "id": 5633604536, "lat": 38.7838062, "lon": -90.5355317, "tags": {"addr:city": "Saint Charles", "addr:housenumber": "2071", "addr:postcode": "63303", "addr:street": "Zumbehl Road", "amenity": "dentist", "healthcare": "dentist", "name": "Key West Dental"}}, {"type": "node", "id": 5633604537, "lat": 38.783387, "lon": -90.5351959, "tags": {"addr:city": "Saint Charles", "addr:housenumber": "2051", "addr:postcode": "63303", "addr:street": "Zumbehl Road"}}, {"type": "node", "id": 5633604539, "lat": 38.7839206, "lon": -90.5356445, "tags": {"addr:city": "Saint Charles", "addr:housenumber": "2075", "addr:postcode": "63303", "addr:street": "Zumbehl Road", "alt_name": "Sally Beauty Supply", "brand": "Sally Beauty", "brand:wikidata": "Q7405065", "name": "Sally Beauty", "shop": "hairdresser_supply"}}, {"type": "node", "id": 5633604540, "lat": 38.7838443, "lon": -90.5355805, "tags": {"addr:city": "Saint Charles", "addr:housenumber": "2073", "addr:postcode": "63303", "addr:street": "Zumbehl Road", "brand": "Sport Clips", "brand:wikidata": "Q7579310", "name": "Sport Clips", "shop": "hairdresser"}}, {"type": "node", "id": 5633604541, "lat": 38.784333, "lon": -90.5353873, "tags": {"addr:city": "Saint Charles", "addr:housenumber": "2107", "addr:postcode": "63303", "addr:street": "Zumbehl Road"}}, {"type": "node", "id": 5633604542, "lat": 38.784215, "lon": -90.5356461, "tags": {"addr:city": "Saint Charles", "addr:housenumber": "2101", "addr:postcode": "63303", "addr:street": "Zumbehl Road", "amenity": "fast_food", "brand": "Smoothie King", "brand:wikidata": "Q5491421", "cuisine": "juice", "name": "Smoothie King", "takeaway": "yes"}}, {"type": "node", "id": 5633604544, "lat": 38.7842579, "lon": -90.5355639, "tags": {"addr:city": "Saint Charles", "addr:housenumber": "2103", "addr:postcode": "63303", "addr:street": "Zumbehl Road", "amenity": "prep_school", "brand": "Kumon", "brand:wikidata": "Q142054", "name": "Kumon"}}, {"type": "node", "id": 5633604546, "lat": 38.784407, "lon": -90.5352458, "tags": {"addr:city": "Saint Charles", "addr:housenumber": "2109", "addr:postcode": "63303", "addr:state": "MO", "addr:street": "Zumbehl Road", "brand": "Petco", "brand:wikidata": "Q7171798", "name": "Petco", "opening_hours": "Mo-Sa 09:00-20:00; Su 10:00-19:00", "phone": "+1 636-724-6338", "ref": "1651", "shop": "pet", "website": "https://stores.petco.com/mo/stcharles/pet-supplies-stcharles-mo-1651.html"}}, {"type": "node", "id": 5633604548, "lat": 38.7846287, "lon": -90.5348085, "tags": {"addr:city": "Saint Charles", "addr:housenumber": "2133", "addr:postcode": "63303", "addr:street": "Zumbehl Road", "disused:shop": "clothes", "name": "Dress Barn"}}, {"type": "node", "id": 5633604550, "lat": 38.7842865, "lon": -90.5354863, "tags": {"addr:city": "Saint Charles", "addr:housenumber": "2105", "addr:postcode": "63303", "addr:street": "Zumbehl Road", "name": "Cary O'Brien's Design & Color Spa", "shop": "beauty"}}, {"type": "node", "id": 5633604551, "lat": 38.7848113, "lon": -90.5344512, "tags": {"addr:city": "Saint Charles", "addr:housenumber": "2155", "addr:postcode": "63303", "addr:state": "MO", "addr:street": "Zumbehl Road", "brand": "Michaels", "brand:wikidata": "Q6835667", "name": "Michaels", "note": "Home Furnishings", "opening_hours": "Mo-Sa 09:00-21:00; Su 10:00-19:00", "phone": "+1 636-947-6379", "ref": "4205", "shop": "craft", "website": "https://locations.michaels.com/mo/st.-charles/4205"}}, {"type": "node", "id": 5633604554, "lat": 38.7829817, "lon": -90.534858, "tags": {"addr:city": "Saint Charles", "addr:housenumber": "2031", "addr:postcode": "63303", "addr:street": "Zumbehl Road"}}, {"type": "node", "id": 5633604555, "lat": 38.7836932, "lon": -90.5354259, "tags": {"addr:city": "Saint Charles", "addr:housenumber": "2061", "addr:postcode": "63303", "addr:street": "Zumbehl Road", "amenity": "restaurant", "cuisine": "italian_pizza;pasta", "name": "Frateli", "name:en": "Fratelli's", "website": "https://www.fratellisristorante.com/"}}, {"type": "node", "id": 5633604569, "lat": 38.783437, "lon": -90.5352507, "tags": {"addr:city": "Saint Charles", "addr:housenumber": "2053", "addr:postcode": "63303", "addr:street": "Zumbehl Road"}}, {"type": "node", "id": 5633604571, "lat": 38.7830679, "lon": -90.5349284, "tags": {"addr:city": "Saint Charles", "addr:housenumber": "2035", "addr:postcode": "63303", "addr:street": "Zumbehl Road"}}, {"type": "node", "id": 5633604574, "lat": 38.7828935, "lon": -90.5347796, "tags": {"addr:city": "Saint Charles", "addr:housenumber": "2029", "addr:postcode": "63303", "addr:street": "Zumbehl Road"}}, {"type": "node", "id": 5633604580, "lat": 38.7820197, "lon": -90.5340584, "tags": {"addr:city": "Saint Charles", "addr:housenumber": "2019", "addr:postcode": "63303", "addr:street": "Zumbehl Road"}}, {"type": "node", "id": 5633604582, "lat": 38.7819765, "lon": -90.5340252, "tags": {"addr:city": "Saint Charles", "addr:housenumber": "2017", "addr:postcode": "63303", "addr:street": "Zumbehl Road"}}, {"type": "node", "id": 5633604586, "lat": 38.7822218, "lon": -90.5342107, "tags": {"addr:city": "Saint Charles", "addr:housenumber": "2021", "addr:postcode": "63303", "addr:street": "Zumbehl Road"}}, {"type": "node", "id": 5633604595, "lat": 38.7833334, "lon": -90.5351319, "tags": {"addr:city": "Saint Charles", "addr:housenumber": "2047", "addr:postcode": "63303", "addr:state": "MO", "addr:street": "Zumbehl Road", "brand": "Spectrum", "brand:wikidata": "Q7805197", "name": "Spectrum", "opening_hours": "Mo-Sa 10:00-20:00, Su 12:00-17:00", "phone": "(888) 406-7063", "shop": "telecommunication", "website": "https://www.spectrum.com/locations/mo/st-charles/2047-zumbehl-rd"}}, {"type": "node", "id": 5633604596, "lat": 38.7837496, "lon": -90.5354936, "tags": {"addr:city": "Saint Charles", "addr:housenumber": "2067", "addr:postcode": "63303", "addr:street": "Zumbehl Road", "healthcare": "alternative", "healthcare:speciality": "chiropractic", "name": "Logan Chiropractic Health Center"}}, {"type": "node", "id": 6506816346, "lat": 38.7846322, "lon": -90.5386292}, {"type": "node", "id": 6506816347, "lat": 38.7847838, "lon": -90.5386236}, {"type": "node", "id": 6506816348, "lat": 38.7849062, "lon": -90.5383023}, {"type": "node", "id": 6506816349, "lat": 38.7848619, "lon": -90.5380457}, {"type": "node", "id": 6506816350, "lat": 38.7849807, "lon": -90.538005}, {"type": "node", "id": 6506816351, "lat": 38.7849531, "lon": -90.5378776}, {"type": "node", "id": 6506816352, "lat": 38.7848511, "lon": -90.537913}, {"type": "node", "id": 6506816353, "lat": 38.7847793, "lon": -90.5375874}, {"type": "node", "id": 6506816354, "lat": 38.78468, "lon": -90.5376228}, {"type": "node", "id": 6506816355, "lat": 38.7846575, "lon": -90.5375328}, {"type": "node", "id": 6506816356, "lat": 38.7845254, "lon": -90.5379635}, {"type": "node", "id": 6506816357, "lat": 38.7846403, "lon": -90.538401}, {"type": "node", "id": 9662351017, "lat": 38.7831623, "lon": -90.5350687, "tags": {"addr:housenumber": "2041", "addr:postcode": "63303", "addr:street": "Zumbehl Road", "amenity": "restaurant", "cuisine": "pizza;sandwich", "name": "PICKLEMAN'S", "opening_hours": "Mo-Su 10:00-22:00", "website": "https://www.picklemans.com/"}}, {"type": "node", "id": 9662382117, "lat": 38.7824792, "lon": -90.5344313, "tags": {"addr:city": "Saint Charles", "addr:housenumber": "2025", "addr:postcode": "63303", "addr:state": "MO", "addr:street": "Zumbehl Road", "amenity": "post_office", "brand": "The UPS Store", "brand:wikidata": "Q7771029", "name": "The UPS store", "shop": "copyshop", "short_name": "UPS", "website": "https://locations.theupsstore.com/mo/saint-charles/2025-zumbehl-rd?utm_source=Yext&utm_medium=organic&utm_campaign=Listings"}}, {"type": "node", "id": 9663796717, "lat": 38.7835496, "lon": -90.5352897, "tags": {"addr:housenumber": "2055", "addr:postcode": "63303", "addr:street": "Zumbehl Road", "name": "Chocolate Company", "name:en": "Chocolate Chocolate company", "shop": "chocolate"}}, {"type": "node", "id": 9742414964, "lat": 38.7845769, "lon": -90.5379407}, {"type": "node", "id": 9742414965, "lat": 38.7844919, "lon": -90.5376002}, {"type": "node", "id": 9747577542, "lat": 38.7802004, "lon": -90.5359108}, {"type": "node", "id": 9747577543, "lat": 38.7801551, "lon": -90.5358989}, {"type": "node", "id": 9747577544, "lat": 38.7801638, "lon": -90.5358428}, {"type": "node", "id": 9747577545, "lat": 38.7802091, "lon": -90.535852}, {"type": "node", "id": 9769926657, "lat": 38.7840909, "lon": -90.5394463}, {"type": "node", "id": 9769926658, "lat": 38.7840593, "lon": -90.5395443}, {"type": "node", "id": 9769926659, "lat": 38.7842443, "lon": -90.5396529}, {"type": "node", "id": 9769926660, "lat": 38.7842776, "lon": -90.5395471, "tags": {"amenity": "bicycle_parking", "bicycle_parking": "building"}}, {"type": "node", "id": 9770035630, "lat": 38.7844639, "lon": -90.5381042, "tags": {"amenity": "bicycle_parking", "bicycle_parking": "building"}}, {"type": "node", "id": 9770035631, "lat": 38.7844378, "lon": -90.537954}, {"type": "node", "id": 9770035632, "lat": 38.7842359, "lon": -90.5380103}, {"type": "node", "id": 9770035633, "lat": 38.7842632, "lon": -90.5381647}, {"type": "node", "id": 9770035634, "lat": 38.7782151, "lon": -90.5348072}, {"type": "node", "id": 9770035635, "lat": 38.778228, "lon": -90.5347392}, {"type": "node", "id": 9770035636, "lat": 38.7781837, "lon": -90.5347254}, {"type": "node", "id": 9770035637, "lat": 38.7781713, "lon": -90.5347939}, {"type": "node", "id": 12312439227, "lat": 38.7845255, "lon": -90.537735}, {"type": "node", "id": 12312439233, "lat": 38.784453, "lon": -90.5380413}, {"type": "node", "id": 12312439235, "lat": 38.7849673, "lon": -90.5379433}, {"type": "way", "id": 157936812, "nodes": [1701687634, 1701687677, 1701687601, 1701687607, 1701687652, 1701687618, 1701687688, 1701687686, 1701687684, 1701687604, 1701687634], "tags": {"building": "yes"}}, {"type": "way", "id": 157936817, "nodes": [1701687670, 1701687632, 1701687599, 1701687600, 1701687677, 1701687679, 1701687670], "tags": {"building": "yes"}}, {"type": "way", "id": 693069037, "nodes": [6506816346, 6506816347, 6506816348, 6506816349, 6506816350, 12312439235, 6506816351, 6506816352, 6506816353, 6506816354, 6506816355, 9742414965, 12312439227, 9742414964, 6506816356, 6506816357, 6506816346], "tags": {"building": "yes", "golf": "clubhouse"}}, {"type": "way", "id": 1060898725, "nodes": [9747577542, 9747577543, 9747577544, 9747577545, 9747577542], "tags": {"building": "yes"}}, {"type": "way", "id": 1063639964, "nodes": [9769926657, 9769926658, 9769926659, 9769926660, 9769926657], "tags": {"building": "yes"}}, {"type": "way", "id": 1063662395, "nodes": [9770035630, 12312439233, 9770035631, 9770035632, 9770035633, 9770035630], "tags": {"building": "yes"}}, {"type": "way", "id": 1063662396, "nodes": [9770035634, 9770035635, 9770035636, 9770035637, 9770035634], "tags": {"building": "yes"}}]}