{"version": 0.6, "generator": "Overpass API 0.7.62.5 1bd436f1", "osm3s": {"timestamp_osm_base": "2025-04-18T16:26:17Z", "copyright": "The data included in this document is from www.openstreetmap.org. The data is made available under ODbL."}, "elements": [{"type": "node", "id": 111188335, "lat": 38.7777545, "lon": -90.5204027}, {"type": "node", "id": 111188337, "lat": 38.7758021, "lon": -90.5188892}, {"type": "node", "id": 111206743, "lat": 38.7761047, "lon": -90.5203617}, {"type": "node", "id": 111206747, "lat": 38.7754621, "lon": -90.5212131}, {"type": "node", "id": 111206749, "lat": 38.774761, "lon": -90.5226851}, {"type": "node", "id": 111211308, "lat": 38.7764846, "lon": -90.5152419}, {"type": "node", "id": 111214298, "lat": 38.7756911, "lon": -90.519401}, {"type": "node", "id": 111214301, "lat": 38.7754834, "lon": -90.5198521}, {"type": "node", "id": 111214305, "lat": 38.7753369, "lon": -90.5202062}, {"type": "node", "id": 111214307, "lat": 38.7741686, "lon": -90.5222401}, {"type": "node", "id": 111214310, "lat": 38.7737828, "lon": -90.5229969}, {"type": "node", "id": 111214317, "lat": 38.7736333, "lon": -90.5233029}, {"type": "node", "id": 111233867, "lat": 38.7767444, "lon": -90.5208435}, {"type": "node", "id": 111233870, "lat": 38.7764472, "lon": -90.5214985}, {"type": "node", "id": 111233871, "lat": 38.7753366, "lon": -90.5231217}, {"type": "node", "id": 111242278, "lat": 38.7802751, "lon": -90.5220237}, {"type": "node", "id": 111242283, "lat": 38.779525, "lon": -90.5212985}, {"type": "node", "id": 111249612, "lat": 38.7792793, "lon": -90.5231955}, {"type": "node", "id": 111256913, "lat": 38.7787811, "lon": -90.5221366}, {"type": "node", "id": 111256945, "lat": 38.7794636, "lon": -90.5234927}, {"type": "node", "id": 111256953, "lat": 38.7778837, "lon": -90.5217273}, {"type": "node", "id": 111256980, "lat": 38.7772721, "lon": -90.5212583}, {"type": "node", "id": 111308081, "lat": 38.7755831, "lon": -90.517324}, {"type": "node", "id": 111310989, "lat": 38.7759224, "lon": -90.5182246}, {"type": "node", "id": 111310992, "lat": 38.7760422, "lon": -90.5180644}, {"type": "node", "id": 111329318, "lat": 38.7780288, "lon": -90.5198559}, {"type": "node", "id": 1244167035, "lat": 38.7784431, "lon": -90.5218453}, {"type": "node", "id": 1244167053, "lat": 38.7759901, "lon": -90.5218289}, {"type": "node", "id": 1244167059, "lat": 38.7763681, "lon": -90.518082}, {"type": "node", "id": 1244167064, "lat": 38.7781796, "lon": -90.5217594}, {"type": "node", "id": 1244167072, "lat": 38.7749941, "lon": -90.5205058}, {"type": "node", "id": 1244167100, "lat": 38.7780249, "lon": -90.5197478, "tags": {"highway": "turning_circle"}}, {"type": "node", "id": 1244167102, "lat": 38.7783594, "lon": -90.5218131}, {"type": "node", "id": 1244167106, "lat": 38.7759395, "lon": -90.5207643}, {"type": "node", "id": 1244167123, "lat": 38.7762393, "lon": -90.5180179}, {"type": "node", "id": 1244167125, "lat": 38.7773705, "lon": -90.5188772, "tags": {"highway": "turning_circle"}}, {"type": "node", "id": 2543570239, "lat": 38.7797916, "lon": -90.5170754}, {"type": "node", "id": 2543570240, "lat": 38.7791449, "lon": -90.5181815}, {"type": "node", "id": 2543570241, "lat": 38.7791335, "lon": -90.5183998}, {"type": "node", "id": 2543570242, "lat": 38.7790314, "lon": -90.5185599}, {"type": "node", "id": 2543570243, "lat": 38.7776189, "lon": -90.5172282}, {"type": "node", "id": 2543570244, "lat": 38.7776018, "lon": -90.5169881}, {"type": "node", "id": 2543570245, "lat": 38.7788442, "lon": -90.5164423}, {"type": "node", "id": 2543570246, "lat": 38.7790938, "lon": -90.5160203}, {"type": "node", "id": 2543570247, "lat": 38.7789564, "lon": -90.5184892}, {"type": "node", "id": 2543570248, "lat": 38.7785549, "lon": -90.5191712}, {"type": "node", "id": 2543570249, "lat": 38.7784528, "lon": -90.5190911}, {"type": "node", "id": 2543570250, "lat": 38.7785038, "lon": -90.5189674}, {"type": "node", "id": 2543570251, "lat": 38.7772898, "lon": -90.5178468}, {"type": "node", "id": 2543614241, "lat": 38.7760589, "lon": -90.5162917}, {"type": "node", "id": 2543614251, "lat": 38.7768715, "lon": -90.5215403}, {"type": "node", "id": 2543614253, "lat": 38.7769083, "lon": -90.521425}, {"type": "node", "id": 2543614257, "lat": 38.777512, "lon": -90.5208221}, {"type": "node", "id": 2543614259, "lat": 38.777774, "lon": -90.5222369}, {"type": "node", "id": 2543614261, "lat": 38.7777781, "lon": -90.5220588}, {"type": "node", "id": 2543614263, "lat": 38.7778365, "lon": -90.5217001}, {"type": "node", "id": 2543614265, "lat": 38.7778679, "lon": -90.5220641}, {"type": "node", "id": 2543614267, "lat": 38.7779292, "lon": -90.5217473}, {"type": "node", "id": 2543614269, "lat": 38.7781374, "lon": -90.5223679}, {"type": "node", "id": 2543614271, "lat": 38.7781538, "lon": -90.5221793}, {"type": "node", "id": 3581675308, "lat": 38.7790247, "lon": -90.5226544}, {"type": "node", "id": 3581675565, "lat": 38.7792977, "lon": -90.5216968}, {"type": "node", "id": 3581675566, "lat": 38.779653, "lon": -90.5220306}, {"type": "node", "id": 3581675567, "lat": 38.7798804, "lon": -90.5216324}, {"type": "node", "id": 3581675594, "lat": 38.7791873, "lon": -90.5229999}, {"type": "node", "id": 3581675698, "lat": 38.7771065, "lon": -90.5216021}, {"type": "node", "id": 3581675703, "lat": 38.7779081, "lon": -90.521738}, {"type": "node", "id": 3583958238, "lat": 38.7744738, "lon": -90.5184702}, {"type": "node", "id": 3583958240, "lat": 38.7747044, "lon": -90.5180561}, {"type": "node", "id": 3583958241, "lat": 38.7748245, "lon": -90.5178951}, {"type": "node", "id": 3583958243, "lat": 38.7749033, "lon": -90.5178209}, {"type": "node", "id": 3583958245, "lat": 38.7749736, "lon": -90.5177645}, {"type": "node", "id": 3583958249, "lat": 38.7751977, "lon": -90.5176052}, {"type": "node", "id": 3583958252, "lat": 38.7753736, "lon": -90.5174728}, {"type": "node", "id": 5628790806, "lat": 38.7777529, "lon": -90.5175321, "tags": {"addr:city": "Saint Charles", "addr:housenumber": "2661", "addr:postcode": "63303", "addr:street": "Veterans Memorial Parkway"}}, {"type": "node", "id": 5628791472, "lat": 38.7786943, "lon": -90.5183136, "tags": {"addr:city": "Saint Charles", "addr:housenumber": "2669", "addr:postcode": "63303", "addr:street": "Veterans Memorial Parkway"}}, {"type": "node", "id": 5628791476, "lat": 38.7780201, "lon": -90.5176956, "tags": {"addr:city": "Saint Charles", "addr:housenumber": "2663", "addr:postcode": "63303", "addr:street": "Veterans Memorial Parkway"}}, {"type": "node", "id": 5628791479, "lat": 38.7783136, "lon": -90.5179841, "tags": {"addr:city": "Saint Charles", "addr:housenumber": "2665", "addr:postcode": "63303", "addr:street": "Veterans Memorial Parkway"}}, {"type": "node", "id": 5628791482, "lat": 38.7785175, "lon": -90.5181838, "tags": {"addr:city": "Saint Charles", "addr:housenumber": "2667", "addr:postcode": "63303", "addr:street": "Veterans Memorial Parkway"}}, {"type": "node", "id": 5628792243, "lat": 38.7794028, "lon": -90.5196858, "tags": {"addr:city": "Saint Charles", "addr:housenumber": "2701", "addr:postcode": "63303", "addr:street": "Veterans Memorial Parkway"}}, {"type": "node", "id": 5628792259, "lat": 38.779577, "lon": -90.5187206, "tags": {"addr:city": "Saint Charles", "addr:housenumber": "2705", "addr:postcode": "63303", "addr:street": "Veterans Memorial Parkway"}}, {"type": "node", "id": 5635611711, "lat": 38.7751223, "lon": -90.5180937, "tags": {"addr:city": "Saint Charles", "addr:housenumber": "1505", "addr:postcode": "63303", "addr:street": "South Old Highway 94", "addr:unit": "402"}}, {"type": "node", "id": 5635612222, "lat": 38.7751939, "lon": -90.5180323, "tags": {"addr:city": "Saint Charles", "addr:housenumber": "1505", "addr:postcode": "63303", "addr:street": "South Old Highway 94", "addr:unit": "304"}}, {"type": "node", "id": 5635612224, "lat": 38.7751322, "lon": -90.5179283, "tags": {"addr:city": "Saint Charles", "addr:housenumber": "1505", "addr:postcode": "63303", "addr:street": "South Old Highway 94", "addr:unit": "203"}}, {"type": "node", "id": 5635612226, "lat": 38.7752332, "lon": -90.5178507, "tags": {"addr:city": "Saint Charles", "addr:housenumber": "1505", "addr:postcode": "63303", "addr:street": "South Old Highway 94", "addr:unit": "205"}}, {"type": "node", "id": 5635612227, "lat": 38.7750723, "lon": -90.5179684, "tags": {"addr:city": "Saint Charles", "addr:housenumber": "1505", "addr:postcode": "63303", "addr:street": "South Old Highway 94", "addr:unit": "401"}}, {"type": "node", "id": 5635612229, "lat": 38.7753117, "lon": -90.5177868, "tags": {"addr:city": "Saint Charles", "addr:housenumber": "1505", "addr:postcode": "63303", "addr:street": "South Old Highway 94", "addr:unit": "407"}}, {"type": "node", "id": 5635612230, "lat": 38.7752891, "lon": -90.5179534, "tags": {"addr:city": "Saint Charles", "addr:housenumber": "1505", "addr:postcode": "63303", "addr:street": "South Old Highway 94", "addr:unit": "306"}}, {"type": "node", "id": 5635612231, "lat": 38.7753617, "lon": -90.5178933, "tags": {"addr:city": "Saint Charles", "addr:housenumber": "1505", "addr:postcode": "63303", "addr:street": "South Old Highway 94", "addr:unit": "408"}}, {"type": "node", "id": 7121609529, "lat": 38.7771235, "lon": -90.5199117}, {"type": "node", "id": 7121609535, "lat": 38.7760744, "lon": -90.5191006}, {"type": "node", "id": 7121609540, "lat": 38.7758687, "lon": -90.5189409}, {"type": "node", "id": 7907339132, "lat": 38.7765894, "lon": -90.5211851}, {"type": "node", "id": 7907339133, "lat": 38.7759661, "lon": -90.5206996}, {"type": "node", "id": 7907339134, "lat": 38.7756361, "lon": -90.5195204}, {"type": "node", "id": 7907339139, "lat": 38.7758616, "lon": -90.5185468}, {"type": "node", "id": 7907339149, "lat": 38.7762784, "lon": -90.5180317}, {"type": "node", "id": 7907589382, "lat": 38.7779617, "lon": -90.5200464}, {"type": "node", "id": 7907589384, "lat": 38.7771746, "lon": -90.5199414}, {"type": "node", "id": 7907615085, "lat": 38.7779203, "lon": -90.5201294}, {"type": "node", "id": 7907615088, "lat": 38.7779129, "lon": -90.5201386}, {"type": "node", "id": 8089947173, "lat": 38.7753743, "lon": -90.5201158}, {"type": "node", "id": 8099125628, "lat": 38.7774786, "lon": -90.5208828}, {"type": "node", "id": 8510347302, "lat": 38.7766878, "lon": -90.5183288}, {"type": "node", "id": 8628066792, "lat": 38.7763574, "lon": -90.5155557}, {"type": "node", "id": 9350999583, "lat": 38.7759116, "lon": -90.5182598}, {"type": "node", "id": 9350999584, "lat": 38.7759372, "lon": -90.5181944}, {"type": "node", "id": 9501603415, "lat": 38.775063, "lon": -90.520758}, {"type": "node", "id": 9501603416, "lat": 38.775137, "lon": -90.520819}, {"type": "node", "id": 9501603417, "lat": 38.774986, "lon": -90.520913}, {"type": "node", "id": 9501603420, "lat": 38.77506, "lon": -90.520974}, {"type": "node", "id": 12106567048, "lat": 38.7793693, "lon": -90.5233406, "tags": {"crossing": "unmarked", "crossing:markings": "no", "highway": "crossing"}}, {"type": "node", "id": 12106567060, "lat": 38.7802167, "lon": -90.5219658, "tags": {"crossing": "unmarked", "crossing:markings": "no", "highway": "crossing"}}, {"type": "way", "id": 12267465, "nodes": [111188335, 7907589384, 7121609529, 7121609535, 7121609540, 111188337], "tags": {"highway": "residential", "name": "Meyer Drive", "tiger:cfcc": "A41", "tiger:county": "St. Charles, MO", "tiger:name_base": "Meyer", "tiger:name_type": "Dr", "tiger:reviewed": "no", "tiger:zip_left": "63303", "tiger:zip_right": "63303"}}, {"type": "way", "id": 12269288, "nodes": [111206743, 7907339133, 1244167106, 111206747, 111206749], "tags": {"highway": "residential", "name": "Lynndale Drive", "tiger:cfcc": "A41", "tiger:county": "St. Charles, MO", "tiger:name_base": "Lynndale", "tiger:name_type": "Dr", "tiger:reviewed": "no", "tiger:zip_left": "63303", "tiger:zip_right": "63303"}}, {"type": "way", "id": 12269866, "nodes": [111188337, 111214298, 7907339134, 111214301, 8089947173, 111214305, 1244167072, 111214307, 111214310, 111214317], "tags": {"highway": "residential", "name": "Dartmouth Drive", "tiger:cfcc": "A41", "tiger:county": "St. Charles, MO", "tiger:name_base": "Dartmouth", "tiger:name_type": "Dr", "tiger:reviewed": "no", "tiger:zip_left": "63303", "tiger:zip_right": "63303"}}, {"type": "way", "id": 12271923, "nodes": [111233867, 7907339132, 111233870, 1244167053, 111233871], "tags": {"highway": "residential", "name": "Rutgers Lane", "tiger:cfcc": "A41", "tiger:county": "St. Charles, MO", "tiger:name_base": "Rutgers", "tiger:name_type": "Ln", "tiger:reviewed": "no", "tiger:zip_left": "63303", "tiger:zip_right": "63303"}}, {"type": "way", "id": 12272704, "nodes": [111242278, 12106567060, 3581675567, 111242283, 3581675565, 3581675566, 3581675567], "tags": {"highway": "residential", "name": "Hawks Nest Court", "name_1": "Hawks Nest Plaza", "tiger:cfcc": "A41", "tiger:county": "St. Charles, MO", "tiger:name_base": "Hawks Nest", "tiger:name_base_1": "Hawks Nest", "tiger:name_type": "Ct", "tiger:name_type_1": "Plz", "tiger:reviewed": "no", "tiger:zip_left": "63303", "tiger:zip_right": "63303"}}, {"type": "way", "id": 12273928, "nodes": [111256913, 3581675308, 3581675594, 111249612, 12106567048, 111256945], "tags": {"highway": "residential", "name": "Falcons Way", "tiger:cfcc": "A41", "tiger:county": "St. Charles, MO", "tiger:name_base": "Falcons", "tiger:name_type": "Way", "tiger:reviewed": "no", "tiger:zip_left": "63303", "tiger:zip_right": "63303"}}, {"type": "way", "id": 12273933, "nodes": [1244167035, 1244167102, 1244167064, 2543614267, 3581675703, 111256953, 2543614263, 111256980, 111233867, 111206743, 111214301], "tags": {"highway": "residential", "name": "Falcons Way", "tiger:cfcc": "A41", "tiger:county": "St. Charles, MO", "tiger:name_base": "Falcons", "tiger:name_type": "Way", "tiger:reviewed": "no", "tiger:zip_left": "63303", "tiger:zip_right": "63303"}}, {"type": "way", "id": 12280182, "nodes": [111211308, 8628066792, 2543614241, 111308081], "tags": {"highway": "residential", "name": "Park Drive", "tiger:cfcc": "A41", "tiger:county": "St. Charles, MO", "tiger:name_base": "Park", "tiger:name_type": "Dr", "tiger:reviewed": "no", "tiger:zip_left": "63303"}}, {"type": "way", "id": 12280632, "nodes": [111188337, 7907339139, 9350999583, 111310989, 9350999584, 111310992, 1244167123, 7907339149, 1244167059, 8510347302, 1244167125], "tags": {"highway": "residential", "name": "Dartmouth Court", "tiger:cfcc": "A41", "tiger:county": "St. Charles, MO", "tiger:name_base": "Dartmouth", "tiger:name_type": "Ct", "tiger:reviewed": "no", "tiger:zip_left": "63303", "tiger:zip_right": "63303"}}, {"type": "way", "id": 12283085, "nodes": [3581675698, 111256980, 8099125628, 2543614257, 111188335, 7907615088, 7907615085, 7907589382, 111329318, 1244167100], "tags": {"highway": "residential", "name": "Alberta Drive", "tiger:cfcc": "A41", "tiger:county": "St. Charles, MO", "tiger:name_base": "Alberta", "tiger:name_type": "Dr", "tiger:reviewed": "no", "tiger:zip_left": "63303", "tiger:zip_right": "63303"}}, {"type": "way", "id": 247477405, "nodes": [2543570239, 2543570240, 2543570241, 2543570242, 2543570247, 2543570243, 2543570244, 2543570245, 2543570246, 2543570239], "tags": {"amenity": "parking", "parking": "surface"}}, {"type": "way", "id": 247477407, "nodes": [2543570247, 2543570248, 2543570249, 2543570250, 2543570251, 2543570243, 2543570247], "tags": {"building": "commercial"}}, {"type": "way", "id": 247483752, "nodes": [2543614251, 2543614253, 2543614261, 2543614263, 111256953, 3581675703, 2543614267, 2543614265, 2543614271, 2543614269, 2543614259, 2543614251], "tags": {"amenity": "parking", "parking": "surface"}}, {"type": "way", "id": 352638467, "nodes": [3583958252, 3583958249, 3583958245, 3583958243, 3583958241, 3583958240, 3583958238], "tags": {"highway": "service", "name": "Park Drive", "service": "parking_aisle"}}, {"type": "way", "id": 1030794818, "nodes": [9501603420, 9501603417, 9501603415, 9501603416, 9501603420], "tags": {"building": "yes", "source": "microsoft/BuildingFootprints"}}]}