{"version": 0.6, "generator": "Overpass API 0.7.62.5 1bd436f1", "osm3s": {"timestamp_osm_base": "2025-04-18T11:19:37Z", "copyright": "The data included in this document is from www.openstreetmap.org. The data is made available under ODbL."}, "elements": [{"type": "node", "id": 1701687599, "lat": 38.7844398, "lon": -90.535628}, {"type": "node", "id": 1701687600, "lat": 38.7843356, "lon": -90.535843}, {"type": "node", "id": 1701687601, "lat": 38.7840082, "lon": -90.5359087}, {"type": "node", "id": 1701687604, "lat": 38.7816241, "lon": -90.5340019}, {"type": "node", "id": 1701687607, "lat": 38.7828568, "lon": -90.5349353}, {"type": "node", "id": 1701687618, "lat": 38.7823058, "lon": -90.5350302}, {"type": "node", "id": 1701687623, "lat": 38.7816002, "lon": -90.5335844}, {"type": "node", "id": 1701687632, "lat": 38.784566, "lon": -90.5357286}, {"type": "node", "id": 1701687634, "lat": 38.7817778, "lon": -90.5337339}, {"type": "node", "id": 1701687648, "lat": 38.7819024, "lon": -90.5329934}, {"type": "node", "id": 1701687652, "lat": 38.7826559, "lon": -90.5353263}, {"type": "node", "id": 1701687668, "lat": 38.7820801, "lon": -90.5331429}, {"type": "node", "id": 1701687670, "lat": 38.7851879, "lon": -90.5344451}, {"type": "node", "id": 1701687677, "lat": 38.7841188, "lon": -90.5356933}, {"type": "node", "id": 1701687679, "lat": 38.7848667, "lon": -90.534189}, {"type": "node", "id": 1701687684, "lat": 38.7819453, "lon": -90.5342748}, {"type": "node", "id": 1701687686, "lat": 38.7817655, "lon": -90.5346288}, {"type": "node", "id": 1701687688, "lat": 38.7822761, "lon": -90.5350661}, {"type": "node", "id": 1701697593, "lat": 38.7824309, "lon": -90.5289375}, {"type": "node", "id": 1701697648, "lat": 38.7829726, "lon": -90.5284749}, {"type": "node", "id": 1701697683, "lat": 38.7823748, "lon": -90.5288294}, {"type": "node", "id": 1701697737, "lat": 38.7827596, "lon": -90.5280645}, {"type": "node", "id": 1701697768, "lat": 38.7828168, "lon": -90.5280157}, {"type": "node", "id": 1701697799, "lat": 38.7817326, "lon": -90.5284}, {"type": "node", "id": 1701697808, "lat": 38.7821993, "lon": -90.5289791}, {"type": "node", "id": 2543567798, "lat": 38.7813714, "lon": -90.5306956}, {"type": "node", "id": 2543567799, "lat": 38.7804732, "lon": -90.5299686}, {"type": "node", "id": 2543567800, "lat": 38.78055, "lon": -90.5298084}, {"type": "node", "id": 2543567801, "lat": 38.7804491, "lon": -90.5297159}, {"type": "node", "id": 2543567802, "lat": 38.7806461, "lon": -90.5292908}, {"type": "node", "id": 2543567804, "lat": 38.7810736, "lon": -90.5296605}, {"type": "node", "id": 2543567805, "lat": 38.781136, "lon": -90.5295742}, {"type": "node", "id": 2543567807, "lat": 38.7814146, "lon": -90.5298207}, {"type": "node", "id": 2543567809, "lat": 38.7814002, "lon": -90.5298885}, {"type": "node", "id": 2543567811, "lat": 38.7814818, "lon": -90.5299871}, {"type": "node", "id": 2543567813, "lat": 38.781429, "lon": -90.5301473}, {"type": "node", "id": 2543567814, "lat": 38.7815587, "lon": -90.5302705}, {"type": "node", "id": 2543567816, "lat": 38.7800841, "lon": -90.5296728}, {"type": "node", "id": 2543567818, "lat": 38.7801754, "lon": -90.5294633}, {"type": "node", "id": 2543567820, "lat": 38.7802858, "lon": -90.5292353}, {"type": "node", "id": 2543567822, "lat": 38.7799448, "lon": -90.5289334}, {"type": "node", "id": 2543567823, "lat": 38.7796998, "lon": -90.5293524}, {"type": "node", "id": 2543567826, "lat": 38.783161, "lon": -90.5304231}, {"type": "node", "id": 2543567827, "lat": 38.7834998, "lon": -90.5299762}, {"type": "node", "id": 2543567830, "lat": 38.7838645, "lon": -90.5302659}, {"type": "node", "id": 2543567831, "lat": 38.7840626, "lon": -90.5300169}, {"type": "node", "id": 2543567832, "lat": 38.7841516, "lon": -90.530131}, {"type": "node", "id": 2543567833, "lat": 38.7846733, "lon": -90.5295084}, {"type": "node", "id": 2543567834, "lat": 38.7844105, "lon": -90.52914}, {"type": "node", "id": 2543567835, "lat": 38.7836663, "lon": -90.5300117}, {"type": "node", "id": 2544300578, "lat": 38.7782703, "lon": -90.5279742, "tags": {"addr:city": "St. Charles", "addr:country": "US", "addr:housenumber": "1800", "addr:postcode": "63303", "addr:street": "Zumbehl Road"}}, {"type": "node", "id": 2578603384, "lat": 38.7840081, "lon": -90.5357106, "tags": {"addr:city": "Saint Charles", "addr:housenumber": "2079", "addr:postcode": "63303", "addr:state": "MO", "addr:street": "Zumbehl Road", "amenity": "fast_food", "brand": "Panera Bread", "brand:wikidata": "Q7130852", "cuisine": "sandwich;bakery", "name": "Panera Bread", "opening_hours": "06:00-21:00", "phone": "+1 636-946-1701", "short_name": "Panera", "takeaway": "yes", "website": "https://locations.panerabread.com/mo/st-charles/2079-zumbehl-road.html"}}, {"type": "node", "id": 2578603388, "lat": 38.7790917, "lon": -90.5300694, "tags": {"addr:city": "Saint Charles", "addr:housenumber": "1890", "addr:postcode": "63303", "addr:state": "MO", "addr:street": "Zumbehl Road", "amenity": "fast_food", "brand": "McDonald's", "brand:website": "https://www.mcdonalds.com/", "brand:wikidata": "Q38076", "cuisine": "burger", "drive_through": "yes", "internet_access": "wlan", "name": "McDonald's", "opening_hours": "Mo-Su 05:00-23:59", "phone": "+1 636-947-0951", "takeaway": "yes", "website": "https://www.mcdonalds.com/us/en-us/location/19134.html"}}, {"type": "node", "id": 5628790776, "lat": 38.782821, "lon": -90.5260803, "tags": {"addr:city": "Saint Charles", "addr:housenumber": "2899", "addr:postcode": "63303", "addr:street": "Veterans Memorial Parkway", "name": "NTB - National Tire and Battery", "shop": "tyres"}}, {"type": "node", "id": 5628791439, "lat": 38.7839739, "lon": -90.5265871, "tags": {"addr:city": "Saint Charles", "addr:housenumber": "2911", "addr:postcode": "63303", "addr:street": "Veterans Memorial Parkway", "amenity": "fast_food", "brand": "Panda Express", "brand:wikidata": "Q1358690", "cuisine": "chinese", "name": "Panda Express", "takeaway": "yes"}}, {"type": "node", "id": 5628792227, "lat": 38.7818187, "lon": -90.5262705, "tags": {"addr:city": "Saint Charles", "addr:housenumber": "2867", "addr:postcode": "63303", "addr:street": "Veterans Memorial Parkway"}}, {"type": "node", "id": 5628792234, "lat": 38.7820212, "lon": -90.5266893, "tags": {"addr:city": "Saint Charles", "addr:housenumber": "2873", "addr:postcode": "63303", "addr:street": "Veterans Memorial Parkway"}}, {"type": "node", "id": 5628792237, "lat": 38.7819676, "lon": -90.5265675, "tags": {"addr:city": "Saint Charles", "addr:housenumber": "2869", "addr:postcode": "63303", "addr:street": "Veterans Memorial Parkway"}}, {"type": "node", "id": 5628792241, "lat": 38.7821198, "lon": -90.5268476, "tags": {"addr:city": "Saint Charles", "addr:housenumber": "2877", "addr:postcode": "63303", "addr:street": "Veterans Memorial Parkway"}}, {"type": "node", "id": 5628792257, "lat": 38.7818859, "lon": -90.524078, "tags": {"addr:city": "Saint Charles", "addr:housenumber": "2855", "addr:postcode": "63303", "addr:street": "Veterans Memorial Parkway"}}, {"type": "node", "id": 5628792284, "lat": 38.7855181, "lon": -90.5312216, "tags": {"addr:city": "Saint Charles", "addr:housenumber": "2970", "addr:postcode": "63303", "addr:street": "Veterans Memorial Parkway"}}, {"type": "node", "id": 5633603708, "lat": 38.7853559, "lon": -90.5259531, "tags": {"addr:city": "Saint Charles", "addr:housenumber": "2801", "addr:postcode": "63301", "addr:street": "West Clay Street"}}, {"type": "node", "id": 5633603714, "lat": 38.7866345, "lon": -90.5266343, "tags": {"addr:city": "Saint Charles", "addr:housenumber": "2850", "addr:postcode": "63301", "addr:street": "West Clay Street"}}, {"type": "node", "id": 5633603718, "lat": 38.786741, "lon": -90.5276228, "tags": {"addr:city": "Saint Charles", "addr:housenumber": "2880", "addr:postcode": "63301", "addr:street": "West Clay Street"}}, {"type": "node", "id": 5633603731, "lat": 38.7849951, "lon": -90.5248811, "tags": {"addr:city": "Saint Charles", "addr:housenumber": "2777", "addr:postcode": "63301", "addr:street": "West Clay Street"}}, {"type": "node", "id": 5633603735, "lat": 38.7864983, "lon": -90.5256294, "tags": {"addr:city": "Saint Charles", "addr:housenumber": "2840", "addr:postcode": "63301", "addr:street": "West Clay Street"}}, {"type": "node", "id": 5633603737, "lat": 38.7849662, "lon": -90.5243271, "tags": {"addr:city": "Saint Charles", "addr:housenumber": "2747", "addr:postcode": "63301", "addr:street": "West Clay Street"}}, {"type": "node", "id": 5633603742, "lat": 38.7851559, "lon": -90.5254098, "tags": {"addr:city": "Saint Charles", "addr:housenumber": "2793", "addr:postcode": "63301", "addr:street": "West Clay Street"}}, {"type": "node", "id": 5633603753, "lat": 38.7849586, "lon": -90.5238261, "tags": {"addr:city": "Saint Charles", "addr:housenumber": "2745", "addr:postcode": "63301", "addr:street": "West Clay Street"}}, {"type": "node", "id": 5633604000, "lat": 38.7699494, "lon": -90.524046, "tags": {"addr:city": "Saint Charles", "addr:housenumber": "1500", "addr:postcode": "63303", "addr:street": "Zumbehl Road", "brand": "QuikTrip", "brand:wikidata": "Q7271953", "name": "QuikTrip", "shop": "convenience", "short_name": "QT"}}, {"type": "node", "id": 5633604001, "lat": 38.7815241, "lon": -90.5303107, "tags": {"addr:city": "Saint Charles", "addr:housenumber": "1986", "addr:postcode": "63303", "addr:street": "Zumbehl Road"}}, {"type": "node", "id": 5633604002, "lat": 38.7814239, "lon": -90.5305162, "tags": {"addr:city": "Saint Charles", "addr:housenumber": "1978", "addr:postcode": "63303", "addr:street": "Zumbehl Road"}}, {"type": "node", "id": 5633604003, "lat": 38.7776797, "lon": -90.5285345, "tags": {"addr:city": "Saint Charles", "addr:housenumber": "1820", "addr:postcode": "63303", "addr:street": "Zumbehl Road"}}, {"type": "node", "id": 5633604004, "lat": 38.7803602, "lon": -90.5298645, "tags": {"addr:city": "Saint Charles", "addr:housenumber": "1940", "addr:postcode": "63303", "addr:street": "Zumbehl Road"}}, {"type": "node", "id": 5633604005, "lat": 38.7804376, "lon": -90.5299178, "tags": {"addr:city": "Saint Charles", "addr:housenumber": "1942", "addr:postcode": "63303", "addr:street": "Zumbehl Road"}}, {"type": "node", "id": 5633604007, "lat": 38.7800991, "lon": -90.52966, "tags": {"addr:city": "Saint Charles", "addr:housenumber": "1932", "addr:postcode": "63303", "addr:street": "Zumbehl Road", "amenity": "fast_food", "brand": "Penn Station", "brand:wikidata": "Q7163311", "cuisine": "sandwich", "name": "Penn Station", "opening_hours": "Mo-Sa 10:30-22:00; Su 11:00-20:00", "takeaway": "yes"}}, {"type": "node", "id": 5633604008, "lat": 38.7801631, "lon": -90.5297, "tags": {"addr:city": "Saint Charles", "addr:housenumber": "1934", "addr:postcode": "63303", "addr:street": "Zumbehl Road"}}, {"type": "node", "id": 5633604009, "lat": 38.781449, "lon": -90.5304431, "tags": {"addr:city": "Saint Charles", "addr:housenumber": "1980", "addr:postcode": "63303", "addr:street": "Zumbehl Road"}}, {"type": "node", "id": 5633604010, "lat": 38.779921, "lon": -90.5295316, "tags": {"addr:city": "Saint Charles", "addr:housenumber": "1920", "addr:postcode": "63303", "addr:street": "Zumbehl Road"}}, {"type": "node", "id": 5633604012, "lat": 38.7813381, "lon": -90.5306486, "tags": {"addr:city": "Saint Charles", "addr:housenumber": "1976", "addr:postcode": "63303", "addr:street": "Zumbehl Road"}}, {"type": "node", "id": 5633604014, "lat": 38.7803067, "lon": -90.5297967, "tags": {"addr:city": "Saint Charles", "addr:housenumber": "1938", "addr:postcode": "63303", "addr:state": "MO", "addr:street": "Zumbehl Road", "amenity": "restaurant", "name": "Stef's Pizza"}}, {"type": "node", "id": 5633604017, "lat": 38.7802471, "lon": -90.5297481, "tags": {"addr:city": "Saint Charles", "addr:housenumber": "1936", "addr:postcode": "63303", "addr:street": "Zumbehl Road"}}, {"type": "node", "id": 5633604019, "lat": 38.7795077, "lon": -90.5287635, "tags": {"addr:city": "Saint Charles", "addr:housenumber": "1900", "addr:postcode": "63303", "addr:street": "Zumbehl Road"}}, {"type": "node", "id": 5633604020, "lat": 38.7787535, "lon": -90.5282301, "tags": {"addr:city": "Saint Charles", "addr:housenumber": "1840", "addr:postcode": "63303", "addr:street": "Zumbehl Road"}}, {"type": "node", "id": 5633604521, "lat": 38.7810474, "lon": -90.5303729, "tags": {"addr:city": "Saint Charles", "addr:housenumber": "1950", "addr:postcode": "63303", "addr:street": "Zumbehl Road"}}, {"type": "node", "id": 5633604522, "lat": 38.7790086, "lon": -90.5284313, "tags": {"addr:city": "Saint Charles", "addr:housenumber": "1860", "addr:postcode": "63303", "addr:street": "Zumbehl Road"}}, {"type": "node", "id": 5633604524, "lat": 38.7814955, "lon": -90.5303701, "tags": {"addr:city": "Saint Charles", "addr:housenumber": "1982", "addr:postcode": "63303", "addr:street": "Zumbehl Road"}}, {"type": "node", "id": 5633604525, "lat": 38.780502, "lon": -90.5299498, "tags": {"addr:city": "Saint Charles", "addr:housenumber": "1944", "addr:postcode": "63303", "addr:street": "Zumbehl Road"}}, {"type": "node", "id": 5633604527, "lat": 38.7835335, "lon": -90.5353216, "tags": {"addr:city": "Saint Charles", "addr:housenumber": "2055", "addr:postcode": "63303", "addr:street": "Zumbehl Road"}}, {"type": "node", "id": 5633604528, "lat": 38.783241, "lon": -90.5350814, "tags": {"addr:city": "Saint Charles", "addr:housenumber": "2045", "addr:postcode": "63303", "addr:street": "Zumbehl Road"}}, {"type": "node", "id": 5633604529, "lat": 38.783183, "lon": -90.5350213, "tags": {"addr:city": "Saint Charles", "addr:housenumber": "2041", "addr:postcode": "63303", "addr:street": "Zumbehl Road"}}, {"type": "node", "id": 5633604530, "lat": 38.7845142, "lon": -90.5350338, "tags": {"addr:city": "Saint Charles", "addr:housenumber": "2125", "addr:postcode": "63303", "addr:street": "Zumbehl Road", "name": "Fantasy Shop", "shop": "vacant"}}, {"type": "node", "id": 5633604531, "lat": 38.7784227, "lon": -90.5290153, "tags": {"addr:city": "Saint Charles", "addr:housenumber": "1850", "addr:postcode": "63303", "addr:street": "Zumbehl Road"}}, {"type": "node", "id": 5633604532, "lat": 38.783611, "lon": -90.5353711, "tags": {"addr:city": "Saint Charles", "addr:housenumber": "2057", "addr:postcode": "63303", "addr:street": "Zumbehl Road"}}, {"type": "node", "id": 5633604533, "lat": 38.7831201, "lon": -90.5349704, "tags": {"addr:city": "Saint Charles", "addr:housenumber": "2039", "addr:postcode": "63303", "addr:street": "Zumbehl Road"}}, {"type": "node", "id": 5633604534, "lat": 38.7769653, "lon": -90.5294657, "tags": {"addr:city": "Saint Charles", "addr:housenumber": "1811", "addr:postcode": "63303", "addr:street": "Zumbehl Road"}}, {"type": "node", "id": 5633604536, "lat": 38.7838062, "lon": -90.5355317, "tags": {"addr:city": "Saint Charles", "addr:housenumber": "2071", "addr:postcode": "63303", "addr:street": "Zumbehl Road", "amenity": "dentist", "healthcare": "dentist", "name": "Key West Dental"}}, {"type": "node", "id": 5633604537, "lat": 38.783387, "lon": -90.5351959, "tags": {"addr:city": "Saint Charles", "addr:housenumber": "2051", "addr:postcode": "63303", "addr:street": "Zumbehl Road"}}, {"type": "node", "id": 5633604539, "lat": 38.7839206, "lon": -90.5356445, "tags": {"addr:city": "Saint Charles", "addr:housenumber": "2075", "addr:postcode": "63303", "addr:street": "Zumbehl Road", "alt_name": "Sally Beauty Supply", "brand": "Sally Beauty", "brand:wikidata": "Q7405065", "name": "Sally Beauty", "shop": "hairdresser_supply"}}, {"type": "node", "id": 5633604540, "lat": 38.7838443, "lon": -90.5355805, "tags": {"addr:city": "Saint Charles", "addr:housenumber": "2073", "addr:postcode": "63303", "addr:street": "Zumbehl Road", "brand": "Sport Clips", "brand:wikidata": "Q7579310", "name": "Sport Clips", "shop": "hairdresser"}}, {"type": "node", "id": 5633604541, "lat": 38.784333, "lon": -90.5353873, "tags": {"addr:city": "Saint Charles", "addr:housenumber": "2107", "addr:postcode": "63303", "addr:street": "Zumbehl Road"}}, {"type": "node", "id": 5633604542, "lat": 38.784215, "lon": -90.5356461, "tags": {"addr:city": "Saint Charles", "addr:housenumber": "2101", "addr:postcode": "63303", "addr:street": "Zumbehl Road", "amenity": "fast_food", "brand": "Smoothie King", "brand:wikidata": "Q5491421", "cuisine": "juice", "name": "Smoothie King", "takeaway": "yes"}}, {"type": "node", "id": 5633604544, "lat": 38.7842579, "lon": -90.5355639, "tags": {"addr:city": "Saint Charles", "addr:housenumber": "2103", "addr:postcode": "63303", "addr:street": "Zumbehl Road", "amenity": "prep_school", "brand": "Kumon", "brand:wikidata": "Q142054", "name": "Kumon"}}, {"type": "node", "id": 5633604545, "lat": 38.779595, "lon": -90.5304501, "tags": {"addr:city": "Saint Charles", "addr:housenumber": "1928", "addr:postcode": "63303", "addr:street": "Zumbehl Road"}}, {"type": "node", "id": 5633604546, "lat": 38.784407, "lon": -90.5352458, "tags": {"addr:city": "Saint Charles", "addr:housenumber": "2109", "addr:postcode": "63303", "addr:state": "MO", "addr:street": "Zumbehl Road", "brand": "Petco", "brand:wikidata": "Q7171798", "name": "Petco", "opening_hours": "Mo-Sa 09:00-20:00; Su 10:00-19:00", "phone": "+1 636-724-6338", "ref": "1651", "shop": "pet", "website": "https://stores.petco.com/mo/stcharles/pet-supplies-stcharles-mo-1651.html"}}, {"type": "node", "id": 5633604547, "lat": 38.7810783, "lon": -90.5318312, "tags": {"addr:city": "Saint Charles", "addr:housenumber": "1990", "addr:postcode": "63303", "addr:street": "Zumbehl Road"}}, {"type": "node", "id": 5633604548, "lat": 38.7846287, "lon": -90.5348085, "tags": {"addr:city": "Saint Charles", "addr:housenumber": "2133", "addr:postcode": "63303", "addr:street": "Zumbehl Road", "disused:shop": "clothes", "name": "Dress Barn"}}, {"type": "node", "id": 5633604550, "lat": 38.7842865, "lon": -90.5354863, "tags": {"addr:city": "Saint Charles", "addr:housenumber": "2105", "addr:postcode": "63303", "addr:street": "Zumbehl Road", "name": "Cary O'Brien's Design & Color Spa", "shop": "beauty"}}, {"type": "node", "id": 5633604551, "lat": 38.7848113, "lon": -90.5344512, "tags": {"addr:city": "Saint Charles", "addr:housenumber": "2155", "addr:postcode": "63303", "addr:state": "MO", "addr:street": "Zumbehl Road", "brand": "Michaels", "brand:wikidata": "Q6835667", "name": "Michaels", "note": "Home Furnishings", "opening_hours": "Mo-Sa 09:00-21:00; Su 10:00-19:00", "phone": "+1 636-947-6379", "ref": "4205", "shop": "craft", "website": "https://locations.michaels.com/mo/st.-charles/4205"}}, {"type": "node", "id": 5633604552, "lat": 38.7763049, "lon": -90.5273439, "tags": {"addr:city": "Saint Charles", "addr:housenumber": "1780", "addr:postcode": "63303", "addr:street": "Zumbehl Road"}}, {"type": "node", "id": 5633604554, "lat": 38.7829817, "lon": -90.534858, "tags": {"addr:city": "Saint Charles", "addr:housenumber": "2031", "addr:postcode": "63303", "addr:street": "Zumbehl Road"}}, {"type": "node", "id": 5633604555, "lat": 38.7836932, "lon": -90.5354259, "tags": {"addr:city": "Saint Charles", "addr:housenumber": "2061", "addr:postcode": "63303", "addr:street": "Zumbehl Road", "amenity": "restaurant", "cuisine": "italian_pizza;pasta", "name": "Frateli", "name:en": "Fratelli's", "website": "https://www.fratellisristorante.com/"}}, {"type": "node", "id": 5633604556, "lat": 38.7818369, "lon": -90.5339121, "tags": {"addr:city": "Saint Charles", "addr:housenumber": "2009", "addr:postcode": "63303", "addr:street": "Zumbehl Road"}}, {"type": "node", "id": 5633604558, "lat": 38.7771571, "lon": -90.5296391, "tags": {"addr:city": "Saint Charles", "addr:housenumber": "1821", "addr:postcode": "63303", "addr:street": "Zumbehl Road"}}, {"type": "node", "id": 5633604559, "lat": 38.781821, "lon": -90.533652, "tags": {"addr:city": "Saint Charles", "addr:housenumber": "1997", "addr:postcode": "63303", "addr:street": "Zumbehl Road", "brand": "Crumbl Cookies", "brand:wikidata": "Q106924414", "name": "Crumbl Cookies", "shop": "pastry", "short_name": "Crumbl"}}, {"type": "node", "id": 5633604564, "lat": 38.7819107, "lon": -90.5334755, "tags": {"addr:city": "Saint Charles", "addr:housenumber": "1991", "addr:postcode": "63303", "addr:street": "Zumbehl Road"}}, {"type": "node", "id": 5633604565, "lat": 38.7818782, "lon": -90.5335473, "tags": {"addr:city": "Saint Charles", "addr:housenumber": "1993", "addr:postcode": "63303", "addr:street": "Zumbehl Road"}}, {"type": "node", "id": 5633604567, "lat": 38.7818449, "lon": -90.5336033, "tags": {"addr:city": "Saint Charles", "addr:housenumber": "1995", "addr:postcode": "63303", "addr:street": "Zumbehl Road"}}, {"type": "node", "id": 5633604568, "lat": 38.7819383, "lon": -90.5334292, "tags": {"addr:city": "Saint Charles", "addr:housenumber": "1989", "addr:postcode": "63303", "addr:street": "Zumbehl Road"}}, {"type": "node", "id": 5633604569, "lat": 38.783437, "lon": -90.5352507, "tags": {"addr:city": "Saint Charles", "addr:housenumber": "2053", "addr:postcode": "63303", "addr:street": "Zumbehl Road"}}, {"type": "node", "id": 5633604571, "lat": 38.7830679, "lon": -90.5349284, "tags": {"addr:city": "Saint Charles", "addr:housenumber": "2035", "addr:postcode": "63303", "addr:street": "Zumbehl Road"}}, {"type": "node", "id": 5633604572, "lat": 38.7818124, "lon": -90.5338871, "tags": {"addr:city": "Saint Charles", "addr:housenumber": "2007", "addr:postcode": "63303", "addr:street": "Zumbehl Road"}}, {"type": "node", "id": 5633604573, "lat": 38.7817886, "lon": -90.5337008, "tags": {"addr:city": "Saint Charles", "addr:housenumber": "1999", "addr:postcode": "63303", "addr:street": "Zumbehl Road"}}, {"type": "node", "id": 5633604574, "lat": 38.7828935, "lon": -90.5347796, "tags": {"addr:city": "Saint Charles", "addr:housenumber": "2029", "addr:postcode": "63303", "addr:street": "Zumbehl Road"}}, {"type": "node", "id": 5633604575, "lat": 38.7820111, "lon": -90.5332861, "tags": {"addr:city": "Saint Charles", "addr:housenumber": "1985", "addr:postcode": "63303", "addr:street": "Zumbehl Road"}}, {"type": "node", "id": 5633604577, "lat": 38.7819736, "lon": -90.5333695, "tags": {"addr:city": "Saint Charles", "addr:housenumber": "1987", "addr:postcode": "63303", "addr:street": "Zumbehl Road"}}, {"type": "node", "id": 5633604580, "lat": 38.7820197, "lon": -90.5340584, "tags": {"addr:city": "Saint Charles", "addr:housenumber": "2019", "addr:postcode": "63303", "addr:street": "Zumbehl Road"}}, {"type": "node", "id": 5633604581, "lat": 38.7820583, "lon": -90.5332027, "tags": {"addr:city": "Saint Charles", "addr:housenumber": "1981", "addr:postcode": "63303", "addr:street": "Zumbehl Road"}}, {"type": "node", "id": 5633604582, "lat": 38.7819765, "lon": -90.5340252, "tags": {"addr:city": "Saint Charles", "addr:housenumber": "2017", "addr:postcode": "63303", "addr:street": "Zumbehl Road"}}, {"type": "node", "id": 5633604585, "lat": 38.7748303, "lon": -90.5277382, "tags": {"addr:city": "Saint Charles", "addr:housenumber": "1771", "addr:postcode": "63303", "addr:street": "Zumbehl Road"}}, {"type": "node", "id": 5633604586, "lat": 38.7822218, "lon": -90.5342107, "tags": {"addr:city": "Saint Charles", "addr:housenumber": "2021", "addr:postcode": "63303", "addr:street": "Zumbehl Road"}}, {"type": "node", "id": 5633604589, "lat": 38.7818919, "lon": -90.5339563, "tags": {"addr:city": "Saint Charles", "addr:housenumber": "2011", "addr:postcode": "63303", "addr:street": "Zumbehl Road"}}, {"type": "node", "id": 5633604592, "lat": 38.7819494, "lon": -90.533999, "tags": {"addr:city": "Saint Charles", "addr:housenumber": "2015", "addr:postcode": "63303", "addr:street": "Zumbehl Road"}}, {"type": "node", "id": 5633604595, "lat": 38.7833334, "lon": -90.5351319, "tags": {"addr:city": "Saint Charles", "addr:housenumber": "2047", "addr:postcode": "63303", "addr:state": "MO", "addr:street": "Zumbehl Road", "brand": "Spectrum", "brand:wikidata": "Q7805197", "name": "Spectrum", "opening_hours": "Mo-Sa 10:00-20:00, Su 12:00-17:00", "phone": "(888) 406-7063", "shop": "telecommunication", "website": "https://www.spectrum.com/locations/mo/st-charles/2047-zumbehl-rd"}}, {"type": "node", "id": 5633604596, "lat": 38.7837496, "lon": -90.5354936, "tags": {"addr:city": "Saint Charles", "addr:housenumber": "2067", "addr:postcode": "63303", "addr:street": "Zumbehl Road", "healthcare": "alternative", "healthcare:speciality": "chiropractic", "name": "Logan Chiropractic Health Center"}}, {"type": "node", "id": 5633604597, "lat": 38.7740671, "lon": -90.5281624, "tags": {"addr:city": "Saint Charles", "addr:housenumber": "1731", "addr:postcode": "63303", "addr:street": "Zumbehl Road"}}, {"type": "node", "id": 5633604599, "lat": 38.7790812, "lon": -90.5300599, "tags": {"addr:city": "Saint Charles", "addr:housenumber": "1890", "addr:postcode": "63303", "addr:street": "Zumbehl Road"}}, {"type": "node", "id": 5633604600, "lat": 38.782194, "lon": -90.5327512, "tags": {"addr:city": "Saint Charles", "addr:housenumber": "2001", "addr:postcode": "63303", "addr:street": "Zumbehl Road"}}, {"type": "node", "id": 5633604606, "lat": 38.7767178, "lon": -90.5277523, "tags": {"addr:city": "Saint Charles", "addr:housenumber": "1786", "addr:postcode": "63303", "addr:street": "Zumbehl Road"}}, {"type": "node", "id": 5633604607, "lat": 38.7768474, "lon": -90.527862, "tags": {"addr:city": "Saint Charles", "addr:housenumber": "1792", "addr:postcode": "63303", "addr:street": "Zumbehl Road"}}, {"type": "node", "id": 5635611684, "lat": 38.7690733, "lon": -90.5245891, "tags": {"addr:city": "Saint Charles", "addr:housenumber": "1703", "addr:postcode": "63303", "addr:street": "South Old Highway 94"}}, {"type": "node", "id": 5635612250, "lat": 38.7702224, "lon": -90.5236806, "tags": {"addr:city": "Saint Charles", "addr:housenumber": "1615", "addr:postcode": "63303", "addr:street": "South Old Highway 94"}}, {"type": "node", "id": 6116279947, "lat": 38.7814527, "lon": -90.5274947}, {"type": "node", "id": 6116279948, "lat": 38.7815783, "lon": -90.5277387}, {"type": "node", "id": 6116279949, "lat": 38.7814487, "lon": -90.5278484}, {"type": "node", "id": 6116279950, "lat": 38.7817882, "lon": -90.5283529}, {"type": "node", "id": 6116279951, "lat": 38.7818411, "lon": -90.5284556}, {"type": "node", "id": 6116279952, "lat": 38.7818849, "lon": -90.5284185}, {"type": "node", "id": 6116279953, "lat": 38.7820754, "lon": -90.5287879}, {"type": "node", "id": 6116279954, "lat": 38.7823182, "lon": -90.5270552}, {"type": "node", "id": 6116279955, "lat": 38.7822814, "lon": -90.5270724}, {"type": "node", "id": 6116279956, "lat": 38.7820582, "lon": -90.5288025}, {"type": "node", "id": 6116279957, "lat": 38.7820938, "lon": -90.5288712}, {"type": "node", "id": 6116279958, "lat": 38.7821281, "lon": -90.5288419}, {"type": "node", "id": 6116279964, "lat": 38.7821813, "lon": -90.5268778}, {"type": "node", "id": 6116279965, "lat": 38.7827679, "lon": -90.5263532}, {"type": "node", "id": 6116279966, "lat": 38.7826031, "lon": -90.5260381}, {"type": "node", "id": 6116279967, "lat": 38.7828867, "lon": -90.5258023}, {"type": "node", "id": 6116279968, "lat": 38.7829849, "lon": -90.5259893}, {"type": "node", "id": 6116279969, "lat": 38.7829247, "lon": -90.5260523}, {"type": "node", "id": 6116279970, "lat": 38.7829834, "lon": -90.5261763}, {"type": "node", "id": 6116279971, "lat": 38.7842229, "lon": -90.5272045}, {"type": "node", "id": 6116279972, "lat": 38.7840937, "lon": -90.5269488}, {"type": "node", "id": 6116279973, "lat": 38.7841975, "lon": -90.5268648}, {"type": "node", "id": 6116279974, "lat": 38.7842038, "lon": -90.526873}, {"type": "node", "id": 6116279975, "lat": 38.7842229, "lon": -90.5268554}, {"type": "node", "id": 6116279976, "lat": 38.7842566, "lon": -90.5269243}, {"type": "node", "id": 6116279977, "lat": 38.7842375, "lon": -90.5269407}, {"type": "node", "id": 6116279978, "lat": 38.7842603, "lon": -90.5269909}, {"type": "node", "id": 6116279979, "lat": 38.7842885, "lon": -90.5269699}, {"type": "node", "id": 6116279980, "lat": 38.7843394, "lon": -90.5270668}, {"type": "node", "id": 6116279981, "lat": 38.7843149, "lon": -90.5270901}, {"type": "node", "id": 6116279982, "lat": 38.7843276, "lon": -90.527117}, {"type": "node", "id": 6116279983, "lat": 38.7835631, "lon": -90.5251532}, {"type": "node", "id": 6116279984, "lat": 38.7833857, "lon": -90.5252945}, {"type": "node", "id": 6116288985, "lat": 38.783291, "lon": -90.5250984}, {"type": "node", "id": 6116288986, "lat": 38.7834712, "lon": -90.5249594}, {"type": "node", "id": 6116300996, "lat": 38.7827608, "lon": -90.5298824}, {"type": "node", "id": 6116300997, "lat": 38.783138, "lon": -90.5294444}, {"type": "node", "id": 6116305532, "lat": 38.7847191, "lon": -90.5281768}, {"type": "node", "id": 6116305533, "lat": 38.784548, "lon": -90.528318}, {"type": "node", "id": 6116305534, "lat": 38.7844278, "lon": -90.5280822}, {"type": "node", "id": 6116305535, "lat": 38.7845998, "lon": -90.5279421}, {"type": "node", "id": 6116305536, "lat": 38.7834239, "lon": -90.5300653}, {"type": "node", "id": 6116305537, "lat": 38.7834428, "lon": -90.5300919}, {"type": "node", "id": 6116305538, "lat": 38.7847902, "lon": -90.5284861}, {"type": "node", "id": 6116305539, "lat": 38.7847693, "lon": -90.5284396}, {"type": "node", "id": 6116305540, "lat": 38.7846636, "lon": -90.5285178}, {"type": "node", "id": 6116305541, "lat": 38.7846845, "lon": -90.5285643}, {"type": "node", "id": 6116305552, "lat": 38.7849338, "lon": -90.5289603}, {"type": "node", "id": 6116305553, "lat": 38.7848545, "lon": -90.528805}, {"type": "node", "id": 6116305554, "lat": 38.7848667, "lon": -90.5287947}, {"type": "node", "id": 6116305555, "lat": 38.7848535, "lon": -90.528769}, {"type": "node", "id": 6116305556, "lat": 38.7849491, "lon": -90.5286887}, {"type": "node", "id": 6116305557, "lat": 38.785, "lon": -90.5287884}, {"type": "node", "id": 6116305558, "lat": 38.78501, "lon": -90.52878}, {"type": "node", "id": 6116305559, "lat": 38.7850515, "lon": -90.5288614}, {"type": "node", "id": 6116544521, "lat": 38.7831287, "lon": -90.5247696}, {"type": "node", "id": 6116544522, "lat": 38.7830363, "lon": -90.5245467}, {"type": "node", "id": 6116544523, "lat": 38.783289, "lon": -90.5243743}, {"type": "node", "id": 6116544524, "lat": 38.7833643, "lon": -90.524556}, {"type": "node", "id": 6116544525, "lat": 38.7833276, "lon": -90.524581}, {"type": "node", "id": 6116544526, "lat": 38.7833447, "lon": -90.5246223}, {"type": "node", "id": 6116544527, "lat": 38.7830607, "lon": -90.5237609}, {"type": "node", "id": 6116544528, "lat": 38.7826946, "lon": -90.5240068}, {"type": "node", "id": 6116544529, "lat": 38.7825052, "lon": -90.5235428}, {"type": "node", "id": 6116544530, "lat": 38.7827196, "lon": -90.5233988}, {"type": "node", "id": 6116544531, "lat": 38.7826723, "lon": -90.5232831}, {"type": "node", "id": 6116544532, "lat": 38.782824, "lon": -90.5231812}, {"type": "node", "id": 6116544533, "lat": 38.7811149, "lon": -90.524246}, {"type": "node", "id": 6116544534, "lat": 38.7808778, "lon": -90.5239566}, {"type": "node", "id": 6116544535, "lat": 38.7805241, "lon": -90.5244335}, {"type": "node", "id": 6116544536, "lat": 38.7807243, "lon": -90.5246777}, {"type": "node", "id": 6116544537, "lat": 38.7806925, "lon": -90.5247206}, {"type": "node", "id": 6116544538, "lat": 38.7807295, "lon": -90.5247658}, {"type": "node", "id": 6121811516, "lat": 38.7838193, "lon": -90.5299415, "tags": {"addr:city": "Saint Charles", "addr:housenumber": "1083", "addr:postcode": "63303", "addr:state": "MO", "addr:street": "Regency Parkway", "beauty": "tanning", "name": "Tan Co", "shop": "beauty"}}, {"type": "node", "id": 6121811517, "lat": 38.7840086, "lon": -90.5297173, "tags": {"addr:city": "Saint Charles", "addr:housenumber": "1069", "addr:postcode": "63303", "addr:street": "Regency Parkway", "brand": "Saint Vincent de Paul Thrift Store", "brand:wikidata": "Q66581837", "contact:phone": "+1 314-881-6047", "name": "Saint Vincent de Paul Thrift Store", "not:operator:wikidata": "Q66581837", "operator": "Society of St. Vincent de Paul Archdiocesan Council of St. Louis", "operator:wikidata": "Q54833131", "shop": "charity", "short_name": "SVdP"}}, {"type": "node", "id": 6121811518, "lat": 38.7842288, "lon": -90.5294628, "tags": {"addr:city": "Saint Charles", "addr:housenumber": "1067", "addr:postcode": "63303", "addr:state": "MO", "addr:street": "Regency Parkway", "brand": "Dollar Tree", "brand:wikidata": "Q5289230", "check_date": "2024-07-11", "check_date:opening_hours": "2024-07-11", "name": "Dollar Tree", "opening_hours": "Mo-Sa 08:00-22:00; Su 09:00-20:00", "shop": "variety_store", "website": "https://www.dollartree.com/locations/mo/st-charles/485/"}}, {"type": "node", "id": 6121811519, "lat": 38.7844054, "lon": -90.5292713, "tags": {"addr:city": "Saint Charles", "addr:housenumber": "1051", "addr:postcode": "63303", "addr:state": "MO", "addr:street": "Regency Parkway", "brand": "Rent-A-Center", "brand:wikidata": "Q7313497", "name": "Rent-A-Center", "shop": "furniture"}}, {"type": "node", "id": 6121811520, "lat": 38.7845874, "lon": -90.5294955, "tags": {"addr:city": "Saint Charles", "addr:housenumber": "1064", "addr:postcode": "63303", "addr:state": "MO", "addr:street": "Regency Parkway", "amenity": "fast_food", "brand": "Subway", "brand:wikidata": "Q244457", "cuisine": "sandwich", "name": "Subway", "opening_hours": "09:00-22:00", "phone": "+1 636-949-2681", "takeaway": "yes", "website": "https://restaurants.subway.com/united-states/mo/st-charles/1064-regency-pkwy"}}, {"type": "node", "id": 6121811521, "lat": 38.7845182, "lon": -90.5293764, "tags": {"addr:city": "Saint Charles", "addr:housenumber": "1059", "addr:postcode": "63303", "addr:state": "MO", "addr:street": "Regency Parkway", "name": "Music Go Round", "shop": "musical_instrument"}}, {"type": "node", "id": 6121811522, "lat": 38.7837325, "lon": -90.5322421}, {"type": "node", "id": 6121811523, "lat": 38.7835513, "lon": -90.5322124}, {"type": "node", "id": 6121811524, "lat": 38.7835793, "lon": -90.5319313}, {"type": "node", "id": 6121811525, "lat": 38.7837606, "lon": -90.5319611}, {"type": "node", "id": 6121811538, "lat": 38.7817341, "lon": -90.5319776}, {"type": "node", "id": 6121811539, "lat": 38.7816918, "lon": -90.531877}, {"type": "node", "id": 6121811540, "lat": 38.7818657, "lon": -90.5317569}, {"type": "node", "id": 6121811541, "lat": 38.7819079, "lon": -90.5318576}, {"type": "node", "id": 6121811542, "lat": 38.7821064, "lon": -90.5316312}, {"type": "node", "id": 6121811543, "lat": 38.7819927, "lon": -90.5315407}, {"type": "node", "id": 6121811544, "lat": 38.7820143, "lon": -90.5314959}, {"type": "node", "id": 6121811545, "lat": 38.7820056, "lon": -90.5314939}, {"type": "node", "id": 6121811546, "lat": 38.7820392, "lon": -90.5314232}, {"type": "node", "id": 6121811547, "lat": 38.782032, "lon": -90.5314176}, {"type": "node", "id": 6121811548, "lat": 38.782078, "lon": -90.5313208}, {"type": "node", "id": 6121811549, "lat": 38.7821799, "lon": -90.5314004}, {"type": "node", "id": 6121811550, "lat": 38.7821886, "lon": -90.5313892}, {"type": "node", "id": 6121811551, "lat": 38.7822116, "lon": -90.5314075}, {"type": "node", "id": 6121811552, "lat": 38.7821595, "lon": -90.5315154}, {"type": "node", "id": 6121811553, "lat": 38.7822738, "lon": -90.5316063}, {"type": "node", "id": 6121811554, "lat": 38.7822441, "lon": -90.5316677}, {"type": "node", "id": 6121811555, "lat": 38.7821319, "lon": -90.5315785}, {"type": "node", "id": 6121811556, "lat": 38.7819251, "lon": -90.530769}, {"type": "node", "id": 6121811557, "lat": 38.7819866, "lon": -90.5306771}, {"type": "node", "id": 6121811558, "lat": 38.7820523, "lon": -90.5307494}, {"type": "node", "id": 6121811559, "lat": 38.782066, "lon": -90.530729}, {"type": "node", "id": 6121811560, "lat": 38.7821322, "lon": -90.530802}, {"type": "node", "id": 6121811561, "lat": 38.7821486, "lon": -90.5307775}, {"type": "node", "id": 6121811562, "lat": 38.7822644, "lon": -90.530905}, {"type": "node", "id": 6121811563, "lat": 38.7822808, "lon": -90.5308805}, {"type": "node", "id": 6121811564, "lat": 38.7823622, "lon": -90.5309702}, {"type": "node", "id": 6121811565, "lat": 38.7823038, "lon": -90.5310575}, {"type": "node", "id": 6121811566, "lat": 38.7822417, "lon": -90.5309891}, {"type": "node", "id": 6121811567, "lat": 38.7822237, "lon": -90.5310161}, {"type": "node", "id": 6121811568, "lat": 38.7821078, "lon": -90.5308884}, {"type": "node", "id": 6121811569, "lat": 38.782092, "lon": -90.530912}, {"type": "node", "id": 6121811570, "lat": 38.7820294, "lon": -90.530843}, {"type": "node", "id": 6121811571, "lat": 38.7820137, "lon": -90.5308665}, {"type": "node", "id": 6121844165, "lat": 38.7809252, "lon": -90.5270019}, {"type": "node", "id": 6121844166, "lat": 38.7810908, "lon": -90.5268656}, {"type": "node", "id": 6121844167, "lat": 38.7810339, "lon": -90.5267518}, {"type": "node", "id": 6121844168, "lat": 38.7817764, "lon": -90.5261408}, {"type": "node", "id": 6121844169, "lat": 38.7817668, "lon": -90.5261069}, {"type": "node", "id": 6121844170, "lat": 38.7818172, "lon": -90.5260656}, {"type": "node", "id": 6121844171, "lat": 38.7813339, "lon": -90.525098}, {"type": "node", "id": 6121844172, "lat": 38.7810027, "lon": -90.5253705}, {"type": "node", "id": 6121844173, "lat": 38.781052, "lon": -90.525469}, {"type": "node", "id": 6121844174, "lat": 38.7804191, "lon": -90.5259898}, {"type": "node", "id": 6121844175, "lat": 38.7819294, "lon": -90.5270743}, {"type": "node", "id": 6121844176, "lat": 38.781557, "lon": -90.5263486}, {"type": "node", "id": 6121844177, "lat": 38.7818026, "lon": -90.5261372}, {"type": "node", "id": 6121844178, "lat": 38.7821702, "lon": -90.5268669}, {"type": "node", "id": 6135360361, "lat": 38.7828172, "lon": -90.532721}, {"type": "node", "id": 6135360362, "lat": 38.7828042, "lon": -90.5328478}, {"type": "node", "id": 6135360363, "lat": 38.7826302, "lon": -90.5328186}, {"type": "node", "id": 6135360364, "lat": 38.7826432, "lon": -90.5326918}, {"type": "node", "id": 6135360365, "lat": 38.7836192, "lon": -90.5331888}, {"type": "node", "id": 6135360366, "lat": 38.7834039, "lon": -90.5330158}, {"type": "node", "id": 6135360367, "lat": 38.7834642, "lon": -90.5328921}, {"type": "node", "id": 6135360368, "lat": 38.7835439, "lon": -90.5329561}, {"type": "node", "id": 6135360369, "lat": 38.7835657, "lon": -90.5329113}, {"type": "node", "id": 6135360370, "lat": 38.7835972, "lon": -90.5329366}, {"type": "node", "id": 6135360371, "lat": 38.7835741, "lon": -90.5329841}, {"type": "node", "id": 6135360372, "lat": 38.7836783, "lon": -90.5330678}, {"type": "node", "id": 6135360373, "lat": 38.7843252, "lon": -90.5335278}, {"type": "node", "id": 6135360374, "lat": 38.7841051, "lon": -90.5334973}, {"type": "node", "id": 6135360375, "lat": 38.7841173, "lon": -90.5333524}, {"type": "node", "id": 6135360376, "lat": 38.7843375, "lon": -90.533383}, {"type": "node", "id": 6135360377, "lat": 38.7847133, "lon": -90.5338634}, {"type": "node", "id": 6135360378, "lat": 38.7847898, "lon": -90.5337164}, {"type": "node", "id": 6135360379, "lat": 38.7847147, "lon": -90.5336521}, {"type": "node", "id": 6135360380, "lat": 38.7847064, "lon": -90.533668}, {"type": "node", "id": 6135360381, "lat": 38.7846097, "lon": -90.5335851}, {"type": "node", "id": 6135360382, "lat": 38.7845557, "lon": -90.5336888}, {"type": "node", "id": 6135360383, "lat": 38.7846518, "lon": -90.533771}, {"type": "node", "id": 6135360384, "lat": 38.7846375, "lon": -90.5337985}, {"type": "node", "id": 6372337932, "lat": 38.7702374, "lon": -90.5377226, "tags": {"addr:city": "Saint Charles", "addr:housenumber": "2189", "addr:postcode": "63303", "addr:street": "Graystone Drive", "source:addr": "https://gis.sccmo.opendata.arcgis.com/ (2018)"}}, {"type": "node", "id": 6372337933, "lat": 38.7731691, "lon": -90.5302701, "tags": {"addr:city": "Saint Charles", "addr:housenumber": "1992", "addr:postcode": "63303", "addr:street": "Graystone Drive", "source:addr": "https://gis.sccmo.opendata.arcgis.com/ (2018)"}}, {"type": "node", "id": 6372337934, "lat": 38.7693767, "lon": -90.5394797, "tags": {"addr:city": "Saint Charles", "addr:housenumber": "2215", "addr:postcode": "63303", "addr:street": "Graystone Drive", "source:addr": "https://gis.sccmo.opendata.arcgis.com/ (2018)"}}, {"type": "node", "id": 6372337935, "lat": 38.7691758, "lon": -90.539594, "tags": {"addr:city": "Saint Charles", "addr:housenumber": "2219", "addr:postcode": "63303", "addr:street": "Graystone Drive", "source:addr": "https://gis.sccmo.opendata.arcgis.com/ (2018)"}}, {"type": "node", "id": 6372337936, "lat": 38.7714883, "lon": -90.5302253, "tags": {"addr:city": "Saint Charles", "addr:housenumber": "2031", "addr:postcode": "63303", "addr:street": "Graystone Drive", "source:addr": "https://gis.sccmo.opendata.arcgis.com/ (2018)"}}, {"type": "node", "id": 6372337938, "lat": 38.7703741, "lon": -90.5365628, "tags": {"addr:city": "Saint Charles", "addr:housenumber": "2172", "addr:postcode": "63303", "addr:street": "Graystone Drive", "source:addr": "https://gis.sccmo.opendata.arcgis.com/ (2018)"}}, {"type": "node", "id": 6372337939, "lat": 38.7716996, "lon": -90.5303063, "tags": {"addr:city": "Saint Charles", "addr:housenumber": "2027", "addr:postcode": "63303", "addr:street": "Graystone Drive", "source:addr": "https://gis.sccmo.opendata.arcgis.com/ (2018)"}}, {"type": "node", "id": 6372337941, "lat": 38.7723995, "lon": -90.5305547, "tags": {"addr:city": "Saint Charles", "addr:housenumber": "2011", "addr:postcode": "63303", "addr:street": "Graystone Drive", "source:addr": "https://gis.sccmo.opendata.arcgis.com/ (2018)"}}, {"type": "node", "id": 6372337942, "lat": 38.7700051, "lon": -90.5346942, "tags": {"addr:city": "Saint Charles", "addr:housenumber": "2142", "addr:postcode": "63303", "addr:street": "Graystone Drive", "source:addr": "https://gis.sccmo.opendata.arcgis.com/ (2018)"}}, {"type": "node", "id": 6372337944, "lat": 38.7718579, "lon": -90.5303589, "tags": {"addr:city": "Saint Charles", "addr:housenumber": "2023", "addr:postcode": "63303", "addr:street": "Graystone Drive", "source:addr": "https://gis.sccmo.opendata.arcgis.com/ (2018)"}}, {"type": "node", "id": 6372337945, "lat": 38.7695265, "lon": -90.5392379, "tags": {"addr:city": "Saint Charles", "addr:housenumber": "2211", "addr:postcode": "63303", "addr:street": "Graystone Drive", "source:addr": "https://gis.sccmo.opendata.arcgis.com/ (2018)"}}, {"type": "node", "id": 6372337946, "lat": 38.7704468, "lon": -90.5373516, "tags": {"addr:city": "Saint Charles", "addr:housenumber": "2181", "addr:postcode": "63303", "addr:street": "Graystone Drive", "source:addr": "https://gis.sccmo.opendata.arcgis.com/ (2018)"}}, {"type": "node", "id": 6372337947, "lat": 38.7722054, "lon": -90.5304978, "tags": {"addr:city": "Saint Charles", "addr:housenumber": "2015", "addr:postcode": "63303", "addr:street": "Graystone Drive", "source:addr": "https://gis.sccmo.opendata.arcgis.com/ (2018)"}}, {"type": "node", "id": 6372337948, "lat": 38.7696497, "lon": -90.5390185, "tags": {"addr:city": "Saint Charles", "addr:housenumber": "2207", "addr:postcode": "63303", "addr:street": "Graystone Drive", "source:addr": "https://gis.sccmo.opendata.arcgis.com/ (2018)"}}, {"type": "node", "id": 6372337949, "lat": 38.7686171, "lon": -90.5322884, "tags": {"addr:city": "Saint Charles", "addr:housenumber": "2104", "addr:postcode": "63303", "addr:street": "Graystone Drive", "source:addr": "https://gis.sccmo.opendata.arcgis.com/ (2018)"}}, {"type": "node", "id": 6372337950, "lat": 38.7720548, "lon": -90.5304491, "tags": {"addr:city": "Saint Charles", "addr:housenumber": "2019", "addr:postcode": "63303", "addr:street": "Graystone Drive", "source:addr": "https://gis.sccmo.opendata.arcgis.com/ (2018)"}}, {"type": "node", "id": 6372337951, "lat": 38.7693139, "lon": -90.5387089, "tags": {"addr:city": "Saint Charles", "addr:housenumber": "2208", "addr:postcode": "63303", "addr:street": "Graystone Drive", "source:addr": "https://gis.sccmo.opendata.arcgis.com/ (2018)"}}, {"type": "node", "id": 6372337952, "lat": 38.7703459, "lon": -90.5374939, "tags": {"addr:city": "Saint Charles", "addr:housenumber": "2185", "addr:postcode": "63303", "addr:street": "Graystone Drive", "source:addr": "https://gis.sccmo.opendata.arcgis.com/ (2018)"}}, {"type": "node", "id": 6372337953, "lat": 38.7687081, "lon": -90.5320248, "tags": {"addr:city": "Saint Charles", "addr:housenumber": "2100", "addr:postcode": "63303", "addr:street": "Graystone Drive", "source:addr": "https://gis.sccmo.opendata.arcgis.com/ (2018)"}}, {"type": "node", "id": 6372337954, "lat": 38.7700123, "lon": -90.5372943, "tags": {"addr:city": "Saint Charles", "addr:housenumber": "2184", "addr:postcode": "63303", "addr:street": "Graystone Drive", "source:addr": "https://gis.sccmo.opendata.arcgis.com/ (2018)"}}, {"type": "node", "id": 6372337956, "lat": 38.7701813, "lon": -90.5297003, "tags": {"addr:city": "Saint Charles", "addr:housenumber": "2056", "addr:postcode": "63303", "addr:street": "Graystone Drive", "source:addr": "https://gis.sccmo.opendata.arcgis.com/ (2018)"}}, {"type": "node", "id": 6372337957, "lat": 38.7694614, "lon": -90.5341148, "tags": {"addr:city": "Saint Charles", "addr:housenumber": "2134", "addr:postcode": "63303", "addr:street": "Graystone Drive", "source:addr": "https://gis.sccmo.opendata.arcgis.com/ (2018)"}}, {"type": "node", "id": 6372337958, "lat": 38.7695397, "lon": -90.530456, "tags": {"addr:city": "Saint Charles", "addr:housenumber": "2072", "addr:postcode": "63303", "addr:street": "Graystone Drive", "source:addr": "https://gis.sccmo.opendata.arcgis.com/ (2018)"}}, {"type": "node", "id": 6372337959, "lat": 38.7701442, "lon": -90.5370463, "tags": {"addr:city": "Saint Charles", "addr:housenumber": "2180", "addr:postcode": "63303", "addr:street": "Graystone Drive", "source:addr": "https://gis.sccmo.opendata.arcgis.com/ (2018)"}}, {"type": "node", "id": 6372337960, "lat": 38.7701303, "lon": -90.5303188, "tags": {"addr:city": "Saint Charles", "addr:housenumber": "2063", "addr:postcode": "63303", "addr:street": "Graystone Drive", "source:addr": "https://gis.sccmo.opendata.arcgis.com/ (2018)"}}, {"type": "node", "id": 6372337961, "lat": 38.7705494, "lon": -90.5295242, "tags": {"addr:city": "Saint Charles", "addr:housenumber": "2048", "addr:postcode": "63303", "addr:street": "Graystone Drive", "source:addr": "https://gis.sccmo.opendata.arcgis.com/ (2018)"}}, {"type": "node", "id": 6372337962, "lat": 38.7700014, "lon": -90.5298492, "tags": {"addr:city": "Saint Charles", "addr:housenumber": "2060", "addr:postcode": "63303", "addr:street": "Graystone Drive", "source:addr": "https://gis.sccmo.opendata.arcgis.com/ (2018)"}}, {"type": "node", "id": 6372337963, "lat": 38.7701167, "lon": -90.5380188, "tags": {"addr:city": "Saint Charles", "addr:housenumber": "2193", "addr:postcode": "63303", "addr:street": "Graystone Drive", "source:addr": "https://gis.sccmo.opendata.arcgis.com/ (2018)"}}, {"type": "node", "id": 6372337964, "lat": 38.7707813, "lon": -90.5366225, "tags": {"addr:city": "Saint Charles", "addr:housenumber": "2169", "addr:postcode": "63303", "addr:street": "Graystone Drive", "source:addr": "https://gis.sccmo.opendata.arcgis.com/ (2018)"}}, {"type": "node", "id": 6372337965, "lat": 38.7729609, "lon": -90.5307456, "tags": {"addr:city": "Saint Charles", "addr:housenumber": "1999", "addr:postcode": "63303", "addr:street": "Graystone Drive", "source:addr": "https://gis.sccmo.opendata.arcgis.com/ (2018)"}}, {"type": "node", "id": 6372337966, "lat": 38.7727692, "lon": -90.5306752, "tags": {"addr:city": "Saint Charles", "addr:housenumber": "2003", "addr:postcode": "63303", "addr:street": "Graystone Drive", "source:addr": "https://gis.sccmo.opendata.arcgis.com/ (2018)"}}, {"type": "node", "id": 6372337967, "lat": 38.7691639, "lon": -90.5311357, "tags": {"addr:city": "Saint Charles", "addr:housenumber": "2084", "addr:postcode": "63303", "addr:street": "Graystone Drive", "source:addr": "https://gis.sccmo.opendata.arcgis.com/ (2018)"}}, {"type": "node", "id": 6372337968, "lat": 38.7698874, "lon": -90.5375349, "tags": {"addr:city": "Saint Charles", "addr:housenumber": "2188", "addr:postcode": "63303", "addr:street": "Graystone Drive", "source:addr": "https://gis.sccmo.opendata.arcgis.com/ (2018)"}}, {"type": "node", "id": 6372337969, "lat": 38.7692258, "lon": -90.5333355, "tags": {"addr:city": "Saint Charles", "addr:housenumber": "2121", "addr:postcode": "63303", "addr:street": "Graystone Drive", "source:addr": "https://gis.sccmo.opendata.arcgis.com/ (2018)"}}, {"type": "node", "id": 6372337970, "lat": 38.7727595, "lon": -90.530149, "tags": {"addr:city": "Saint Charles", "addr:housenumber": "2000", "addr:postcode": "63303", "addr:street": "Graystone Drive", "source:addr": "https://gis.sccmo.opendata.arcgis.com/ (2018)"}}, {"type": "node", "id": 6372337971, "lat": 38.7705716, "lon": -90.5370141, "tags": {"addr:city": "Saint Charles", "addr:housenumber": "2177", "addr:postcode": "63303", "addr:street": "Graystone Drive", "source:addr": "https://gis.sccmo.opendata.arcgis.com/ (2018)"}}, {"type": "node", "id": 6372337973, "lat": 38.771782, "lon": -90.5297926, "tags": {"addr:city": "Saint Charles", "addr:housenumber": "2028", "addr:postcode": "63303", "addr:street": "Graystone Drive", "source:addr": "https://gis.sccmo.opendata.arcgis.com/ (2018)"}}, {"type": "node", "id": 6372337975, "lat": 38.7688394, "lon": -90.5317753, "tags": {"addr:city": "Saint Charles", "addr:housenumber": "2096", "addr:postcode": "63303", "addr:street": "Graystone Drive", "source:addr": "https://gis.sccmo.opendata.arcgis.com/ (2018)"}}, {"type": "node", "id": 6372337976, "lat": 38.7719636, "lon": -90.5298767, "tags": {"addr:city": "Saint Charles", "addr:housenumber": "2024", "addr:postcode": "63303", "addr:street": "Graystone Drive", "source:addr": "https://gis.sccmo.opendata.arcgis.com/ (2018)"}}, {"type": "node", "id": 6372337977, "lat": 38.7686548, "lon": -90.5331993, "tags": {"addr:city": "Saint Charles", "addr:housenumber": "2114", "addr:postcode": "63303", "addr:street": "Graystone Drive", "source:addr": "https://gis.sccmo.opendata.arcgis.com/ (2018)"}}, {"type": "node", "id": 6372337978, "lat": 38.7737837, "lon": -90.5301805, "tags": {"addr:city": "Saint Charles", "addr:housenumber": "1980", "addr:postcode": "63303", "addr:street": "Graystone Drive", "source:addr": "https://gis.sccmo.opendata.arcgis.com/ (2018)"}}, {"type": "node", "id": 6372337982, "lat": 38.7704602, "lon": -90.5363172, "tags": {"addr:city": "Saint Charles", "addr:housenumber": "2168", "addr:postcode": "63303", "addr:street": "Graystone Drive", "source:addr": "https://gis.sccmo.opendata.arcgis.com/ (2018)"}}, {"type": "node", "id": 6372337984, "lat": 38.7704942, "lon": -90.5360444, "tags": {"addr:city": "Saint Charles", "addr:housenumber": "2164", "addr:postcode": "63303", "addr:street": "Graystone Drive", "source:addr": "https://gis.sccmo.opendata.arcgis.com/ (2018)"}}, {"type": "node", "id": 6372337985, "lat": 38.7692041, "lon": -90.5389496, "tags": {"addr:city": "Saint Charles", "addr:housenumber": "2212", "addr:postcode": "63303", "addr:street": "Graystone Drive", "source:addr": "https://gis.sccmo.opendata.arcgis.com/ (2018)"}}, {"type": "node", "id": 6372337986, "lat": 38.7690364, "lon": -90.5391217, "tags": {"addr:city": "Saint Charles", "addr:housenumber": "2216", "addr:postcode": "63303", "addr:street": "Graystone Drive", "source:addr": "https://gis.sccmo.opendata.arcgis.com/ (2018)"}}, {"type": "node", "id": 6372337987, "lat": 38.7743262, "lon": -90.5297582, "tags": {"addr:city": "Saint Charles", "addr:housenumber": "1968", "addr:postcode": "63303", "addr:street": "Graystone Drive", "source:addr": "https://gis.sccmo.opendata.arcgis.com/ (2018)"}}, {"type": "node", "id": 6372337988, "lat": 38.7743491, "lon": -90.530405, "tags": {"addr:city": "Saint Charles", "addr:housenumber": "1971", "addr:postcode": "63303", "addr:street": "Graystone Drive", "source:addr": "https://gis.sccmo.opendata.arcgis.com/ (2018)"}}, {"type": "node", "id": 6372337989, "lat": 38.7697662, "lon": -90.5377696, "tags": {"addr:city": "Saint Charles", "addr:housenumber": "2192", "addr:postcode": "63303", "addr:street": "Graystone Drive", "source:addr": "https://gis.sccmo.opendata.arcgis.com/ (2018)"}}, {"type": "node", "id": 6372337990, "lat": 38.7698954, "lon": -90.5384629, "tags": {"addr:city": "Saint Charles", "addr:housenumber": "2201", "addr:postcode": "63303", "addr:street": "Graystone Drive", "source:addr": "https://gis.sccmo.opendata.arcgis.com/ (2018)"}}, {"type": "node", "id": 6372337991, "lat": 38.7721206, "lon": -90.5299592, "tags": {"addr:city": "Saint Charles", "addr:housenumber": "2020", "addr:postcode": "63303", "addr:street": "Graystone Drive", "source:addr": "https://gis.sccmo.opendata.arcgis.com/ (2018)"}}, {"type": "node", "id": 6372337992, "lat": 38.7731586, "lon": -90.5307799, "tags": {"addr:city": "Saint Charles", "addr:housenumber": "1995", "addr:postcode": "63303", "addr:street": "Graystone Drive", "source:addr": "https://gis.sccmo.opendata.arcgis.com/ (2018)"}}, {"type": "node", "id": 6372337994, "lat": 38.7700099, "lon": -90.5382539, "tags": {"addr:city": "Saint Charles", "addr:housenumber": "2197", "addr:postcode": "63303", "addr:street": "Graystone Drive", "source:addr": "https://gis.sccmo.opendata.arcgis.com/ (2018)"}}, {"type": "node", "id": 6372337996, "lat": 38.7736145, "lon": -90.5308004, "tags": {"addr:city": "Saint Charles", "addr:housenumber": "1987", "addr:postcode": "63303", "addr:street": "Graystone Drive", "addr:unit": "32", "source:addr": "https://gis.sccmo.opendata.arcgis.com/ (2018)"}}, {"type": "node", "id": 6372337997, "lat": 38.7733801, "lon": -90.530291, "tags": {"addr:city": "Saint Charles", "addr:housenumber": "1988", "addr:postcode": "63303", "addr:street": "Graystone Drive", "source:addr": "https://gis.sccmo.opendata.arcgis.com/ (2018)"}}, {"type": "node", "id": 6372337998, "lat": 38.770885, "lon": -90.5360655, "tags": {"addr:city": "Saint Charles", "addr:housenumber": "2161", "addr:postcode": "63303", "addr:street": "Graystone Drive", "source:addr": "https://gis.sccmo.opendata.arcgis.com/ (2018)"}}, {"type": "node", "id": 6372337999, "lat": 38.7707796, "lon": -90.529554, "tags": {"addr:city": "Saint Charles", "addr:housenumber": "2044", "addr:postcode": "63303", "addr:street": "Graystone Drive", "source:addr": "https://gis.sccmo.opendata.arcgis.com/ (2018)"}}, {"type": "node", "id": 6372338000, "lat": 38.7735983, "lon": -90.5302842, "tags": {"addr:city": "Saint Charles", "addr:housenumber": "1984", "addr:postcode": "63303", "addr:street": "Graystone Drive", "source:addr": "https://gis.sccmo.opendata.arcgis.com/ (2018)"}}, {"type": "node", "id": 6372338001, "lat": 38.7709532, "lon": -90.5295295, "tags": {"addr:city": "Saint Charles", "addr:housenumber": "2040", "addr:postcode": "63303", "addr:street": "Graystone Drive", "source:addr": "https://gis.sccmo.opendata.arcgis.com/ (2018)"}}, {"type": "node", "id": 6372338002, "lat": 38.7689623, "lon": -90.5326375, "tags": {"addr:city": "Saint Charles", "addr:housenumber": "2109", "addr:postcode": "63303", "addr:street": "Graystone Drive", "source:addr": "https://gis.sccmo.opendata.arcgis.com/ (2018)"}}, {"type": "node", "id": 6372338003, "lat": 38.773416, "lon": -90.5307912, "tags": {"addr:city": "Saint Charles", "addr:housenumber": "1991", "addr:postcode": "63303", "addr:street": "Graystone Drive", "source:addr": "https://gis.sccmo.opendata.arcgis.com/ (2018)"}}, {"type": "node", "id": 6372338004, "lat": 38.7744585, "lon": -90.5295984, "tags": {"addr:city": "Saint Charles", "addr:housenumber": "1964", "addr:postcode": "63303", "addr:street": "Graystone Drive", "source:addr": "https://gis.sccmo.opendata.arcgis.com/ (2018)"}}, {"type": "node", "id": 6372338005, "lat": 38.7690839, "lon": -90.5331122, "tags": {"addr:city": "Saint Charles", "addr:housenumber": "2117", "addr:postcode": "63303", "addr:street": "Graystone Drive", "source:addr": "https://gis.sccmo.opendata.arcgis.com/ (2018)"}}, {"type": "node", "id": 6372338006, "lat": 38.7726088, "lon": -90.5306607, "tags": {"addr:city": "Saint Charles", "addr:housenumber": "2007", "addr:postcode": "63303", "addr:street": "Graystone Drive", "source:addr": "https://gis.sccmo.opendata.arcgis.com/ (2018)"}}, {"type": "node", "id": 6372338007, "lat": 38.7692887, "lon": -90.5309262, "tags": {"addr:city": "Saint Charles", "addr:housenumber": "2080", "addr:postcode": "63303", "addr:street": "Graystone Drive", "source:addr": "https://gis.sccmo.opendata.arcgis.com/ (2018)"}}, {"type": "node", "id": 6372338008, "lat": 38.768992, "lon": -90.5328989, "tags": {"addr:city": "Saint Charles", "addr:housenumber": "2113", "addr:postcode": "63303", "addr:street": "Graystone Drive", "source:addr": "https://gis.sccmo.opendata.arcgis.com/ (2018)"}}, {"type": "node", "id": 6372338011, "lat": 38.7710372, "lon": -90.5301033, "tags": {"addr:city": "Saint Charles", "addr:housenumber": "2043", "addr:postcode": "63303", "addr:street": "Graystone Drive", "source:addr": "https://gis.sccmo.opendata.arcgis.com/ (2018)"}}, {"type": "node", "id": 6372338012, "lat": 38.7703374, "lon": -90.5296057, "tags": {"addr:city": "Saint Charles", "addr:housenumber": "2052", "addr:postcode": "63303", "addr:street": "Graystone Drive", "source:addr": "https://gis.sccmo.opendata.arcgis.com/ (2018)"}}, {"type": "node", "id": 6372338013, "lat": 38.7694178, "lon": -90.5306894, "tags": {"addr:city": "Saint Charles", "addr:housenumber": "2076", "addr:postcode": "63303", "addr:street": "Graystone Drive", "source:addr": "https://gis.sccmo.opendata.arcgis.com/ (2018)"}}, {"type": "node", "id": 6372338014, "lat": 38.7698354, "lon": -90.5307782, "tags": {"addr:city": "Saint Charles", "addr:housenumber": "2071", "addr:postcode": "63303", "addr:street": "Graystone Drive", "source:addr": "https://gis.sccmo.opendata.arcgis.com/ (2018)"}}, {"type": "node", "id": 6372338015, "lat": 38.7696853, "lon": -90.5302044, "tags": {"addr:city": "Saint Charles", "addr:housenumber": "2068", "addr:postcode": "63303", "addr:street": "Graystone Drive", "source:addr": "https://gis.sccmo.opendata.arcgis.com/ (2018)"}}, {"type": "node", "id": 6372338019, "lat": 38.7708896, "lon": -90.5358372, "tags": {"addr:city": "Saint Charles", "addr:housenumber": "2157", "addr:postcode": "63303", "addr:street": "Graystone Drive", "source:addr": "https://gis.sccmo.opendata.arcgis.com/ (2018)"}}, {"type": "node", "id": 6372338020, "lat": 38.7698405, "lon": -90.5299996, "tags": {"addr:city": "Saint Charles", "addr:housenumber": "2064", "addr:postcode": "63303", "addr:street": "Graystone Drive", "source:addr": "https://gis.sccmo.opendata.arcgis.com/ (2018)"}}, {"type": "node", "id": 6372338021, "lat": 38.7702759, "lon": -90.5351067, "tags": {"addr:city": "Saint Charles", "addr:housenumber": "2150", "addr:postcode": "63303", "addr:street": "Graystone Drive", "source:addr": "https://gis.sccmo.opendata.arcgis.com/ (2018)"}}, {"type": "node", "id": 6372338022, "lat": 38.7703094, "lon": -90.5301728, "tags": {"addr:city": "Saint Charles", "addr:housenumber": "2059", "addr:postcode": "63303", "addr:street": "Graystone Drive", "source:addr": "https://gis.sccmo.opendata.arcgis.com/ (2018)"}}, {"type": "node", "id": 6372338024, "lat": 38.7703936, "lon": -90.5354245, "tags": {"addr:city": "Saint Charles", "addr:housenumber": "2154", "addr:postcode": "63303", "addr:street": "Graystone Drive", "source:addr": "https://gis.sccmo.opendata.arcgis.com/ (2018)"}}, {"type": "node", "id": 6372338026, "lat": 38.7707137, "lon": -90.5351047, "tags": {"addr:city": "Saint Charles", "addr:housenumber": "2153", "addr:postcode": "63303", "addr:street": "Graystone Drive", "source:addr": "https://gis.sccmo.opendata.arcgis.com/ (2018)"}}, {"type": "node", "id": 6372338027, "lat": 38.7729631, "lon": -90.5302367, "tags": {"addr:city": "Saint Charles", "addr:housenumber": "1996", "addr:postcode": "63303", "addr:street": "Graystone Drive", "source:addr": "https://gis.sccmo.opendata.arcgis.com/ (2018)"}}, {"type": "node", "id": 6372338028, "lat": 38.7737834, "lon": -90.530743, "tags": {"addr:city": "Saint Charles", "addr:housenumber": "1983", "addr:postcode": "63303", "addr:street": "Graystone Drive", "source:addr": "https://gis.sccmo.opendata.arcgis.com/ (2018)"}}, {"type": "node", "id": 6372338029, "lat": 38.7687519, "lon": -90.5334312, "tags": {"addr:city": "Saint Charles", "addr:housenumber": "2118", "addr:postcode": "63303", "addr:street": "Graystone Drive", "source:addr": "https://gis.sccmo.opendata.arcgis.com/ (2018)"}}, {"type": "node", "id": 6372338030, "lat": 38.7702348, "lon": -90.5368454, "tags": {"addr:city": "Saint Charles", "addr:housenumber": "2176", "addr:postcode": "63303", "addr:street": "Graystone Drive", "source:addr": "https://gis.sccmo.opendata.arcgis.com/ (2018)"}}, {"type": "node", "id": 6372338031, "lat": 38.7739716, "lon": -90.5306588, "tags": {"addr:city": "Saint Charles", "addr:housenumber": "1979", "addr:postcode": "63303", "addr:street": "Graystone Drive", "source:addr": "https://gis.sccmo.opendata.arcgis.com/ (2018)"}}, {"type": "node", "id": 6372338032, "lat": 38.768995, "lon": -90.5397117, "tags": {"addr:city": "Saint Charles", "addr:housenumber": "2223", "addr:postcode": "63303", "addr:street": "Graystone Drive", "source:addr": "https://gis.sccmo.opendata.arcgis.com/ (2018)"}}, {"type": "node", "id": 6372338033, "lat": 38.7704431, "lon": -90.5345986, "tags": {"addr:city": "Saint Charles", "addr:housenumber": "2145", "addr:postcode": "63303", "addr:street": "Graystone Drive", "source:addr": "https://gis.sccmo.opendata.arcgis.com/ (2018)"}}, {"type": "node", "id": 6372338034, "lat": 38.769656, "lon": -90.5380388, "tags": {"addr:city": "Saint Charles", "addr:housenumber": "2196", "addr:postcode": "63303", "addr:street": "Graystone Drive", "source:addr": "https://gis.sccmo.opendata.arcgis.com/ (2018)"}}, {"type": "node", "id": 6372338035, "lat": 38.7741726, "lon": -90.5299279, "tags": {"addr:city": "Saint Charles", "addr:housenumber": "1972", "addr:postcode": "63303", "addr:street": "Graystone Drive", "source:addr": "https://gis.sccmo.opendata.arcgis.com/ (2018)"}}, {"type": "node", "id": 6372338036, "lat": 38.7739717, "lon": -90.5301074, "tags": {"addr:city": "Saint Charles", "addr:housenumber": "1976", "addr:postcode": "63303", "addr:street": "Graystone Drive", "source:addr": "https://gis.sccmo.opendata.arcgis.com/ (2018)"}}, {"type": "node", "id": 6372338037, "lat": 38.7742041, "lon": -90.5305341, "tags": {"addr:city": "Saint Charles", "addr:housenumber": "1975", "addr:postcode": "63303", "addr:street": "Graystone Drive", "source:addr": "https://gis.sccmo.opendata.arcgis.com/ (2018)"}}, {"type": "node", "id": 6372338038, "lat": 38.7692655, "lon": -90.5339621, "tags": {"addr:city": "Saint Charles", "addr:housenumber": "2130", "addr:postcode": "63303", "addr:street": "Graystone Drive", "source:addr": "https://gis.sccmo.opendata.arcgis.com/ (2018)"}}, {"type": "node", "id": 6372338040, "lat": 38.7691012, "lon": -90.5338062, "tags": {"addr:city": "Saint Charles", "addr:housenumber": "2126", "addr:postcode": "63303", "addr:street": "Graystone Drive", "source:addr": "https://gis.sccmo.opendata.arcgis.com/ (2018)"}}, {"type": "node", "id": 6372338041, "lat": 38.7689324, "lon": -90.5336592, "tags": {"addr:city": "Saint Charles", "addr:housenumber": "2122", "addr:postcode": "63303", "addr:street": "Graystone Drive", "source:addr": "https://gis.sccmo.opendata.arcgis.com/ (2018)"}}, {"type": "node", "id": 6372338042, "lat": 38.7684334, "lon": -90.5394263, "tags": {"addr:city": "Saint Charles", "addr:housenumber": "2228", "addr:postcode": "63303", "addr:street": "Graystone Drive", "source:addr": "https://gis.sccmo.opendata.arcgis.com/ (2018)"}}, {"type": "node", "id": 6372338043, "lat": 38.7688404, "lon": -90.5392288, "tags": {"addr:city": "Saint Charles", "addr:housenumber": "2220", "addr:postcode": "63303", "addr:street": "Graystone Drive", "source:addr": "https://gis.sccmo.opendata.arcgis.com/ (2018)"}}, {"type": "node", "id": 6372338044, "lat": 38.768621, "lon": -90.5393493, "tags": {"addr:city": "Saint Charles", "addr:housenumber": "2224", "addr:postcode": "63303", "addr:street": "Graystone Drive", "source:addr": "https://gis.sccmo.opendata.arcgis.com/ (2018)"}}, {"type": "node", "id": 6372338045, "lat": 38.7690639, "lon": -90.53134, "tags": {"addr:city": "Saint Charles", "addr:housenumber": "2088", "addr:postcode": "63303", "addr:street": "Graystone Drive", "source:addr": "https://gis.sccmo.opendata.arcgis.com/ (2018)"}}, {"type": "node", "id": 6372338046, "lat": 38.7689254, "lon": -90.5315691, "tags": {"addr:city": "Saint Charles", "addr:housenumber": "2092", "addr:postcode": "63303", "addr:street": "Graystone Drive", "source:addr": "https://gis.sccmo.opendata.arcgis.com/ (2018)"}}, {"type": "node", "id": 6372338049, "lat": 38.7708681, "lon": -90.5300506, "tags": {"addr:city": "Saint Charles", "addr:housenumber": "2047", "addr:postcode": "63303", "addr:street": "Graystone Drive", "source:addr": "https://gis.sccmo.opendata.arcgis.com/ (2018)"}}, {"type": "node", "id": 6372338050, "lat": 38.769996, "lon": -90.5305446, "tags": {"addr:city": "Saint Charles", "addr:housenumber": "2067", "addr:postcode": "63303", "addr:street": "Graystone Drive", "source:addr": "https://gis.sccmo.opendata.arcgis.com/ (2018)"}}, {"type": "node", "id": 6372338051, "lat": 38.7695502, "lon": -90.5382089, "tags": {"addr:city": "Saint Charles", "addr:housenumber": "2200", "addr:postcode": "63303", "addr:street": "Graystone Drive", "source:addr": "https://gis.sccmo.opendata.arcgis.com/ (2018)"}}, {"type": "node", "id": 6372338052, "lat": 38.7708606, "lon": -90.5363569, "tags": {"addr:city": "Saint Charles", "addr:housenumber": "2165", "addr:postcode": "63303", "addr:street": "Graystone Drive", "source:addr": "https://gis.sccmo.opendata.arcgis.com/ (2018)"}}, {"type": "node", "id": 6372338056, "lat": 38.7701697, "lon": -90.5349139, "tags": {"addr:city": "Saint Charles", "addr:housenumber": "2146", "addr:postcode": "63303", "addr:street": "Graystone Drive", "source:addr": "https://gis.sccmo.opendata.arcgis.com/ (2018)"}}, {"type": "node", "id": 6372338057, "lat": 38.769452, "lon": -90.5384512, "tags": {"addr:city": "Saint Charles", "addr:housenumber": "2204", "addr:postcode": "63303", "addr:street": "Graystone Drive", "source:addr": "https://gis.sccmo.opendata.arcgis.com/ (2018)"}}, {"type": "node", "id": 6372338059, "lat": 38.7706873, "lon": -90.5367975, "tags": {"addr:city": "Saint Charles", "addr:housenumber": "2173", "addr:postcode": "63303", "addr:street": "Graystone Drive", "source:addr": "https://gis.sccmo.opendata.arcgis.com/ (2018)"}}, {"type": "node", "id": 6396968648, "lat": 38.7695674, "lon": -90.5242782}, {"type": "node", "id": 6396968649, "lat": 38.7696609, "lon": -90.5240993}, {"type": "node", "id": 6396968650, "lat": 38.770026, "lon": -90.5244132}, {"type": "node", "id": 6396968651, "lat": 38.7699325, "lon": -90.5245921}, {"type": "node", "id": 6504957125, "lat": 38.7752993, "lon": -90.5338013}, {"type": "node", "id": 6504957126, "lat": 38.7752726, "lon": -90.5338939}, {"type": "node", "id": 6504957127, "lat": 38.7751564, "lon": -90.5338388}, {"type": "node", "id": 6504957128, "lat": 38.7751831, "lon": -90.5337462}, {"type": "node", "id": 6506816346, "lat": 38.7846322, "lon": -90.5386292}, {"type": "node", "id": 6506816347, "lat": 38.7847838, "lon": -90.5386236}, {"type": "node", "id": 6506816348, "lat": 38.7849062, "lon": -90.5383023}, {"type": "node", "id": 6506816349, "lat": 38.7848619, "lon": -90.5380457}, {"type": "node", "id": 6506816350, "lat": 38.7849807, "lon": -90.538005}, {"type": "node", "id": 6506816351, "lat": 38.7849531, "lon": -90.5378776}, {"type": "node", "id": 6506816352, "lat": 38.7848511, "lon": -90.537913}, {"type": "node", "id": 6506816353, "lat": 38.7847793, "lon": -90.5375874}, {"type": "node", "id": 6506816354, "lat": 38.78468, "lon": -90.5376228}, {"type": "node", "id": 6506816355, "lat": 38.7846575, "lon": -90.5375328}, {"type": "node", "id": 6506816356, "lat": 38.7845254, "lon": -90.5379635}, {"type": "node", "id": 6506816357, "lat": 38.7846403, "lon": -90.538401}, {"type": "node", "id": 6632370880, "lat": 38.7835538, "lon": -90.5329358}, {"type": "node", "id": 6632370881, "lat": 38.7835858, "lon": -90.5329601}, {"type": "node", "id": 6632388255, "lat": 38.784658, "lon": -90.5336265}, {"type": "node", "id": 6632388256, "lat": 38.7846034, "lon": -90.5337296}, {"type": "node", "id": 8718122049, "lat": 38.7780815, "lon": -90.5274099}, {"type": "node", "id": 8718122050, "lat": 38.7780956, "lon": -90.5273811}, {"type": "node", "id": 8718122051, "lat": 38.7780835, "lon": -90.5273714}, {"type": "node", "id": 8718122052, "lat": 38.7781398, "lon": -90.5272562}, {"type": "node", "id": 8718122053, "lat": 38.7781509, "lon": -90.5272651}, {"type": "node", "id": 8718122054, "lat": 38.7781626, "lon": -90.5272412}, {"type": "node", "id": 8718122055, "lat": 38.7785366, "lon": -90.527542}, {"type": "node", "id": 8718122056, "lat": 38.7785304, "lon": -90.5275546}, {"type": "node", "id": 8718122057, "lat": 38.7785433, "lon": -90.527565}, {"type": "node", "id": 8718122058, "lat": 38.7785453, "lon": -90.5275609}, {"type": "node", "id": 8718122059, "lat": 38.7785726, "lon": -90.5275829}, {"type": "node", "id": 8718122060, "lat": 38.7785523, "lon": -90.5276245}, {"type": "node", "id": 8718122061, "lat": 38.7785577, "lon": -90.5276289}, {"type": "node", "id": 8718122062, "lat": 38.7785118, "lon": -90.5277228}, {"type": "node", "id": 8718122063, "lat": 38.7785056, "lon": -90.5277178}, {"type": "node", "id": 8718122064, "lat": 38.7784905, "lon": -90.5277487}, {"type": "node", "id": 8718122065, "lat": 38.7784868, "lon": -90.5277457}, {"type": "node", "id": 8718122066, "lat": 38.7784665, "lon": -90.5277874}, {"type": "node", "id": 8718122067, "lat": 38.7783511, "lon": -90.5276947}, {"type": "node", "id": 8718122068, "lat": 38.7783749, "lon": -90.527646}, {"type": "node", "id": 9662351017, "lat": 38.7831623, "lon": -90.5350687, "tags": {"addr:housenumber": "2041", "addr:postcode": "63303", "addr:street": "Zumbehl Road", "amenity": "restaurant", "cuisine": "pizza;sandwich", "name": "PICKLEMAN'S", "opening_hours": "Mo-Su 10:00-22:00", "website": "https://www.picklemans.com/"}}, {"type": "node", "id": 9662382117, "lat": 38.7824792, "lon": -90.5344313, "tags": {"addr:city": "Saint Charles", "addr:housenumber": "2025", "addr:postcode": "63303", "addr:state": "MO", "addr:street": "Zumbehl Road", "amenity": "post_office", "brand": "The UPS Store", "brand:wikidata": "Q7771029", "name": "The UPS store", "shop": "copyshop", "short_name": "UPS", "website": "https://locations.theupsstore.com/mo/saint-charles/2025-zumbehl-rd?utm_source=Yext&utm_medium=organic&utm_campaign=Listings"}}, {"type": "node", "id": 9663796717, "lat": 38.7835496, "lon": -90.5352897, "tags": {"addr:housenumber": "2055", "addr:postcode": "63303", "addr:street": "Zumbehl Road", "name": "Chocolate Company", "name:en": "Chocolate Chocolate company", "shop": "chocolate"}}, {"type": "node", "id": 9663839317, "lat": 38.7771807, "lon": -90.5296004, "tags": {"addr:housenumber": "1821", "addr:postcode": "63303", "addr:street": "Zumbehl Road", "amenity": "restaurant", "cuisine": "barbecue", "name": "Woody's BBQ"}}, {"type": "node", "id": 9735398301, "lat": 38.7771201, "lon": -90.5265351}, {"type": "node", "id": 9735398302, "lat": 38.7771289, "lon": -90.526314}, {"type": "node", "id": 9735398303, "lat": 38.7770829, "lon": -90.5263165}, {"type": "node", "id": 9735398304, "lat": 38.7770819, "lon": -90.5262411}, {"type": "node", "id": 9735398305, "lat": 38.7769036, "lon": -90.526221}, {"type": "node", "id": 9735398306, "lat": 38.7768909, "lon": -90.5264559}, {"type": "node", "id": 9735398307, "lat": 38.7769928, "lon": -90.5264697}, {"type": "node", "id": 9735398308, "lat": 38.7769898, "lon": -90.5265238}, {"type": "node", "id": 9742414964, "lat": 38.7845769, "lon": -90.5379407}, {"type": "node", "id": 9742414965, "lat": 38.7844919, "lon": -90.5376002}, {"type": "node", "id": 9743786338, "lat": 38.7742776, "lon": -90.5340945}, {"type": "node", "id": 9743786339, "lat": 38.7741674, "lon": -90.5340031}, {"type": "node", "id": 9743786340, "lat": 38.7742301, "lon": -90.5338792}, {"type": "node", "id": 9743786341, "lat": 38.7743374, "lon": -90.5339712}, {"type": "node", "id": 9747577542, "lat": 38.7802004, "lon": -90.5359108}, {"type": "node", "id": 9747577543, "lat": 38.7801551, "lon": -90.5358989}, {"type": "node", "id": 9747577544, "lat": 38.7801638, "lon": -90.5358428}, {"type": "node", "id": 9747577545, "lat": 38.7802091, "lon": -90.535852}, {"type": "node", "id": 9769926657, "lat": 38.7840909, "lon": -90.5394463}, {"type": "node", "id": 9769926658, "lat": 38.7840593, "lon": -90.5395443}, {"type": "node", "id": 9769926659, "lat": 38.7842443, "lon": -90.5396529}, {"type": "node", "id": 9769926660, "lat": 38.7842776, "lon": -90.5395471, "tags": {"amenity": "bicycle_parking", "bicycle_parking": "building"}}, {"type": "node", "id": 9770035630, "lat": 38.7844639, "lon": -90.5381042, "tags": {"amenity": "bicycle_parking", "bicycle_parking": "building"}}, {"type": "node", "id": 9770035631, "lat": 38.7844378, "lon": -90.537954}, {"type": "node", "id": 9770035632, "lat": 38.7842359, "lon": -90.5380103}, {"type": "node", "id": 9770035633, "lat": 38.7842632, "lon": -90.5381647}, {"type": "node", "id": 9770035634, "lat": 38.7782151, "lon": -90.5348072}, {"type": "node", "id": 9770035635, "lat": 38.778228, "lon": -90.5347392}, {"type": "node", "id": 9770035636, "lat": 38.7781837, "lon": -90.5347254}, {"type": "node", "id": 9770035637, "lat": 38.7781713, "lon": -90.5347939}, {"type": "node", "id": 10784281144, "lat": 38.7848608, "lon": -90.5310913}, {"type": "node", "id": 10784281145, "lat": 38.7848163, "lon": -90.5312693}, {"type": "node", "id": 10784281146, "lat": 38.7847227, "lon": -90.5316842}, {"type": "node", "id": 10784281147, "lat": 38.7846635, "lon": -90.5319352}, {"type": "node", "id": 11909945935, "lat": 38.7850395, "lon": -90.5239432}, {"type": "node", "id": 11909945936, "lat": 38.7846601, "lon": -90.5241226}, {"type": "node", "id": 11909945937, "lat": 38.784586, "lon": -90.5238646}, {"type": "node", "id": 11909945938, "lat": 38.7849654, "lon": -90.5236853}, {"type": "node", "id": 11909948346, "lat": 38.7757246, "lon": -90.5292175}, {"type": "node", "id": 11909948347, "lat": 38.7754845, "lon": -90.5289936}, {"type": "node", "id": 11909948348, "lat": 38.7758692, "lon": -90.5283206}, {"type": "node", "id": 11909948349, "lat": 38.7759831, "lon": -90.5283716}, {"type": "node", "id": 11909948350, "lat": 38.7760138, "lon": -90.5282792}, {"type": "node", "id": 11909948351, "lat": 38.7760734, "lon": -90.5283292}, {"type": "node", "id": 11909948352, "lat": 38.7760085, "lon": -90.5284428}, {"type": "node", "id": 11909948353, "lat": 38.7760687, "lon": -90.5284405}, {"type": "node", "id": 11909948354, "lat": 38.7760998, "lon": -90.5284531}, {"type": "node", "id": 11909948355, "lat": 38.7761354, "lon": -90.5284746}, {"type": "node", "id": 11909948356, "lat": 38.7761738, "lon": -90.5285117}, {"type": "node", "id": 11909948357, "lat": 38.7761543, "lon": -90.5285474}, {"type": "node", "id": 11909948358, "lat": 38.7762382, "lon": -90.5286261}, {"type": "node", "id": 11909948359, "lat": 38.7762128, "lon": -90.5286784}, {"type": "node", "id": 11909948360, "lat": 38.7763108, "lon": -90.5287746}, {"type": "node", "id": 11909948361, "lat": 38.7762754, "lon": -90.5288443}, {"type": "node", "id": 11909948362, "lat": 38.7763297, "lon": -90.5288989}, {"type": "node", "id": 11909948363, "lat": 38.7762825, "lon": -90.5289814}, {"type": "node", "id": 11909948364, "lat": 38.7762264, "lon": -90.5289276}, {"type": "node", "id": 11909948365, "lat": 38.7762016, "lon": -90.5289731}, {"type": "node", "id": 11909948366, "lat": 38.7761378, "lon": -90.5289784}, {"type": "node", "id": 11909948367, "lat": 38.775999, "lon": -90.5288572}, {"type": "node", "id": 11909948368, "lat": 38.7759104, "lon": -90.5290125}, {"type": "node", "id": 11909960969, "lat": 38.7759305, "lon": -90.5290322}, {"type": "node", "id": 11909960970, "lat": 38.7758472, "lon": -90.5291754}, {"type": "node", "id": 11909960971, "lat": 38.7758071, "lon": -90.5291322}, {"type": "node", "id": 11909960972, "lat": 38.7757805, "lon": -90.5291776}, {"type": "node", "id": 11909960973, "lat": 38.7757468, "lon": -90.5291466}, {"type": "node", "id": 11909960974, "lat": 38.775898, "lon": -90.5283263}, {"type": "node", "id": 11909960975, "lat": 38.7759227, "lon": -90.5283325}, {"type": "node", "id": 11909960976, "lat": 38.7759466, "lon": -90.5283464}, {"type": "node", "id": 11909960977, "lat": 38.776035, "lon": -90.5284386}, {"type": "node", "id": 11992726804, "lat": 38.7845146, "lon": -90.5319138}, {"type": "node", "id": 11992726805, "lat": 38.7845532, "lon": -90.5317574}, {"type": "node", "id": 11992726806, "lat": 38.7845415, "lon": -90.5317527}, {"type": "node", "id": 11992726807, "lat": 38.7845727, "lon": -90.5316263}, {"type": "node", "id": 11992726808, "lat": 38.7845816, "lon": -90.5316299}, {"type": "node", "id": 11992726809, "lat": 38.7846085, "lon": -90.5315208}, {"type": "node", "id": 11992726810, "lat": 38.7847117, "lon": -90.5315627}, {"type": "node", "id": 11992726811, "lat": 38.7846855, "lon": -90.531669}, {"type": "node", "id": 11992726812, "lat": 38.7847701, "lon": -90.5317034}, {"type": "node", "id": 11992726813, "lat": 38.7847084, "lon": -90.5319535}, {"type": "node", "id": 11992726814, "lat": 38.7846328, "lon": -90.5319228}, {"type": "node", "id": 11992726815, "lat": 38.7846241, "lon": -90.5319582}, {"type": "node", "id": 11992726816, "lat": 38.7847845, "lon": -90.5312562}, {"type": "node", "id": 11992726817, "lat": 38.7848467, "lon": -90.5312818}, {"type": "node", "id": 11992726818, "lat": 38.7848911, "lon": -90.5311037}, {"type": "node", "id": 11992726819, "lat": 38.7848289, "lon": -90.5310782}, {"type": "node", "id": 11992726848, "lat": 38.7840739, "lon": -90.5316085}, {"type": "node", "id": 11992726849, "lat": 38.7842491, "lon": -90.5316804}, {"type": "node", "id": 11992726850, "lat": 38.7843147, "lon": -90.5313996}, {"type": "node", "id": 11992726851, "lat": 38.7841451, "lon": -90.5313294}, {"type": "node", "id": 11992726852, "lat": 38.7842313, "lon": -90.5316401, "tags": {"addr:city": "Saint Charles", "addr:housenumber": "2014", "addr:postcode": "63303", "addr:state": "MO", "addr:street": "Zumbehl Road", "amenity": "fast_food", "brand": "Chipotle", "brand:wikidata": "Q465751", "cuisine": "mexican", "drive_through": "yes", "name": "Chipotle", "official_name": "Chipotle Mexican Grill", "phone": "+1 (636) 723-9288", "takeaway": "yes", "website": "https://locations.chipotle.com/mo/saint-charles/2014-zumbehl-rd"}}, {"type": "node", "id": 11992726853, "lat": 38.7841779, "lon": -90.5316225, "tags": {"addr:city": "Saint Charles", "addr:housenumber": "2012", "addr:postcode": "63303", "addr:state": "MO", "addr:street": "Zumbehl Road", "amenity": "fast_food", "brand": "Jersey Mike's Subs", "brand:wikidata": "Q6184897", "cuisine": "sandwich", "drive_through": "no", "name": "Jersey Mike's Subs", "phone": "+1 (636) 352-4997", "short_name": "Jersey Mike's", "takeaway": "yes", "website": "https://www.jerseymikes.com/25014/st-charles-mo"}}, {"type": "node", "id": 11992741289, "lat": 38.7840975, "lon": -90.5316181}, {"type": "node", "id": 12312439227, "lat": 38.7845255, "lon": -90.537735}, {"type": "node", "id": 12312439233, "lat": 38.784453, "lon": -90.5380413}, {"type": "node", "id": 12312439235, "lat": 38.7849673, "lon": -90.5379433}, {"type": "way", "id": 157936811, "nodes": [1701687668, 1701687634, 1701687623, 1701687648, 1701687668], "tags": {"building": "yes"}}, {"type": "way", "id": 157936812, "nodes": [1701687634, 1701687677, 1701687601, 1701687607, 1701687652, 1701687618, 1701687688, 1701687686, 1701687684, 1701687604, 1701687634], "tags": {"building": "yes"}}, {"type": "way", "id": 157936817, "nodes": [1701687670, 1701687632, 1701687599, 1701687600, 1701687677, 1701687679, 1701687670], "tags": {"building": "yes"}}, {"type": "way", "id": 157937367, "nodes": [1701697648, 1701697593, 1701697683, 1701697808, 6116279958, 6116279957, 6116279956, 6116279953, 6116279952, 6116279951, 6116279950, 1701697799, 6116279949, 6116279948, 6116279947, 6116279964, 6116279955, 6116279954, 1701697768, 1701697737, 1701697648], "tags": {"addr:city": "Saint Charles", "addr:country": "US", "addr:housenumber": "2897", "addr:postcode": "63303", "addr:state": "MO", "addr:street": "Veterans Memorial Parkway", "brand": "Walmart", "brand:wikidata": "Q483551", "building": "yes", "name": "Walmart Supercenter", "opening_hours": "24/7", "operator": "Walmart", "operator:wikidata": "Q483551", "phone": "+1 636-947-8732", "ref": "1161", "ref:walmart": "1161", "shop": "supermarket", "website": "https://www.walmart.com/store/1161-saint-charles-mo"}}, {"type": "way", "id": 247476517, "nodes": [2543567798, 2543567799, 2543567800, 2543567801, 2543567802, 2543567804, 2543567805, 2543567807, 2543567809, 2543567811, 2543567813, 2543567814, 2543567798], "tags": {"building": "commercial"}}, {"type": "way", "id": 247476518, "nodes": [2543567799, 2543567816, 2543567818, 2543567801, 2543567800, 2543567799], "tags": {"building": "commercial"}}, {"type": "way", "id": 247476519, "nodes": [2543567818, 2543567820, 2543567822, 2543567823, 2543567816, 2543567818], "tags": {"building": "commercial"}}, {"type": "way", "id": 247476520, "nodes": [2543567826, 6116305537, 6116305536, 2543567827, 6116300997, 6116300996, 2543567826], "tags": {"addr:city": "Saint Charles", "addr:housenumber": "1095", "addr:postcode": "63303", "addr:state": "MO", "addr:street": "Regency Parkway", "building": "yes", "name": "Aldi", "opening_hours": "Mo-Su 09:00-20:00", "shop": "variety_store"}}, {"type": "way", "id": 247476521, "nodes": [2543567830, 2543567831, 2543567832, 2543567833, 2543567834, 2543567835, 2543567830], "tags": {"building": "commercial"}}, {"type": "way", "id": 652397472, "nodes": [6116279965, 6116279966, 6116279967, 6116279968, 6116279969, 6116279970, 6116279965], "tags": {"building": "yes", "shop": "tyres"}}, {"type": "way", "id": 652397474, "nodes": [6116279971, 6116279972, 6116279973, 6116279974, 6116279975, 6116279976, 6116279977, 6116279978, 6116279979, 6116279980, 6116279981, 6116279982, 6116279971], "tags": {"addr:city": "Saint Charles", "addr:housenumber": "2921", "addr:postcode": "63303", "addr:state": "MO", "addr:street": "South Service Road", "amenity": "restaurant", "brand": "Applebee's Neighborhood Grill & Bar", "brand:wikidata": "Q621532", "building": "yes", "cuisine": "american", "name": "Applebee's", "official_name": "Applebee's Neighborhood Grill & Bar", "opening_hours": "11:00-24:00"}}, {"type": "way", "id": 652397478, "nodes": [6116279983, 6116279984, 6116288985, 6116288986, 6116279983], "tags": {"addr:city": "Saint Charles", "addr:housenumber": "2893", "addr:postcode": "63303", "addr:state": "MO", "addr:street": "Veterans Memorial Parkway", "amenity": "clinic", "building": "yes", "healthcare": "clinic", "name": "Our Urgent Care", "opening_hours": "08:00-22:00"}}, {"type": "way", "id": 652399921, "nodes": [6116305532, 6116305533, 6116305534, 6116305535, 6116305532], "tags": {"addr:city": "Saint Charles", "addr:housenumber": "2931", "addr:postcode": "63303", "addr:state": "MO", "addr:street": "Veterans Memorial Parkway", "brand": "Mattress Firm", "brand:wikidata": "Q6791878", "building": "yes", "fixme:atp": "check if location still exists; no corresponding ATP location found", "name": "Mattress Firm", "shop": "bed"}}, {"type": "way", "id": 652399922, "nodes": [6116305538, 6116305541, 6116305540, 6116305539, 6116305538], "tags": {"addr:city": "Saint Charles", "addr:housenumber": "2941", "addr:postcode": "63303", "addr:state": "MO", "addr:street": "Veterans Memorial Parkway", "brand": "T-Mobile", "brand:wikidata": "Q3511885", "building": "retail", "name": "T-Mobile", "shop": "mobile_phone"}}, {"type": "way", "id": 652399926, "nodes": [6116305552, 6116305553, 6116305554, 6116305555, 6116305556, 6116305557, 6116305558, 6116305559, 6116305552], "tags": {"addr:alt_street": "South Service Road", "addr:city": "Saint Charles", "addr:housenumber": "2951", "addr:postcode": "63303", "addr:state": "MO", "addr:street": "Veterans Memorial Parkway", "amenity": "fast_food", "brand": "Captain D's", "brand:wikidata": "Q5036616", "building": "yes", "cuisine": "seafood", "drive_through": "yes", "name": "Captain D's", "official_name": "Captain D's Seafood Kitchen", "opening_hours": "10:30-22:00", "takeaway": "yes"}}, {"type": "way", "id": 652437294, "nodes": [6116544521, 6116544522, 6116544523, 6116544524, 6116544525, 6116544526, 6116544521], "tags": {"addr:city": "Saint Charles", "addr:housenumber": "2865", "addr:postcode": "63303", "addr:state": "MO", "addr:street": "Veterans Memorial Parkway", "amenity": "restaurant", "brand": "Black Bear Diner", "brand:wikidata": "Q4920343", "building": "yes", "cuisine": "american", "name": "Black Bear Diner"}}, {"type": "way", "id": 652437295, "nodes": [6116544527, 6116544528, 6116544529, 6116544530, 6116544531, 6116544532, 6116544527], "tags": {"addr:city": "Saint Charles", "addr:housenumber": "2861", "addr:postcode": "63303", "addr:state": "MO", "addr:street": "Veterans Memorial Parkway", "brand": "PetSmart", "brand:wikidata": "Q3307147", "building": "yes", "name": "PetSmart", "opening_hours": "Mo-Sa 09:00-21:00; Su 10:00-19:00", "phone": "+1 636-925-1717", "ref": "0257", "shop": "pet", "website": "https://www.petsmart.com/stores/us/mo/saint-charles-store0257.html"}}, {"type": "way", "id": 652437296, "nodes": [6116544533, 6116544534, 6116544535, 6116544536, 6116544537, 6116544538, 6116544533], "tags": {"addr:city": "Saint Charles", "addr:housenumber": "2845", "addr:postcode": "63303", "addr:state": "MO", "addr:street": "Veterans Memorial Parkway", "brand": "OfficeMax", "brand:wikidata": "Q7079111", "building": "yes", "name": "OfficeMax", "shop": "stationery"}}, {"type": "way", "id": 653194226, "nodes": [6121811522, 6121811523, 6121811524, 6121811525, 6121811522], "tags": {"addr:city": "Saint Charles", "addr:housenumber": "1998", "addr:postcode": "63303", "addr:state": "MO", "addr:street": "Zumbehl Road", "amenity": "restaurant", "brand": "Bob Evans", "brand:wikidata": "Q4932386", "building": "yes", "cuisine": "american", "name": "Bob Evans"}}, {"type": "way", "id": 653194229, "nodes": [6121811538, 6121811539, 6121811540, 6121811541, 6121811538], "tags": {"addr:city": "Saint Charles", "addr:housenumber": "1992", "addr:postcode": "63303", "addr:state": "MO", "addr:street": "Zumbehl Road", "amenity": "fast_food", "brand": "Jack in the Box", "brand:wikidata": "Q1538507", "building": "yes", "cuisine": "burger", "name": "Jack in the Box", "takeaway": "yes"}}, {"type": "way", "id": 653194230, "nodes": [6121811542, 6121811543, 6121811544, 6121811545, 6121811546, 6121811547, 6121811548, 6121811549, 6121811550, 6121811551, 6121811552, 6121811553, 6121811554, 6121811555, 6121811542], "tags": {"addr:city": "Saint Charles", "addr:housenumber": "1201", "addr:postcode": "63303", "addr:state": "MO", "addr:street": "Regency Parkway", "amenity": "bank", "brand": "UMB Bank", "brand:wikidata": "Q7865088", "building": "yes", "name": "UMB Bank"}}, {"type": "way", "id": 653194231, "nodes": [6121811556, 6121811557, 6121811558, 6121811559, 6121811560, 6121811561, 6121811562, 6121811563, 6121811564, 6121811565, 6121811566, 6121811567, 6121811568, 6121811569, 6121811570, 6121811571, 6121811556], "tags": {"addr:city": "Saint Charles", "addr:housenumber": "1141", "addr:postcode": "63303", "addr:state": "MO", "addr:street": "Regency Parkway", "amenity": "car_wash", "building": "yes"}}, {"type": "way", "id": 653198832, "nodes": [6121844165, 6121844166, 6121844167, 6121844168, 6121844169, 6121844170, 6121844171, 6121844172, 6121844173, 6121844174, 6121844165], "tags": {"addr:city": "Saint Charles", "addr:housenumber": "2855", "addr:postcode": "63303", "addr:state": "MO", "addr:street": "Veterans Memorial Parkway", "brand": "Sam's Club", "brand:wikidata": "Q1972120", "building": "yes", "name": "Sam's Club", "opening_hours": "Mo 10:00-20:00; Sa 09:00-20:00; Su 10:00-18:00", "operator": "Walmart", "operator:wikidata": "Q483551", "phone": "+1 636-946-7002", "ref": "8251", "shop": "wholesale", "website": "https://www.samsclub.com/club/st-charles-mo-sams-club/8251"}}, {"type": "way", "id": 653198833, "nodes": [6121844175, 6121844176, 6121844177, 6121844178, 6121844175], "tags": {"building": "retail"}}, {"type": "way", "id": 654750992, "nodes": [6135360361, 6135360362, 6135360363, 6135360364, 6135360361], "tags": {"addr:city": "Saint Charles", "addr:housenumber": "2003", "addr:postcode": "63303", "addr:state": "MO", "addr:street": "Zumbehl Road", "amenity": "fast_food", "brand": "Taco Bell", "brand:wikidata": "Q752941", "building": "yes", "cuisine": "tex-mex", "drive_through": "yes", "name": "Taco Bell", "opening_hours": "08:00-02:00", "phone": "+1 636-947-6263", "takeaway": "yes", "website": "https://locations.tacobell.com/mo/saint-charles/2003-zumbehl-rd.html"}}, {"type": "way", "id": 654750994, "nodes": [6135360365, 6135360366, 6135360367, 6135360368, 6632370880, 6135360369, 6135360370, 6632370881, 6135360371, 6135360372, 6135360365], "tags": {"addr:city": "Saint Charles", "addr:housenumber": "2023", "addr:postcode": "63303", "addr:state": "MO", "addr:street": "Zumbehl Road", "amenity": "fast_food", "brand": "Hardee's", "brand:wikidata": "Q1585088", "building": "yes", "cuisine": "burger", "name": "Hardee's", "phone": "+1 636-947-4606", "ref": "1500735", "takeaway": "yes", "website": "https://locations.hardees.com/mo/saint-charles/2023-zumbehl-rd"}}, {"type": "way", "id": 654750995, "nodes": [6135360373, 6135360374, 6135360375, 6135360376, 6135360373], "tags": {"addr:city": "Saint Charles", "addr:housenumber": "2121", "addr:postcode": "63303", "addr:state": "MO", "addr:street": "Zumbehl Road", "building": "yes", "healthcare": "optometrist", "name": "Clarkson Eyecare"}}, {"type": "way", "id": 654750996, "nodes": [6135360377, 6135360378, 6135360379, 6135360380, 6632388255, 6135360381, 6135360382, 6632388256, 6135360383, 6135360384, 6135360377], "tags": {"addr:city": "Saint Charles", "addr:housenumber": "2139", "addr:postcode": "63303", "addr:state": "MO", "addr:street": "Zumbehl Road", "brand": "Jiffy Lube", "brand:wikidata": "Q6192247", "building": "yes", "name": "Jiffy Lube", "shop": "car_repair"}}, {"type": "way", "id": 682962430, "nodes": [6396968651, 6396968650, 6396968649, 6396968648, 6396968651], "tags": {"amenity": "fuel", "brand": "QuikTrip", "brand:wikidata": "Q7271953", "building": "roof", "name": "QuikTrip", "short_name": "QT"}}, {"type": "way", "id": 692869421, "nodes": [6504957125, 6504957126, 6504957127, 6504957128, 6504957125], "tags": {"building": "yes", "name": "Halfway House"}}, {"type": "way", "id": 693069037, "nodes": [6506816346, 6506816347, 6506816348, 6506816349, 6506816350, 12312439235, 6506816351, 6506816352, 6506816353, 6506816354, 6506816355, 9742414965, 12312439227, 9742414964, 6506816356, 6506816357, 6506816346], "tags": {"building": "yes", "golf": "clubhouse"}}, {"type": "way", "id": 941401714, "nodes": [8718122049, 8718122050, 8718122051, 8718122052, 8718122053, 8718122054, 8718122055, 8718122056, 8718122057, 8718122058, 8718122059, 8718122060, 8718122061, 8718122062, 8718122063, 8718122064, 8718122065, 8718122066, 8718122067, 8718122068, 8718122049], "tags": {"addr:city": "Saint Charles", "addr:housenumber": "1800", "addr:postcode": "63303", "addr:state": "MO", "addr:street": "Zumbehl Road", "air_conditioning": "yes", "brand": "Candlewood Suites", "brand:wikidata": "Q5032010", "building": "hotel", "internet_access": "wlan", "internet_access:fee": "no", "name": "Candlewood Suites St. Louis - St. Charles", "payment:cash": "yes", "payment:credit_cards": "yes", "payment:debit_cards": "yes", "phone": "+1-636-949-6800", "rooms": "94", "tourism": "hotel", "website": "https://www.ihg.com/candlewood/hotels/us/en/st-charles/stlom/hoteldetail", "wheelchair": "yes"}}, {"type": "way", "id": 1059629245, "nodes": [9735398301, 9735398302, 9735398303, 9735398304, 9735398305, 9735398306, 9735398307, 9735398308, 9735398301], "tags": {"addr:city": "Saint Charles", "addr:housenumber": "1650", "addr:postcode": "63303", "addr:state": "MO", "addr:street": "Hawks Nest Drive", "amenity": "fire_station", "building": "yes", "name": "Saint Charles Fire Department Station 5"}}, {"type": "way", "id": 1060546387, "nodes": [9743786338, 9743786339, 9743786340, 9743786341, 9743786338], "tags": {"building": "barn"}}, {"type": "way", "id": 1060898725, "nodes": [9747577542, 9747577543, 9747577544, 9747577545, 9747577542], "tags": {"building": "yes"}}, {"type": "way", "id": 1063639964, "nodes": [9769926657, 9769926658, 9769926659, 9769926660, 9769926657], "tags": {"building": "yes"}}, {"type": "way", "id": 1063662395, "nodes": [9770035630, 12312439233, 9770035631, 9770035632, 9770035633, 9770035630], "tags": {"building": "yes"}}, {"type": "way", "id": 1063662396, "nodes": [9770035634, 9770035635, 9770035636, 9770035637, 9770035634], "tags": {"building": "yes"}}, {"type": "way", "id": 1283632487, "nodes": [11909945935, 11909945936, 11909945937, 11909945938, 11909945935], "tags": {"building": "yes"}}, {"type": "way", "id": 1283632723, "nodes": [11909948346, 11909948347, 11909948348, 11909960974, 11909960975, 11909960976, 11909948349, 11909948350, 11909948351, 11909948352, 11909960977, 11909948353, 11909948354, 11909948355, 11909948356, 11909948357, 11909948358, 11909948359, 11909948360, 11909948361, 11909948362, 11909948363, 11909948364, 11909948365, 11909948366, 11909948367, 11909948368, 11909960969, 11909960970, 11909960971, 11909960972, 11909960973, 11909948346], "tags": {"addr:city": "Saint Charles", "addr:housenumber": "1781", "addr:postcode": "63303", "addr:street": "Zumbehl Road", "amenity": "townhall", "building": "yes", "townhall:type": "city", "website": "https://www.stcharlescitymo.gov/176/Municipal-Courts"}}, {"type": "way", "id": 1293737027, "nodes": [11992726804, 11992726805, 11992726806, 11992726807, 11992726808, 11992726809, 11992726810, 11992726811, 10784281146, 11992726812, 11992726813, 10784281147, 11992726814, 11992726815, 11992726804], "tags": {"addr:city": "Saint Charles", "addr:housenumber": "2020", "addr:postcode": "63303", "addr:state": "MO", "addr:street": "Zumbehl Road", "amenity": "fast_food", "brand": "Chick-fil-A", "brand:wikidata": "Q491516", "building": "yes", "cuisine": "chicken", "drive_through": "yes", "name": "Chick-fil-A", "takeaway": "yes"}}, {"type": "way", "id": 1293737030, "nodes": [11992726816, 10784281145, 11992726817, 11992726818, 10784281144, 11992726819, 11992726816], "tags": {"building": "yes"}}, {"type": "way", "id": 1293737036, "nodes": [11992726848, 11992741289, 11992726849, 11992726850, 11992726851, 11992726848], "tags": {"building": "yes"}}]}