{"version": 0.6, "generator": "Overpass API 0.7.62.5 1bd436f1", "osm3s": {"timestamp_osm_base": "2025-04-18T11:21:38Z", "copyright": "The data included in this document is from www.openstreetmap.org. The data is made available under ODbL."}, "elements": [{"type": "node", "id": 2904551845, "lat": 38.7518963, "lon": -90.5855985}, {"type": "node", "id": 2904551846, "lat": 38.7519166, "lon": -90.5854797}, {"type": "node", "id": 2904551847, "lat": 38.7519384, "lon": -90.5854858}, {"type": "node", "id": 2904551848, "lat": 38.7519519, "lon": -90.585407}, {"type": "node", "id": 2904551849, "lat": 38.7518389, "lon": -90.5853752}, {"type": "node", "id": 2904551850, "lat": 38.7518051, "lon": -90.5855728}, {"type": "node", "id": 5633604613, "lat": 38.7526317, "lon": -90.5872359, "tags": {"addr:city": "Saint Peters", "addr:housenumber": "1421", "addr:postcode": "63376", "addr:street": "Jungermann Road"}}, {"type": "node", "id": 5633604675, "lat": 38.7537656, "lon": -90.5867835, "tags": {"addr:city": "Saint Peters", "addr:housenumber": "1395", "addr:postcode": "63376", "addr:street": "Jungermann Road", "addr:unit": "E"}}, {"type": "node", "id": 5633604718, "lat": 38.7532748, "lon": -90.5868849, "tags": {"addr:city": "Saint Peters", "addr:housenumber": "1405", "addr:postcode": "63376", "addr:street": "Jungermann Road", "addr:unit": "C"}}, {"type": "node", "id": 5633604810, "lat": 38.7549531, "lon": -90.5868877, "tags": {"addr:city": "Saint Peters", "addr:housenumber": "1365", "addr:postcode": "63376", "addr:street": "Jungermann Road"}}, {"type": "node", "id": 6208369911, "lat": 38.7545229, "lon": -90.5871662}, {"type": "node", "id": 6208369912, "lat": 38.7543476, "lon": -90.5872264}, {"type": "node", "id": 6208369913, "lat": 38.7543147, "lon": -90.5870689}, {"type": "node", "id": 6208369914, "lat": 38.7545662, "lon": -90.5869825}, {"type": "node", "id": 6208369915, "lat": 38.7546013, "lon": -90.5871504}, {"type": "node", "id": 6208369916, "lat": 38.7545251, "lon": -90.5871766}, {"type": "node", "id": 6250614376, "lat": 38.7510794, "lon": -90.5833847, "tags": {"addr:city": "Saint Peters", "addr:housenumber": "69", "addr:postcode": "63376", "addr:street": "Bond Court", "source:addr": "https://gis.sccmo.opendata.arcgis.com/ (2018)"}}, {"type": "node", "id": 6250614380, "lat": 38.7515347, "lon": -90.5833122, "tags": {"addr:city": "Saint Peters", "addr:housenumber": "84", "addr:postcode": "63376", "addr:street": "Bond Court", "source:addr": "https://gis.sccmo.opendata.arcgis.com/ (2018)"}}, {"type": "node", "id": 6250614970, "lat": 38.7556276, "lon": -90.5858307, "tags": {"addr:city": "Saint Peters", "addr:housenumber": "1335", "addr:postcode": "63376", "addr:street": "Queens Court", "source:addr": "https://gis.sccmo.opendata.arcgis.com/ (2018)"}}, {"type": "node", "id": 6250614972, "lat": 38.7553706, "lon": -90.5863358, "tags": {"addr:city": "Saint Peters", "addr:housenumber": "1345", "addr:postcode": "63376", "addr:street": "Queens Court", "source:addr": "https://gis.sccmo.opendata.arcgis.com/ (2018)"}}, {"type": "node", "id": 6250614974, "lat": 38.7557262, "lon": -90.5873764, "tags": {"addr:city": "Saint Peters", "addr:housenumber": "1345", "addr:postcode": "63376", "addr:street": "Triad Center Drive", "addr:unit": "G", "source:addr": "https://gis.sccmo.opendata.arcgis.com/ (2018)"}}, {"type": "node", "id": 6250614975, "lat": 38.7553758, "lon": -90.5876522, "tags": {"addr:city": "Saint Peters", "addr:housenumber": "1365", "addr:postcode": "63376", "addr:street": "Triad Center Drive", "source:addr": "https://gis.sccmo.opendata.arcgis.com/ (2018)"}}, {"type": "node", "id": 6250615094, "lat": 38.7549776, "lon": -90.5877807, "tags": {"addr:city": "Saint Peters", "addr:housenumber": "1375", "addr:postcode": "63376", "addr:street": "Triad Center Drive", "source:addr": "https://gis.sccmo.opendata.arcgis.com/ (2018)"}}, {"type": "node", "id": 6250615100, "lat": 38.7516538, "lon": -90.5867634, "tags": {"addr:city": "Saint Peters", "addr:housenumber": "2036", "addr:postcode": "63376", "addr:street": "Twin Fawns Court", "source:addr": "https://gis.sccmo.opendata.arcgis.com/ (2018)"}}, {"type": "node", "id": 6250615101, "lat": 38.7508623, "lon": -90.5873388, "tags": {"addr:city": "Saint Peters", "addr:housenumber": "2021", "addr:postcode": "63376", "addr:street": "Twin Fawns Court", "source:addr": "https://gis.sccmo.opendata.arcgis.com/ (2018)"}}, {"type": "node", "id": 6250615102, "lat": 38.7519664, "lon": -90.5870692, "tags": {"addr:city": "Saint Peters", "addr:housenumber": "2042", "addr:postcode": "63376", "addr:street": "Twin Fawns Court", "source:addr": "https://gis.sccmo.opendata.arcgis.com/ (2018)"}}, {"type": "node", "id": 6250615103, "lat": 38.7510568, "lon": -90.5873206, "tags": {"addr:city": "Saint Peters", "addr:housenumber": "2025", "addr:postcode": "63376", "addr:street": "Twin Fawns Court", "source:addr": "https://gis.sccmo.opendata.arcgis.com/ (2018)"}}, {"type": "node", "id": 6250615104, "lat": 38.7511838, "lon": -90.5869165, "tags": {"addr:city": "Saint Peters", "addr:housenumber": "2028", "addr:postcode": "63376", "addr:street": "Twin Fawns Court", "source:addr": "https://gis.sccmo.opendata.arcgis.com/ (2018)"}}, {"type": "node", "id": 6250615105, "lat": 38.7518734, "lon": -90.586808, "tags": {"addr:city": "Saint Peters", "addr:housenumber": "2040", "addr:postcode": "63376", "addr:street": "Twin Fawns Court", "source:addr": "https://gis.sccmo.opendata.arcgis.com/ (2018)"}}, {"type": "node", "id": 6250615106, "lat": 38.7509966, "lon": -90.5869215, "tags": {"addr:city": "Saint Peters", "addr:housenumber": "2024", "addr:postcode": "63376", "addr:street": "Twin Fawns Court", "source:addr": "https://gis.sccmo.opendata.arcgis.com/ (2018)"}}, {"type": "node", "id": 6250615107, "lat": 38.751868, "lon": -90.587296, "tags": {"addr:city": "Saint Peters", "addr:housenumber": "2041", "addr:postcode": "63376", "addr:street": "Twin Fawns Court", "source:addr": "https://gis.sccmo.opendata.arcgis.com/ (2018)"}}, {"type": "node", "id": 6250615108, "lat": 38.7512428, "lon": -90.5873255, "tags": {"addr:city": "Saint Peters", "addr:housenumber": "2029", "addr:postcode": "63376", "addr:street": "Twin Fawns Court", "source:addr": "https://gis.sccmo.opendata.arcgis.com/ (2018)"}}, {"type": "node", "id": 6250615109, "lat": 38.7514431, "lon": -90.5868943, "tags": {"addr:city": "Saint Peters", "addr:housenumber": "2032", "addr:postcode": "63376", "addr:street": "Twin Fawns Court", "source:addr": "https://gis.sccmo.opendata.arcgis.com/ (2018)"}}, {"type": "node", "id": 6250615110, "lat": 38.7516482, "lon": -90.5873679, "tags": {"addr:city": "Saint Peters", "addr:housenumber": "2037", "addr:postcode": "63376", "addr:street": "Twin Fawns Court", "source:addr": "https://gis.sccmo.opendata.arcgis.com/ (2018)"}}, {"type": "node", "id": 6250615111, "lat": 38.7514509, "lon": -90.587311, "tags": {"addr:city": "Saint Peters", "addr:housenumber": "2033", "addr:postcode": "63376", "addr:street": "Twin Fawns Court", "source:addr": "https://gis.sccmo.opendata.arcgis.com/ (2018)"}}, {"type": "node", "id": 6250615112, "lat": 38.7504499, "lon": -90.5869551, "tags": {"addr:city": "Saint Peters", "addr:housenumber": "2009", "addr:postcode": "63376", "addr:street": "Twin Fawns Court", "source:addr": "https://gis.sccmo.opendata.arcgis.com/ (2018)"}}, {"type": "node", "id": 6250615113, "lat": 38.750449, "lon": -90.5867036, "tags": {"addr:city": "Saint Peters", "addr:housenumber": "2005", "addr:postcode": "63376", "addr:street": "Twin Fawns Court", "source:addr": "https://gis.sccmo.opendata.arcgis.com/ (2018)"}}, {"type": "node", "id": 6250615115, "lat": 38.7506705, "lon": -90.5835206, "tags": {"addr:city": "Saint Peters", "addr:housenumber": "2115", "addr:postcode": "63376", "addr:street": "Queensbrook Boulevard", "source:addr": "https://gis.sccmo.opendata.arcgis.com/ (2018)"}}, {"type": "node", "id": 6250615116, "lat": 38.7506563, "lon": -90.5833988, "tags": {"addr:city": "Saint Peters", "addr:housenumber": "2119", "addr:postcode": "63376", "addr:street": "Queensbrook Boulevard", "source:addr": "https://gis.sccmo.opendata.arcgis.com/ (2018)"}}, {"type": "node", "id": 6282631749, "lat": 38.7538208, "lon": -90.5834424, "tags": {"addr:city": "Saint Peters", "addr:housenumber": "32", "addr:postcode": "63376", "addr:street": "Harvest Rust Court", "source:addr": "https://gis.sccmo.opendata.arcgis.com/ (2018)"}}, {"type": "node", "id": 6282631751, "lat": 38.7542538, "lon": -90.5834023, "tags": {"addr:city": "Saint Peters", "addr:housenumber": "30", "addr:postcode": "63376", "addr:street": "Harvest Rust Court", "source:addr": "https://gis.sccmo.opendata.arcgis.com/ (2018)"}}, {"type": "node", "id": 6282631753, "lat": 38.7540285, "lon": -90.5834178, "tags": {"addr:city": "Saint Peters", "addr:housenumber": "31", "addr:postcode": "63376", "addr:street": "Harvest Rust Court", "source:addr": "https://gis.sccmo.opendata.arcgis.com/ (2018)"}}, {"type": "node", "id": 6282631756, "lat": 38.755303, "lon": -90.5833313, "tags": {"addr:city": "Saint Peters", "addr:housenumber": "84", "addr:postcode": "63376", "addr:street": "Harvest Brown Court", "source:addr": "https://gis.sccmo.opendata.arcgis.com/ (2018)"}}, {"type": "node", "id": 6282631759, "lat": 38.7547101, "lon": -90.5833423, "tags": {"addr:city": "Saint Peters", "addr:housenumber": "87", "addr:postcode": "63376", "addr:street": "Harvest Brown Court", "source:addr": "https://gis.sccmo.opendata.arcgis.com/ (2018)"}}, {"type": "node", "id": 6282631761, "lat": 38.7551116, "lon": -90.5833461, "tags": {"addr:city": "Saint Peters", "addr:housenumber": "85", "addr:postcode": "63376", "addr:street": "Harvest Brown Court", "source:addr": "https://gis.sccmo.opendata.arcgis.com/ (2018)"}}, {"type": "node", "id": 6282631769, "lat": 38.7548993, "lon": -90.5833618, "tags": {"addr:city": "Saint Peters", "addr:housenumber": "86", "addr:postcode": "63376", "addr:street": "Harvest Brown Court", "source:addr": "https://gis.sccmo.opendata.arcgis.com/ (2018)"}}, {"type": "node", "id": 6282631771, "lat": 38.7531636, "lon": -90.5834189, "tags": {"addr:city": "Saint Peters", "addr:housenumber": "22", "addr:postcode": "63376", "addr:street": "Harvest Gold Court", "source:addr": "https://gis.sccmo.opendata.arcgis.com/ (2018)"}}, {"type": "node", "id": 6282631772, "lat": 38.7534137, "lon": -90.5838622, "tags": {"addr:city": "Saint Peters", "addr:housenumber": "24", "addr:postcode": "63376", "addr:street": "Harvest Gold Court", "source:addr": "https://gis.sccmo.opendata.arcgis.com/ (2018)"}}, {"type": "node", "id": 6282631773, "lat": 38.7529805, "lon": -90.5835966, "tags": {"addr:city": "Saint Peters", "addr:housenumber": "21", "addr:postcode": "63376", "addr:street": "Harvest Gold Court", "source:addr": "https://gis.sccmo.opendata.arcgis.com/ (2018)"}}, {"type": "node", "id": 6282631774, "lat": 38.7533948, "lon": -90.5835727, "tags": {"addr:city": "Saint Peters", "addr:housenumber": "23", "addr:postcode": "63376", "addr:street": "Harvest Gold Court", "source:addr": "https://gis.sccmo.opendata.arcgis.com/ (2018)"}}, {"type": "node", "id": 6282631775, "lat": 38.7529757, "lon": -90.5838678, "tags": {"addr:city": "Saint Peters", "addr:housenumber": "20", "addr:postcode": "63376", "addr:street": "Harvest Gold Court", "source:addr": "https://gis.sccmo.opendata.arcgis.com/ (2018)"}}, {"type": "node", "id": 6282631776, "lat": 38.7510782, "lon": -90.5854853, "tags": {"addr:city": "Saint Peters", "addr:housenumber": "200", "addr:postcode": "63376", "addr:street": "Autumn View Court", "source:addr": "https://gis.sccmo.opendata.arcgis.com/ (2018)"}}, {"type": "node", "id": 6282631777, "lat": 38.7508596, "lon": -90.5849495, "tags": {"addr:city": "Saint Peters", "addr:housenumber": "203", "addr:postcode": "63376", "addr:street": "Autumn View Court", "source:addr": "https://gis.sccmo.opendata.arcgis.com/ (2018)"}}, {"type": "node", "id": 6282631778, "lat": 38.7508818, "lon": -90.5855086, "tags": {"addr:city": "Saint Peters", "addr:housenumber": "202", "addr:postcode": "63376", "addr:street": "Autumn View Court", "source:addr": "https://gis.sccmo.opendata.arcgis.com/ (2018)"}}, {"type": "node", "id": 6282631779, "lat": 38.7506442, "lon": -90.5849736, "tags": {"addr:city": "Saint Peters", "addr:housenumber": "205", "addr:postcode": "63376", "addr:street": "Autumn View Court", "source:addr": "https://gis.sccmo.opendata.arcgis.com/ (2018)"}}, {"type": "node", "id": 6282631780, "lat": 38.7505579, "lon": -90.585274, "tags": {"addr:city": "Saint Peters", "addr:housenumber": "206", "addr:postcode": "63376", "addr:street": "Autumn View Court", "source:addr": "https://gis.sccmo.opendata.arcgis.com/ (2018)"}}, {"type": "node", "id": 6282631781, "lat": 38.7507003, "lon": -90.5854943, "tags": {"addr:city": "Saint Peters", "addr:housenumber": "204", "addr:postcode": "63376", "addr:street": "Autumn View Court", "source:addr": "https://gis.sccmo.opendata.arcgis.com/ (2018)"}}, {"type": "node", "id": 6282631782, "lat": 38.7510508, "lon": -90.5850668, "tags": {"addr:city": "Saint Peters", "addr:housenumber": "201", "addr:postcode": "63376", "addr:street": "Autumn View Court", "source:addr": "https://gis.sccmo.opendata.arcgis.com/ (2018)"}}, {"type": "node", "id": 6282631783, "lat": 38.7514726, "lon": -90.5858158, "tags": {"addr:city": "Saint Peters", "addr:housenumber": "101", "addr:postcode": "63376", "addr:street": "Autumn View Drive", "source:addr": "https://gis.sccmo.opendata.arcgis.com/ (2018)"}}, {"type": "node", "id": 6282631784, "lat": 38.751473, "lon": -90.5855494, "tags": {"addr:city": "Saint Peters", "addr:housenumber": "103", "addr:postcode": "63376", "addr:street": "Autumn View Drive", "source:addr": "https://gis.sccmo.opendata.arcgis.com/ (2018)"}}, {"type": "node", "id": 6282631985, "lat": 38.7515044, "lon": -90.585352, "tags": {"addr:city": "Saint Peters", "addr:housenumber": "105", "addr:postcode": "63376", "addr:street": "Autumn View Drive", "source:addr": "https://gis.sccmo.opendata.arcgis.com/ (2018)"}}, {"type": "node", "id": 6282631986, "lat": 38.7514492, "lon": -90.5847818, "tags": {"addr:city": "Saint Peters", "addr:housenumber": "109", "addr:postcode": "63376", "addr:street": "Autumn View Drive", "source:addr": "https://gis.sccmo.opendata.arcgis.com/ (2018)"}}, {"type": "node", "id": 6282631987, "lat": 38.7515069, "lon": -90.5850478, "tags": {"addr:city": "Saint Peters", "addr:housenumber": "107", "addr:postcode": "63376", "addr:street": "Autumn View Drive", "source:addr": "https://gis.sccmo.opendata.arcgis.com/ (2018)"}}, {"type": "node", "id": 6282631988, "lat": 38.7511979, "lon": -90.5840404, "tags": {"addr:city": "Saint Peters", "addr:housenumber": "506", "addr:postcode": "63376", "addr:street": "Ashford Drive", "source:addr": "https://gis.sccmo.opendata.arcgis.com/ (2018)"}}, {"type": "node", "id": 6282631989, "lat": 38.7516516, "lon": -90.5839914, "tags": {"addr:city": "Saint Peters", "addr:housenumber": "510", "addr:postcode": "63376", "addr:street": "Ashford Drive", "source:addr": "https://gis.sccmo.opendata.arcgis.com/ (2018)"}}, {"type": "node", "id": 6282631990, "lat": 38.7516994, "lon": -90.5844412, "tags": {"addr:city": "Saint Peters", "addr:housenumber": "509", "addr:postcode": "63376", "addr:street": "Ashford Drive", "source:addr": "https://gis.sccmo.opendata.arcgis.com/ (2018)"}}, {"type": "node", "id": 6282631991, "lat": 38.7509781, "lon": -90.5844651, "tags": {"addr:city": "Saint Peters", "addr:housenumber": "505", "addr:postcode": "63376", "addr:street": "Ashford Drive", "source:addr": "https://gis.sccmo.opendata.arcgis.com/ (2018)"}}, {"type": "node", "id": 6282631992, "lat": 38.7505754, "lon": -90.5844955, "tags": {"addr:city": "Saint Peters", "addr:housenumber": "501", "addr:postcode": "63376", "addr:street": "Ashford Drive", "source:addr": "https://gis.sccmo.opendata.arcgis.com/ (2018)"}}, {"type": "node", "id": 6282631993, "lat": 38.7514498, "lon": -90.5844225, "tags": {"addr:city": "Saint Peters", "addr:housenumber": "507", "addr:postcode": "63376", "addr:street": "Ashford Drive", "source:addr": "https://gis.sccmo.opendata.arcgis.com/ (2018)"}}, {"type": "node", "id": 6282631994, "lat": 38.7514327, "lon": -90.5840149, "tags": {"addr:city": "Saint Peters", "addr:housenumber": "508", "addr:postcode": "63376", "addr:street": "Ashford Drive", "source:addr": "https://gis.sccmo.opendata.arcgis.com/ (2018)"}}, {"type": "node", "id": 6282631995, "lat": 38.7507792, "lon": -90.5844419, "tags": {"addr:city": "Saint Peters", "addr:housenumber": "503", "addr:postcode": "63376", "addr:street": "Ashford Drive", "source:addr": "https://gis.sccmo.opendata.arcgis.com/ (2018)"}}, {"type": "node", "id": 6282631996, "lat": 38.7506024, "lon": -90.5840753, "tags": {"addr:city": "Saint Peters", "addr:housenumber": "500", "addr:postcode": "63376", "addr:street": "Ashford Drive", "source:addr": "https://gis.sccmo.opendata.arcgis.com/ (2018)"}}, {"type": "node", "id": 6282631997, "lat": 38.7510082, "lon": -90.5840652, "tags": {"addr:city": "Saint Peters", "addr:housenumber": "504", "addr:postcode": "63376", "addr:street": "Ashford Drive", "source:addr": "https://gis.sccmo.opendata.arcgis.com/ (2018)"}}, {"type": "node", "id": 6282631998, "lat": 38.7508102, "lon": -90.5840415, "tags": {"addr:city": "Saint Peters", "addr:housenumber": "502", "addr:postcode": "63376", "addr:street": "Ashford Drive", "source:addr": "https://gis.sccmo.opendata.arcgis.com/ (2018)"}}, {"type": "node", "id": 6282632009, "lat": 38.755879, "lon": -90.5842525, "tags": {"addr:city": "Saint Peters", "addr:housenumber": "4002", "addr:postcode": "63376", "addr:street": "Harvest Meadow Drive", "source:addr": "https://gis.sccmo.opendata.arcgis.com/ (2018)"}}, {"type": "node", "id": 6282632010, "lat": 38.7556634, "lon": -90.5842006, "tags": {"addr:city": "Saint Peters", "addr:housenumber": "4004", "addr:postcode": "63376", "addr:street": "Harvest Meadow Drive", "source:addr": "https://gis.sccmo.opendata.arcgis.com/ (2018)"}}, {"type": "node", "id": 6282632013, "lat": 38.7549523, "lon": -90.5838427, "tags": {"addr:city": "Saint Peters", "addr:housenumber": "4009", "addr:postcode": "63376", "addr:street": "Harvest Meadow Drive", "source:addr": "https://gis.sccmo.opendata.arcgis.com/ (2018)"}}, {"type": "node", "id": 6282632020, "lat": 38.7538757, "lon": -90.5843549, "tags": {"addr:city": "Saint Peters", "addr:housenumber": "4022", "addr:postcode": "63376", "addr:street": "Harvest Meadow Drive", "source:addr": "https://gis.sccmo.opendata.arcgis.com/ (2018)"}}, {"type": "node", "id": 6282632021, "lat": 38.7542743, "lon": -90.5842818, "tags": {"addr:city": "Saint Peters", "addr:housenumber": "4018", "addr:postcode": "63376", "addr:street": "Harvest Meadow Drive", "source:addr": "https://gis.sccmo.opendata.arcgis.com/ (2018)"}}, {"type": "node", "id": 6282632022, "lat": 38.7520642, "lon": -90.5837346, "tags": {"addr:city": "Saint Peters", "addr:housenumber": "4050", "addr:postcode": "63376", "addr:street": "Harvest Meadow Drive", "source:addr": "https://gis.sccmo.opendata.arcgis.com/ (2018)"}}, {"type": "node", "id": 6282632023, "lat": 38.7532244, "lon": -90.5843684, "tags": {"addr:city": "Saint Peters", "addr:housenumber": "4028", "addr:postcode": "63376", "addr:street": "Harvest Meadow Drive", "source:addr": "https://gis.sccmo.opendata.arcgis.com/ (2018)"}}, {"type": "node", "id": 6282632024, "lat": 38.7554888, "lon": -90.5842677, "tags": {"addr:city": "Saint Peters", "addr:housenumber": "4006", "addr:postcode": "63376", "addr:street": "Harvest Meadow Drive", "source:addr": "https://gis.sccmo.opendata.arcgis.com/ (2018)"}}, {"type": "node", "id": 6282632025, "lat": 38.7534158, "lon": -90.5843401, "tags": {"addr:city": "Saint Peters", "addr:housenumber": "4026", "addr:postcode": "63376", "addr:street": "Harvest Meadow Drive", "source:addr": "https://gis.sccmo.opendata.arcgis.com/ (2018)"}}, {"type": "node", "id": 6282632026, "lat": 38.7557511, "lon": -90.5835517, "tags": {"addr:city": "Saint Peters", "addr:housenumber": "3927", "addr:postcode": "63376", "addr:street": "Harvest Meadow Drive", "source:addr": "https://gis.sccmo.opendata.arcgis.com/ (2018)"}}, {"type": "node", "id": 6282632027, "lat": 38.7546855, "lon": -90.5842927, "tags": {"addr:city": "Saint Peters", "addr:housenumber": "4014", "addr:postcode": "63376", "addr:street": "Harvest Meadow Drive", "source:addr": "https://gis.sccmo.opendata.arcgis.com/ (2018)"}}, {"type": "node", "id": 6282632028, "lat": 38.7530189, "lon": -90.5844092, "tags": {"addr:city": "Saint Peters", "addr:housenumber": "4030", "addr:postcode": "63376", "addr:street": "Harvest Meadow Drive", "source:addr": "https://gis.sccmo.opendata.arcgis.com/ (2018)"}}, {"type": "node", "id": 6282632029, "lat": 38.7544767, "lon": -90.5842643, "tags": {"addr:city": "Saint Peters", "addr:housenumber": "4016", "addr:postcode": "63376", "addr:street": "Harvest Meadow Drive", "source:addr": "https://gis.sccmo.opendata.arcgis.com/ (2018)"}}, {"type": "node", "id": 6282632032, "lat": 38.7540664, "lon": -90.5843125, "tags": {"addr:city": "Saint Peters", "addr:housenumber": "4020", "addr:postcode": "63376", "addr:street": "Harvest Meadow Drive", "source:addr": "https://gis.sccmo.opendata.arcgis.com/ (2018)"}}, {"type": "node", "id": 6282632033, "lat": 38.753655, "lon": -90.5839192, "tags": {"addr:city": "Saint Peters", "addr:housenumber": "4023", "addr:postcode": "63376", "addr:street": "Harvest Meadow Drive", "source:addr": "https://gis.sccmo.opendata.arcgis.com/ (2018)"}}, {"type": "node", "id": 6282632034, "lat": 38.7540774, "lon": -90.5838638, "tags": {"addr:city": "Saint Peters", "addr:housenumber": "4019", "addr:postcode": "63376", "addr:street": "Harvest Meadow Drive", "source:addr": "https://gis.sccmo.opendata.arcgis.com/ (2018)"}}, {"type": "node", "id": 6282632036, "lat": 38.7538672, "lon": -90.5838892, "tags": {"addr:city": "Saint Peters", "addr:housenumber": "4021", "addr:postcode": "63376", "addr:street": "Harvest Meadow Drive", "source:addr": "https://gis.sccmo.opendata.arcgis.com/ (2018)"}}, {"type": "node", "id": 6282632039, "lat": 38.7536438, "lon": -90.58433, "tags": {"addr:city": "Saint Peters", "addr:housenumber": "4024", "addr:postcode": "63376", "addr:street": "Harvest Meadow Drive", "source:addr": "https://gis.sccmo.opendata.arcgis.com/ (2018)"}}, {"type": "node", "id": 6282632041, "lat": 38.7547231, "lon": -90.5838587, "tags": {"addr:city": "Saint Peters", "addr:housenumber": "4013", "addr:postcode": "63376", "addr:street": "Harvest Meadow Drive", "source:addr": "https://gis.sccmo.opendata.arcgis.com/ (2018)"}}, {"type": "node", "id": 6282632042, "lat": 38.7551191, "lon": -90.5838411, "tags": {"addr:city": "Saint Peters", "addr:housenumber": "4007", "addr:postcode": "63376", "addr:street": "Harvest Meadow Drive", "source:addr": "https://gis.sccmo.opendata.arcgis.com/ (2018)"}}, {"type": "node", "id": 6282632043, "lat": 38.7550947, "lon": -90.5842533, "tags": {"addr:city": "Saint Peters", "addr:housenumber": "4010", "addr:postcode": "63376", "addr:street": "Harvest Meadow Drive", "source:addr": "https://gis.sccmo.opendata.arcgis.com/ (2018)"}}, {"type": "node", "id": 6282632044, "lat": 38.755279, "lon": -90.5842327, "tags": {"addr:city": "Saint Peters", "addr:housenumber": "4008", "addr:postcode": "63376", "addr:street": "Harvest Meadow Drive", "source:addr": "https://gis.sccmo.opendata.arcgis.com/ (2018)"}}, {"type": "node", "id": 6282632046, "lat": 38.7553252, "lon": -90.5838336, "tags": {"addr:city": "Saint Peters", "addr:housenumber": "4005", "addr:postcode": "63376", "addr:street": "Harvest Meadow Drive", "source:addr": "https://gis.sccmo.opendata.arcgis.com/ (2018)"}}, {"type": "node", "id": 6282632047, "lat": 38.754276, "lon": -90.5838545, "tags": {"addr:city": "Saint Peters", "addr:housenumber": "4017", "addr:postcode": "63376", "addr:street": "Harvest Meadow Drive", "source:addr": "https://gis.sccmo.opendata.arcgis.com/ (2018)"}}, {"type": "node", "id": 6282632048, "lat": 38.7548793, "lon": -90.5842437, "tags": {"addr:city": "Saint Peters", "addr:housenumber": "4012", "addr:postcode": "63376", "addr:street": "Harvest Meadow Drive", "source:addr": "https://gis.sccmo.opendata.arcgis.com/ (2018)"}}, {"type": "node", "id": 6282632049, "lat": 38.7555632, "lon": -90.5837793, "tags": {"addr:city": "Saint Peters", "addr:housenumber": "4001", "addr:postcode": "63376", "addr:street": "Harvest Meadow Drive", "source:addr": "https://gis.sccmo.opendata.arcgis.com/ (2018)"}}, {"type": "node", "id": 6282632051, "lat": 38.7519252, "lon": -90.5852243, "tags": {"addr:city": "Saint Peters", "addr:housenumber": "404", "addr:postcode": "63376", "addr:street": "Silverwood Court", "source:addr": "https://gis.sccmo.opendata.arcgis.com/ (2018)"}}, {"type": "node", "id": 6282632052, "lat": 38.7522215, "lon": -90.5849288, "tags": {"addr:city": "Saint Peters", "addr:housenumber": "408", "addr:postcode": "63376", "addr:street": "Silverwood Court", "source:addr": "https://gis.sccmo.opendata.arcgis.com/ (2018)"}}, {"type": "node", "id": 6282632053, "lat": 38.751999, "lon": -90.5850291, "tags": {"addr:city": "Saint Peters", "addr:housenumber": "406", "addr:postcode": "63376", "addr:street": "Silverwood Court", "source:addr": "https://gis.sccmo.opendata.arcgis.com/ (2018)"}}, {"type": "node", "id": 6282632054, "lat": 38.7518566, "lon": -90.5857561, "tags": {"addr:city": "Saint Peters", "addr:housenumber": "400", "addr:postcode": "63376", "addr:street": "Silverwood Court", "source:addr": "https://gis.sccmo.opendata.arcgis.com/ (2018)"}}, {"type": "node", "id": 6282632055, "lat": 38.7523679, "lon": -90.5850741, "tags": {"addr:city": "Saint Peters", "addr:housenumber": "407", "addr:postcode": "63376", "addr:street": "Silverwood Court", "source:addr": "https://gis.sccmo.opendata.arcgis.com/ (2018)"}}, {"type": "node", "id": 6282632056, "lat": 38.7523521, "lon": -90.5853495, "tags": {"addr:city": "Saint Peters", "addr:housenumber": "405", "addr:postcode": "63376", "addr:street": "Silverwood Court", "source:addr": "https://gis.sccmo.opendata.arcgis.com/ (2018)"}}, {"type": "node", "id": 6282632057, "lat": 38.7522472, "lon": -90.5855592, "tags": {"addr:city": "Saint Peters", "addr:housenumber": "403", "addr:postcode": "63376", "addr:street": "Silverwood Court", "source:addr": "https://gis.sccmo.opendata.arcgis.com/ (2018)"}}, {"type": "node", "id": 6282632058, "lat": 38.752173, "lon": -90.5858457, "tags": {"addr:city": "Saint Peters", "addr:housenumber": "401", "addr:postcode": "63376", "addr:street": "Silverwood Court", "source:addr": "https://gis.sccmo.opendata.arcgis.com/ (2018)"}}, {"type": "node", "id": 6282632059, "lat": 38.754491, "lon": -90.586192}, {"type": "node", "id": 6282632060, "lat": 38.754614, "lon": -90.585943}, {"type": "node", "id": 6282632061, "lat": 38.754087, "lon": -90.585802}, {"type": "node", "id": 6282632062, "lat": 38.753468, "lon": -90.585669}, {"type": "node", "id": 6282632063, "lat": 38.754033, "lon": -90.585684}, {"type": "node", "id": 6282632064, "lat": 38.754409, "lon": -90.586099}, {"type": "node", "id": 6282632065, "lat": 38.754535, "lon": -90.585216}, {"type": "node", "id": 6282632066, "lat": 38.754737, "lon": -90.585753}, {"type": "node", "id": 6282632067, "lat": 38.75342, "lon": -90.586163}, {"type": "node", "id": 6282632068, "lat": 38.753367, "lon": -90.585849}, {"type": "node", "id": 6282632069, "lat": 38.75322, "lon": -90.58617}, {"type": "node", "id": 6282632070, "lat": 38.753661, "lon": -90.586146}, {"type": "node", "id": 6282632071, "lat": 38.754791, "lon": -90.585237}, {"type": "node", "id": 6282632072, "lat": 38.753749, "lon": -90.585634}, {"type": "node", "id": 6282632073, "lat": 38.754437, "lon": -90.585534}, {"type": "node", "id": 6282632074, "lat": 38.753462, "lon": -90.586151}, {"type": "node", "id": 6282632075, "lat": 38.752868, "lon": -90.586067}, {"type": "node", "id": 6282632076, "lat": 38.754056, "lon": -90.586124}, {"type": "node", "id": 6282632077, "lat": 38.753983, "lon": -90.586226}, {"type": "node", "id": 6282632078, "lat": 38.753636, "lon": -90.584872}, {"type": "node", "id": 6282632079, "lat": 38.752946, "lon": -90.584947}, {"type": "node", "id": 6282632080, "lat": 38.7528319, "lon": -90.5853034, "tags": {"addr:city": "Saint Peters", "addr:housenumber": "3044", "addr:postcode": "63376", "addr:street": "Almond Tree Drive", "source:addr": "https://gis.sccmo.opendata.arcgis.com/ (2018)"}}, {"type": "node", "id": 6282632081, "lat": 38.753092, "lon": -90.585477}, {"type": "node", "id": 6282632082, "lat": 38.75383, "lon": -90.584681}, {"type": "node", "id": 6282632083, "lat": 38.754119, "lon": -90.585175}, {"type": "node", "id": 6282632084, "lat": 38.7510094, "lon": -90.5864211, "tags": {"addr:city": "Saint Peters", "addr:housenumber": "3011", "addr:postcode": "63376", "addr:street": "Almond Tree Drive", "source:addr": "https://gis.sccmo.opendata.arcgis.com/ (2018)"}}, {"type": "node", "id": 6282632185, "lat": 38.7508039, "lon": -90.5864228, "tags": {"addr:city": "Saint Peters", "addr:housenumber": "3007", "addr:postcode": "63376", "addr:street": "Almond Tree Drive", "source:addr": "https://gis.sccmo.opendata.arcgis.com/ (2018)"}}, {"type": "node", "id": 6282632186, "lat": 38.7520586, "lon": -90.5863765, "tags": {"addr:city": "Saint Peters", "addr:housenumber": "3031", "addr:postcode": "63376", "addr:street": "Almond Tree Drive", "source:addr": "https://gis.sccmo.opendata.arcgis.com/ (2018)"}}, {"type": "node", "id": 6282632187, "lat": 38.7512129, "lon": -90.586415, "tags": {"addr:city": "Saint Peters", "addr:housenumber": "3015", "addr:postcode": "63376", "addr:street": "Almond Tree Drive", "source:addr": "https://gis.sccmo.opendata.arcgis.com/ (2018)"}}, {"type": "node", "id": 6282632188, "lat": 38.755341, "lon": -90.584731}, {"type": "node", "id": 6282632189, "lat": 38.7511366, "lon": -90.5859936, "tags": {"addr:city": "Saint Peters", "addr:housenumber": "3012", "addr:postcode": "63376", "addr:street": "Almond Tree Drive", "source:addr": "https://gis.sccmo.opendata.arcgis.com/ (2018)"}}, {"type": "node", "id": 6282632190, "lat": 38.753882, "lon": -90.585196}, {"type": "node", "id": 6282632191, "lat": 38.754706, "lon": -90.584637}, {"type": "node", "id": 6282632192, "lat": 38.754083, "lon": -90.585188}, {"type": "node", "id": 6282632193, "lat": 38.7514106, "lon": -90.5864221, "tags": {"addr:city": "Saint Peters", "addr:housenumber": "3019", "addr:postcode": "63376", "addr:street": "Almond Tree Drive", "source:addr": "https://gis.sccmo.opendata.arcgis.com/ (2018)"}}, {"type": "node", "id": 6282632194, "lat": 38.752643, "lon": -90.585453}, {"type": "node", "id": 6282632195, "lat": 38.754085, "lon": -90.584687}, {"type": "node", "id": 6282632196, "lat": 38.753027, "lon": -90.585829}, {"type": "node", "id": 6282632197, "lat": 38.754588, "lon": -90.58484}, {"type": "node", "id": 6282632198, "lat": 38.7525182, "lon": -90.5859693, "tags": {"addr:city": "Saint Peters", "addr:housenumber": "3032", "addr:postcode": "63376", "addr:street": "Almond Tree Drive", "source:addr": "https://gis.sccmo.opendata.arcgis.com/ (2018)"}}, {"type": "node", "id": 6282632199, "lat": 38.753684, "lon": -90.58521}, {"type": "node", "id": 6282632200, "lat": 38.755017, "lon": -90.58479}, {"type": "node", "id": 6282632201, "lat": 38.754228, "lon": -90.58485}, {"type": "node", "id": 6282632202, "lat": 38.7526553, "lon": -90.5863733, "tags": {"addr:city": "Saint Peters", "addr:housenumber": "3041", "addr:postcode": "63376", "addr:street": "Almond Tree Drive", "source:addr": "https://gis.sccmo.opendata.arcgis.com/ (2018)"}}, {"type": "node", "id": 6282632203, "lat": 38.754821, "lon": -90.584822}, {"type": "node", "id": 6282632204, "lat": 38.753439, "lon": -90.584888}, {"type": "node", "id": 6282632205, "lat": 38.7506566, "lon": -90.5860259, "tags": {"addr:city": "Saint Peters", "addr:housenumber": "3004", "addr:postcode": "63376", "addr:street": "Almond Tree Drive", "source:addr": "https://gis.sccmo.opendata.arcgis.com/ (2018)"}}, {"type": "node", "id": 6282632206, "lat": 38.7508836, "lon": -90.5860389, "tags": {"addr:city": "Saint Peters", "addr:housenumber": "3008", "addr:postcode": "63376", "addr:street": "Almond Tree Drive", "source:addr": "https://gis.sccmo.opendata.arcgis.com/ (2018)"}}, {"type": "node", "id": 6282632207, "lat": 38.753481, "lon": -90.585215}, {"type": "node", "id": 6282632208, "lat": 38.753235, "lon": -90.584771}, {"type": "node", "id": 6282632209, "lat": 38.7515901, "lon": -90.5863057, "tags": {"addr:city": "Saint Peters", "addr:housenumber": "3023", "addr:postcode": "63376", "addr:street": "Almond Tree Drive", "source:addr": "https://gis.sccmo.opendata.arcgis.com/ (2018)"}}, {"type": "node", "id": 6282632210, "lat": 38.755025, "lon": -90.585378}, {"type": "node", "id": 6282632211, "lat": 38.7518495, "lon": -90.5862687, "tags": {"addr:city": "Saint Peters", "addr:housenumber": "3027", "addr:postcode": "63376", "addr:street": "Almond Tree Drive", "source:addr": "https://gis.sccmo.opendata.arcgis.com/ (2018)"}}, {"type": "node", "id": 6282632212, "lat": 38.7504048, "lon": -90.5863872, "tags": {"addr:city": "Saint Peters", "addr:housenumber": "3001", "addr:postcode": "63376", "addr:street": "Almond Tree Drive", "source:addr": "https://gis.sccmo.opendata.arcgis.com/ (2018)"}}, {"type": "node", "id": 6282632213, "lat": 38.755292, "lon": -90.585054}, {"type": "node", "id": 6282632214, "lat": 38.7524525, "lon": -90.5864616, "tags": {"addr:city": "Saint Peters", "addr:housenumber": "3039", "addr:postcode": "63376", "addr:street": "Almond Tree Drive", "source:addr": "https://gis.sccmo.opendata.arcgis.com/ (2018)"}}, {"type": "node", "id": 6282632215, "lat": 38.7522492, "lon": -90.5864654, "tags": {"addr:city": "Saint Peters", "addr:housenumber": "3035", "addr:postcode": "63376", "addr:street": "Almond Tree Drive", "source:addr": "https://gis.sccmo.opendata.arcgis.com/ (2018)"}}, {"type": "node", "id": 6282632216, "lat": 38.7504207, "lon": -90.5860077, "tags": {"addr:city": "Saint Peters", "addr:housenumber": "3000", "addr:postcode": "63376", "addr:street": "Almond Tree Drive", "source:addr": "https://gis.sccmo.opendata.arcgis.com/ (2018)"}}, {"type": "node", "id": 6282632217, "lat": 38.752996, "lon": -90.584835}, {"type": "node", "id": 6282632218, "lat": 38.7526563, "lon": -90.585716, "tags": {"addr:city": "Saint Peters", "addr:housenumber": "3036", "addr:postcode": "63376", "addr:street": "Almond Tree Drive", "source:addr": "https://gis.sccmo.opendata.arcgis.com/ (2018)"}}, {"type": "node", "id": 8427216375, "lat": 38.756233, "lon": -90.585532}, {"type": "node", "id": 8427216376, "lat": 38.756022, "lon": -90.585358}, {"type": "node", "id": 8427216377, "lat": 38.755942, "lon": -90.585365}, {"type": "node", "id": 8427216378, "lat": 38.75592, "lon": -90.58541}, {"type": "node", "id": 8427216379, "lat": 38.755916, "lon": -90.585411}, {"type": "node", "id": 8427216380, "lat": 38.755781, "lon": -90.585299}, {"type": "node", "id": 8427216381, "lat": 38.75578, "lon": -90.585282}, {"type": "node", "id": 8427216382, "lat": 38.755848, "lon": -90.585146}, {"type": "node", "id": 8427216383, "lat": 38.756072, "lon": -90.585126}, {"type": "node", "id": 8427216384, "lat": 38.75633, "lon": -90.585339}, {"type": "node", "id": 8427216385, "lat": 38.755526, "lon": -90.585662}, {"type": "node", "id": 8427216386, "lat": 38.755663, "lon": -90.58553}, {"type": "node", "id": 8427216387, "lat": 38.755766, "lon": -90.585705}, {"type": "node", "id": 8427216388, "lat": 38.755629, "lon": -90.585837}, {"type": "node", "id": 8427216389, "lat": 38.755191, "lon": -90.586237}, {"type": "node", "id": 8427216390, "lat": 38.755429, "lon": -90.586127}, {"type": "node", "id": 8427216391, "lat": 38.755473, "lon": -90.586287}, {"type": "node", "id": 8427216392, "lat": 38.755235, "lon": -90.586396}, {"type": "node", "id": 8427216393, "lat": 38.754901, "lon": -90.586901}, {"type": "node", "id": 8427216394, "lat": 38.754893, "lon": -90.586875}, {"type": "node", "id": 8427216395, "lat": 38.754855, "lon": -90.586892}, {"type": "node", "id": 8427216396, "lat": 38.754807, "lon": -90.58672}, {"type": "node", "id": 8427216397, "lat": 38.754843, "lon": -90.586703}, {"type": "node", "id": 8427216398, "lat": 38.754835, "lon": -90.586674}, {"type": "node", "id": 8427216399, "lat": 38.7549, "lon": -90.586644}, {"type": "node", "id": 8427216400, "lat": 38.754892, "lon": -90.586614}, {"type": "node", "id": 8427216401, "lat": 38.754943, "lon": -90.58659}, {"type": "node", "id": 8427216402, "lat": 38.755016, "lon": -90.586848}, {"type": "node", "id": 8427216407, "lat": 38.753027, "lon": -90.58562}, {"type": "node", "id": 8427216408, "lat": 38.753155, "lon": -90.58562}, {"type": "node", "id": 8427216409, "lat": 38.753155, "lon": -90.585829}, {"type": "node", "id": 8427216410, "lat": 38.752961, "lon": -90.586119}, {"type": "node", "id": 8427216411, "lat": 38.752944, "lon": -90.586167}, {"type": "node", "id": 8427216412, "lat": 38.752993, "lon": -90.586194}, {"type": "node", "id": 8427216413, "lat": 38.75297, "lon": -90.586264}, {"type": "node", "id": 8427216414, "lat": 38.752915, "lon": -90.586234}, {"type": "node", "id": 8427216415, "lat": 38.752901, "lon": -90.586274}, {"type": "node", "id": 8427216416, "lat": 38.752814, "lon": -90.586225}, {"type": "node", "id": 8427254717, "lat": 38.753183, "lon": -90.585309}, {"type": "node", "id": 8427254718, "lat": 38.753263, "lon": -90.585381}, {"type": "node", "id": 8427254719, "lat": 38.753172, "lon": -90.585549}, {"type": "node", "id": 8427254720, "lat": 38.753481, "lon": -90.585312}, {"type": "node", "id": 8427254721, "lat": 38.753439, "lon": -90.585312}, {"type": "node", "id": 8427254722, "lat": 38.753439, "lon": -90.585352}, {"type": "node", "id": 8427254723, "lat": 38.75332, "lon": -90.585352}, {"type": "node", "id": 8427254724, "lat": 38.75332, "lon": -90.585215}, {"type": "node", "id": 8427254725, "lat": 38.753277, "lon": -90.58585}, {"type": "node", "id": 8427254726, "lat": 38.753276, "lon": -90.585678}, {"type": "node", "id": 8427254727, "lat": 38.753366, "lon": -90.585677}, {"type": "node", "id": 8427254728, "lat": 38.753367, "lon": -90.585728}, {"type": "node", "id": 8427254729, "lat": 38.753438, "lon": -90.585728}, {"type": "node", "id": 8427254730, "lat": 38.753438, "lon": -90.5858}, {"type": "node", "id": 8427254731, "lat": 38.753367, "lon": -90.585801}, {"type": "node", "id": 8427254732, "lat": 38.753421, "lon": -90.586266}, {"type": "node", "id": 8427254733, "lat": 38.753349, "lon": -90.586267}, {"type": "node", "id": 8427254734, "lat": 38.75335, "lon": -90.586363}, {"type": "node", "id": 8427254735, "lat": 38.753265, "lon": -90.586364}, {"type": "node", "id": 8427254736, "lat": 38.753265, "lon": -90.586164}, {"type": "node", "id": 8427254737, "lat": 38.753217, "lon": -90.586274}, {"type": "node", "id": 8427254738, "lat": 38.753137, "lon": -90.586271}, {"type": "node", "id": 8427254739, "lat": 38.753134, "lon": -90.586365}, {"type": "node", "id": 8427254740, "lat": 38.753049, "lon": -90.586361}, {"type": "node", "id": 8427254741, "lat": 38.753054, "lon": -90.586163}, {"type": "node", "id": 8427254742, "lat": 38.753575, "lon": -90.585662}, {"type": "node", "id": 8427254743, "lat": 38.753577, "lon": -90.585715}, {"type": "node", "id": 8427254744, "lat": 38.753628, "lon": -90.585712}, {"type": "node", "id": 8427254745, "lat": 38.753631, "lon": -90.585777}, {"type": "node", "id": 8427254746, "lat": 38.753582, "lon": -90.58578}, {"type": "node", "id": 8427254747, "lat": 38.753584, "lon": -90.585833}, {"type": "node", "id": 8427254748, "lat": 38.753475, "lon": -90.58584}, {"type": "node", "id": 8427254749, "lat": 38.753623, "lon": -90.586151}, {"type": "node", "id": 8427254750, "lat": 38.753623, "lon": -90.586242}, {"type": "node", "id": 8427254751, "lat": 38.753585, "lon": -90.586242}, {"type": "node", "id": 8427254752, "lat": 38.753585, "lon": -90.586288}, {"type": "node", "id": 8427254753, "lat": 38.753462, "lon": -90.586288}, {"type": "node", "id": 8427254754, "lat": 38.75375, "lon": -90.585704}, {"type": "node", "id": 8427254755, "lat": 38.753827, "lon": -90.585702}, {"type": "node", "id": 8427254756, "lat": 38.753829, "lon": -90.585828}, {"type": "node", "id": 8427254757, "lat": 38.753671, "lon": -90.585832}, {"type": "node", "id": 8427254758, "lat": 38.753668, "lon": -90.585636}, {"type": "node", "id": 8427254759, "lat": 38.753824, "lon": -90.586146}, {"type": "node", "id": 8427254760, "lat": 38.753824, "lon": -90.586277}, {"type": "node", "id": 8427254761, "lat": 38.753661, "lon": -90.586277}, {"type": "node", "id": 8427254762, "lat": 38.754033, "lon": -90.585816}, {"type": "node", "id": 8427254763, "lat": 38.753864, "lon": -90.585816}, {"type": "node", "id": 8427254764, "lat": 38.753864, "lon": -90.585684}, {"type": "node", "id": 8427254765, "lat": 38.754087, "lon": -90.585674}, {"type": "node", "id": 8427254766, "lat": 38.754221, "lon": -90.585674}, {"type": "node", "id": 8427254767, "lat": 38.754221, "lon": -90.585802}, {"type": "node", "id": 8427254768, "lat": 38.753983, "lon": -90.586272}, {"type": "node", "id": 8427254769, "lat": 38.753857, "lon": -90.586272}, {"type": "node", "id": 8427254770, "lat": 38.753857, "lon": -90.586132}, {"type": "node", "id": 8427254771, "lat": 38.754018, "lon": -90.586132}, {"type": "node", "id": 8427254772, "lat": 38.754018, "lon": -90.586226}, {"type": "node", "id": 8427254773, "lat": 38.754211, "lon": -90.586124}, {"type": "node", "id": 8427254774, "lat": 38.754211, "lon": -90.586256}, {"type": "node", "id": 8427254775, "lat": 38.754056, "lon": -90.586256}, {"type": "node", "id": 8427254776, "lat": 38.754425, "lon": -90.586253}, {"type": "node", "id": 8427254777, "lat": 38.754267, "lon": -90.586281}, {"type": "node", "id": 8427254778, "lat": 38.754251, "lon": -90.586128}, {"type": "node", "id": 8427254779, "lat": 38.754445, "lon": -90.586086}, {"type": "node", "id": 8427254780, "lat": 38.754585, "lon": -90.585986}, {"type": "node", "id": 8427254781, "lat": 38.754631, "lon": -90.586091}, {"type": "node", "id": 8427254782, "lat": 38.754712, "lon": -90.585788}, {"type": "node", "id": 8427254783, "lat": 38.75479, "lon": -90.585869}, {"type": "node", "id": 8427254784, "lat": 38.754693, "lon": -90.586024}, {"type": "node", "id": 8427254785, "lat": 38.754785, "lon": -90.585556}, {"type": "node", "id": 8427254786, "lat": 38.75488, "lon": -90.585594}, {"type": "node", "id": 8427254787, "lat": 38.754832, "lon": -90.585792}, {"type": "node", "id": 8427254788, "lat": 38.754889, "lon": -90.585237}, {"type": "node", "id": 8427254789, "lat": 38.754889, "lon": -90.585411}, {"type": "node", "id": 8427254790, "lat": 38.754791, "lon": -90.585411}, {"type": "node", "id": 8427254791, "lat": 38.754499, "lon": -90.58564}, {"type": "node", "id": 8427254792, "lat": 38.754371, "lon": -90.585764}, {"type": "node", "id": 8427254793, "lat": 38.754285, "lon": -90.585617}, {"type": "node", "id": 8427254794, "lat": 38.754359, "lon": -90.585546}, {"type": "node", "id": 8427254795, "lat": 38.754383, "lon": -90.585587}, {"type": "node", "id": 8427254796, "lat": 38.754536, "lon": -90.585329}, {"type": "node", "id": 8427254797, "lat": 38.754499, "lon": -90.585329}, {"type": "node", "id": 8427254798, "lat": 38.7545, "lon": -90.585416}, {"type": "node", "id": 8427254799, "lat": 38.754445, "lon": -90.585416}, {"type": "node", "id": 8427254800, "lat": 38.754445, "lon": -90.585329}, {"type": "node", "id": 8427254801, "lat": 38.754399, "lon": -90.58533}, {"type": "node", "id": 8427254802, "lat": 38.754398, "lon": -90.585217}, {"type": "node", "id": 8427254803, "lat": 38.754284, "lon": -90.585175}, {"type": "node", "id": 8427254804, "lat": 38.754284, "lon": -90.585304}, {"type": "node", "id": 8427254805, "lat": 38.754119, "lon": -90.585304}, {"type": "node", "id": 8427254806, "lat": 38.754083, "lon": -90.585317}, {"type": "node", "id": 8427254807, "lat": 38.75405, "lon": -90.585317}, {"type": "node", "id": 8427254808, "lat": 38.75405, "lon": -90.58536}, {"type": "node", "id": 8427254809, "lat": 38.753977, "lon": -90.58536}, {"type": "node", "id": 8427254810, "lat": 38.753977, "lon": -90.585317}, {"type": "node", "id": 8427254811, "lat": 38.75392, "lon": -90.585317}, {"type": "node", "id": 8427254812, "lat": 38.75392, "lon": -90.585188}, {"type": "node", "id": 8427254813, "lat": 38.753882, "lon": -90.585338}, {"type": "node", "id": 8427254814, "lat": 38.753724, "lon": -90.585338}, {"type": "node", "id": 8427254815, "lat": 38.753724, "lon": -90.585196}, {"type": "node", "id": 8427254816, "lat": 38.755071, "lon": -90.585366}, {"type": "node", "id": 8427254817, "lat": 38.755063, "lon": -90.585314}, {"type": "node", "id": 8427254818, "lat": 38.755162, "lon": -90.585288}, {"type": "node", "id": 8427254819, "lat": 38.755186, "lon": -90.585434}, {"type": "node", "id": 8427254820, "lat": 38.75504, "lon": -90.585473}, {"type": "node", "id": 8427254821, "lat": 38.755437, "lon": -90.585112}, {"type": "node", "id": 8427254822, "lat": 38.755412, "lon": -90.585215}, {"type": "node", "id": 8427254823, "lat": 38.755353, "lon": -90.585191}, {"type": "node", "id": 8427254824, "lat": 38.755331, "lon": -90.585283}, {"type": "node", "id": 8427254825, "lat": 38.755245, "lon": -90.585249}, {"type": "node", "id": 8427254826, "lat": 38.755386, "lon": -90.584824}, {"type": "node", "id": 8427254827, "lat": 38.755326, "lon": -90.584871}, {"type": "node", "id": 8427254828, "lat": 38.755365, "lon": -90.584953}, {"type": "node", "id": 8427254829, "lat": 38.75529, "lon": -90.585012}, {"type": "node", "id": 8427254830, "lat": 38.755207, "lon": -90.584837}, {"type": "node", "id": 8427254831, "lat": 38.755037, "lon": -90.584631}, {"type": "node", "id": 8427254832, "lat": 38.755169, "lon": -90.584657}, {"type": "node", "id": 8427254833, "lat": 38.755162, "lon": -90.584712}, {"type": "node", "id": 8427254834, "lat": 38.755201, "lon": -90.58472}, {"type": "node", "id": 8427254835, "lat": 38.755188, "lon": -90.584824}, {"type": "node", "id": 8427254836, "lat": 38.754819, "lon": -90.584622}, {"type": "node", "id": 8427254837, "lat": 38.754903, "lon": -90.584621}, {"type": "node", "id": 8427254838, "lat": 38.754904, "lon": -90.584667}, {"type": "node", "id": 8427254839, "lat": 38.754978, "lon": -90.584666}, {"type": "node", "id": 8427254840, "lat": 38.754979, "lon": -90.584819}, {"type": "node", "id": 8427254841, "lat": 38.754707, "lon": -90.584711}, {"type": "node", "id": 8427254842, "lat": 38.754782, "lon": -90.584709}, {"type": "node", "id": 8427254843, "lat": 38.754784, "lon": -90.584831}, {"type": "node", "id": 8427254844, "lat": 38.754626, "lon": -90.584834}, {"type": "node", "id": 8427254845, "lat": 38.754624, "lon": -90.584638}, {"type": "node", "id": 8427254846, "lat": 38.754427, "lon": -90.58484}, {"type": "node", "id": 8427254847, "lat": 38.754427, "lon": -90.58472}, {"type": "node", "id": 8427254848, "lat": 38.754499, "lon": -90.584719}, {"type": "node", "id": 8427254849, "lat": 38.754499, "lon": -90.584663}, {"type": "node", "id": 8427254850, "lat": 38.754545, "lon": -90.584663}, {"type": "node", "id": 8427254851, "lat": 38.754545, "lon": -90.584727}, {"type": "node", "id": 8427254852, "lat": 38.754588, "lon": -90.584727}, {"type": "node", "id": 8427254853, "lat": 38.75423, "lon": -90.584657}, {"type": "node", "id": 8427254854, "lat": 38.754312, "lon": -90.584658}, {"type": "node", "id": 8427254855, "lat": 38.754312, "lon": -90.584709}, {"type": "node", "id": 8427254856, "lat": 38.754389, "lon": -90.584711}, {"type": "node", "id": 8427254857, "lat": 38.754388, "lon": -90.584853}, {"type": "node", "id": 8427254858, "lat": 38.75415, "lon": -90.584687}, {"type": "node", "id": 8427254859, "lat": 38.75415, "lon": -90.584746}, {"type": "node", "id": 8427254860, "lat": 38.754194, "lon": -90.584746}, {"type": "node", "id": 8427254861, "lat": 38.754194, "lon": -90.584858}, {"type": "node", "id": 8427254862, "lat": 38.754033, "lon": -90.584858}, {"type": "node", "id": 8427254863, "lat": 38.754033, "lon": -90.584727}, {"type": "node", "id": 8427254864, "lat": 38.754085, "lon": -90.584727}, {"type": "node", "id": 8427254865, "lat": 38.753916, "lon": -90.584681}, {"type": "node", "id": 8427254866, "lat": 38.753916, "lon": -90.584743}, {"type": "node", "id": 8427254867, "lat": 38.753991, "lon": -90.584743}, {"type": "node", "id": 8427254868, "lat": 38.753991, "lon": -90.584872}, {"type": "node", "id": 8427254869, "lat": 38.75383, "lon": -90.584872}, {"type": "node", "id": 8427254870, "lat": 38.753636, "lon": -90.584727}, {"type": "node", "id": 8427254871, "lat": 38.753726, "lon": -90.584727}, {"type": "node", "id": 8427254872, "lat": 38.753726, "lon": -90.584695}, {"type": "node", "id": 8427254873, "lat": 38.753793, "lon": -90.584695}, {"type": "node", "id": 8427254874, "lat": 38.753793, "lon": -90.584872}, {"type": "node", "id": 8427254875, "lat": 38.753684, "lon": -90.58533}, {"type": "node", "id": 8427254876, "lat": 38.753531, "lon": -90.58533}, {"type": "node", "id": 8427254877, "lat": 38.753531, "lon": -90.58521}, {"type": "node", "id": 8427254878, "lat": 38.753439, "lon": -90.584754}, {"type": "node", "id": 8427254879, "lat": 38.7536, "lon": -90.584754}, {"type": "node", "id": 8427254880, "lat": 38.7536, "lon": -90.584888}, {"type": "node", "id": 8427254881, "lat": 38.753395, "lon": -90.584759}, {"type": "node", "id": 8427254882, "lat": 38.753401, "lon": -90.584896}, {"type": "node", "id": 8427254883, "lat": 38.753241, "lon": -90.584907}, {"type": "node", "id": 8427254884, "lat": 38.753071, "lon": -90.584793}, {"type": "node", "id": 8427254885, "lat": 38.753091, "lon": -90.584853}, {"type": "node", "id": 8427254886, "lat": 38.753163, "lon": -90.584812}, {"type": "node", "id": 8427254887, "lat": 38.753203, "lon": -90.58493}, {"type": "node", "id": 8427254888, "lat": 38.753056, "lon": -90.585013}, {"type": "node", "id": 8427254889, "lat": 38.753034, "lon": -90.58505}, {"type": "node", "id": 8427254890, "lat": 38.752929, "lon": -90.585198}, {"type": "node", "id": 8427254891, "lat": 38.752841, "lon": -90.585095}, {"type": "node", "id": 8427254892, "lat": 38.752692, "lon": -90.585484}, {"type": "node", "id": 8427254893, "lat": 38.752724, "lon": -90.585402}, {"type": "node", "id": 8427254894, "lat": 38.752813, "lon": -90.585458}, {"type": "node", "id": 8427254895, "lat": 38.752743, "lon": -90.585639}, {"type": "node", "id": 8427254896, "lat": 38.752605, "lon": -90.585552}, {"type": "node", "id": 12370398989, "lat": 38.7499587, "lon": -90.5849622}, {"type": "node", "id": 12370398990, "lat": 38.7500886, "lon": -90.5849796}, {"type": "node", "id": 12370404819, "lat": 38.7499466, "lon": -90.5851139}, {"type": "node", "id": 12370404820, "lat": 38.7499704, "lon": -90.5848161}, {"type": "node", "id": 12370404821, "lat": 38.7499832, "lon": -90.5848181}, {"type": "node", "id": 12370404822, "lat": 38.7499959, "lon": -90.5846563}, {"type": "node", "id": 12370404823, "lat": 38.7501152, "lon": -90.5846746}, {"type": "node", "id": 12370404824, "lat": 38.7501094, "lon": -90.5847596}, {"type": "node", "id": 12370404825, "lat": 38.7501433, "lon": -90.584763}, {"type": "node", "id": 12370404826, "lat": 38.7501348, "lon": -90.5848643}, {"type": "node", "id": 12370404827, "lat": 38.7500972, "lon": -90.5848609}, {"type": "node", "id": 12370404828, "lat": 38.7500776, "lon": -90.5851315}, {"type": "node", "id": 12370404911, "lat": 38.7499322, "lon": -90.5836064}, {"type": "node", "id": 12370404912, "lat": 38.7499176, "lon": -90.5836025}, {"type": "node", "id": 12370404993, "lat": 38.749898, "lon": -90.5837626}, {"type": "node", "id": 12370404994, "lat": 38.7499516, "lon": -90.5834988}, {"type": "node", "id": 12370404995, "lat": 38.7501048, "lon": -90.5835328}, {"type": "node", "id": 12370404996, "lat": 38.7500756, "lon": -90.5837871}, {"type": "node", "id": 12372703690, "lat": 38.7510125, "lon": -90.5834999}, {"type": "node", "id": 12372703691, "lat": 38.751124, "lon": -90.5834211}, {"type": "node", "id": 12372703692, "lat": 38.7511268, "lon": -90.5834288}, {"type": "node", "id": 12372703693, "lat": 38.7511438, "lon": -90.583416}, {"type": "node", "id": 12372703694, "lat": 38.7510863, "lon": -90.5832778}, {"type": "node", "id": 12372703695, "lat": 38.7509511, "lon": -90.5833704}, {"type": "node", "id": 12372703696, "lat": 38.7516501, "lon": -90.5833786}, {"type": "node", "id": 12372703697, "lat": 38.7516308, "lon": -90.5832395}, {"type": "node", "id": 12372703698, "lat": 38.7516454, "lon": -90.5832348}, {"type": "node", "id": 12372703699, "lat": 38.751627, "lon": -90.5830894}, {"type": "node", "id": 12372703700, "lat": 38.7514914, "lon": -90.5831166}, {"type": "node", "id": 12372711701, "lat": 38.7515014, "lon": -90.5831843}, {"type": "node", "id": 12372711702, "lat": 38.7514862, "lon": -90.5831864}, {"type": "node", "id": 12372711703, "lat": 38.7514979, "lon": -90.5832938}, {"type": "node", "id": 12372711704, "lat": 38.7514851, "lon": -90.5832956}, {"type": "node", "id": 12372711705, "lat": 38.751493, "lon": -90.583347}, {"type": "node", "id": 12372711706, "lat": 38.7515116, "lon": -90.5833422}, {"type": "node", "id": 12372711707, "lat": 38.7515191, "lon": -90.5834051}, {"type": "node", "id": 12372711740, "lat": 38.7507505, "lon": -90.5835531}, {"type": "node", "id": 12372711741, "lat": 38.7507546, "lon": -90.5834286}, {"type": "node", "id": 12372711742, "lat": 38.750765, "lon": -90.5834296}, {"type": "node", "id": 12372711743, "lat": 38.7507679, "lon": -90.5833278}, {"type": "node", "id": 12372711744, "lat": 38.7506236, "lon": -90.5833144}, {"type": "node", "id": 12372711745, "lat": 38.7506244, "lon": -90.5833934}, {"type": "node", "id": 12372711746, "lat": 38.7506389, "lon": -90.5833929}, {"type": "node", "id": 12372711747, "lat": 38.7506377, "lon": -90.5834957}, {"type": "node", "id": 12372711748, "lat": 38.7506526, "lon": -90.5834973}, {"type": "node", "id": 12372711749, "lat": 38.7506494, "lon": -90.5835531}, {"type": "way", "id": 286783316, "nodes": [2904551845, 2904551846, 2904551847, 2904551848, 2904551849, 2904551850, 2904551845], "tags": {"addr:city": "Saint Peters", "addr:housenumber": "402", "addr:postcode": "63376", "addr:street": "Silverwood Court", "building": "house", "building:levels": "1"}}, {"type": "way", "id": 663246597, "nodes": [6208369916, 6208369915, 6208369914, 6208369913, 6208369912, 6208369911, 6208369916], "tags": {"addr:city": "Saint Peters", "addr:housenumber": "1405", "addr:postcode": "63376", "addr:street": "Jungermann Road", "building": "office"}}, {"type": "way", "id": 907565755, "nodes": [8427216375, 8427216376, 8427216377, 8427216378, 8427216379, 8427216380, 8427216381, 8427216382, 8427216383, 8427216384, 8427216375], "tags": {"building": "yes", "source": "microsoft/BuildingFootprints"}}, {"type": "way", "id": 907565756, "nodes": [8427216385, 8427216386, 8427216387, 8427216388, 8427216385], "tags": {"building": "yes", "source": "microsoft/BuildingFootprints"}}, {"type": "way", "id": 907565757, "nodes": [8427216389, 8427216390, 8427216391, 8427216392, 8427216389], "tags": {"building": "yes", "source": "microsoft/BuildingFootprints"}}, {"type": "way", "id": 907565758, "nodes": [8427216393, 8427216394, 8427216395, 8427216396, 8427216397, 8427216398, 8427216399, 8427216400, 8427216401, 8427216402, 8427216393], "tags": {"building": "yes", "source": "microsoft/BuildingFootprints"}}, {"type": "way", "id": 907565760, "nodes": [6282632196, 8427216407, 8427216408, 8427216409, 6282632196], "tags": {"addr:city": "Saint Peters", "addr:housenumber": "3045", "addr:postcode": "63376", "addr:state": "MO", "addr:street": "Almond Tree Drive", "building": "house", "source": "microsoft/BuildingFootprints", "source:addr": "https://gis.sccmo.opendata.arcgis.com/ (2018)"}}, {"type": "way", "id": 907565761, "nodes": [6282632075, 8427216410, 8427216411, 8427216412, 8427216413, 8427216414, 8427216415, 8427216416, 6282632075], "tags": {"addr:city": "Saint Peters", "addr:housenumber": "601", "addr:postcode": "63376", "addr:state": "MO", "addr:street": "Autumn Oaks Drive", "building": "house", "source": "microsoft/BuildingFootprints", "source:addr": "https://gis.sccmo.opendata.arcgis.com/ (2018)"}}, {"type": "way", "id": 907565762, "nodes": [6282632081, 8427254717, 8427254718, 8427254719, 6282632081], "tags": {"addr:city": "Saint Peters", "addr:housenumber": "3047", "addr:postcode": "63376", "addr:state": "MO", "addr:street": "Almond Tree Drive", "building": "house", "source": "microsoft/BuildingFootprints", "source:addr": "https://gis.sccmo.opendata.arcgis.com/ (2018)"}}, {"type": "way", "id": 907565763, "nodes": [6282632207, 8427254720, 8427254721, 8427254722, 8427254723, 8427254724, 6282632207], "tags": {"addr:city": "Saint Peters", "addr:housenumber": "3053", "addr:postcode": "63376", "addr:state": "MO", "addr:street": "Almond Tree Drive", "building": "house", "source": "microsoft/BuildingFootprints", "source:addr": "https://gis.sccmo.opendata.arcgis.com/ (2018)"}}, {"type": "way", "id": 907565764, "nodes": [6282632068, 8427254725, 8427254726, 8427254727, 8427254728, 8427254729, 8427254730, 8427254731, 6282632068], "tags": {"addr:city": "Saint Peters", "addr:housenumber": "608", "addr:postcode": "63376", "addr:state": "MO", "addr:street": "Autumn Oaks Drive", "building": "house", "source": "microsoft/BuildingFootprints", "source:addr": "https://gis.sccmo.opendata.arcgis.com/ (2018)"}}, {"type": "way", "id": 907565765, "nodes": [6282632067, 8427254732, 8427254733, 8427254734, 8427254735, 8427254736, 6282632067], "tags": {"addr:city": "Saint Peters", "addr:housenumber": "609", "addr:postcode": "63376", "addr:state": "MO", "addr:street": "Autumn Oaks Drive", "building": "house", "source": "microsoft/BuildingFootprints", "source:addr": "https://gis.sccmo.opendata.arcgis.com/ (2018)"}}, {"type": "way", "id": 907565766, "nodes": [6282632069, 8427254737, 8427254738, 8427254739, 8427254740, 8427254741, 6282632069], "tags": {"addr:city": "Saint Peters", "addr:housenumber": "605", "addr:postcode": "63376", "addr:state": "MO", "addr:street": "Autumn Oaks Drive", "building": "house", "source": "microsoft/BuildingFootprints", "source:addr": "https://gis.sccmo.opendata.arcgis.com/ (2018)"}}, {"type": "way", "id": 907565767, "nodes": [6282632062, 8427254742, 8427254743, 8427254744, 8427254745, 8427254746, 8427254747, 8427254748, 6282632062], "tags": {"addr:city": "Saint Peters", "addr:housenumber": "612", "addr:postcode": "63376", "addr:state": "MO", "addr:street": "Autumn Oaks Drive", "building": "house", "source": "microsoft/BuildingFootprints", "source:addr": "https://gis.sccmo.opendata.arcgis.com/ (2018)"}}, {"type": "way", "id": 907565768, "nodes": [6282632074, 8427254749, 8427254750, 8427254751, 8427254752, 8427254753, 6282632074], "tags": {"addr:city": "Saint Peters", "addr:housenumber": "613", "addr:postcode": "63376", "addr:state": "MO", "addr:street": "Autumn Oaks Drive", "building": "house", "source": "microsoft/BuildingFootprints", "source:addr": "https://gis.sccmo.opendata.arcgis.com/ (2018)"}}, {"type": "way", "id": 907565769, "nodes": [6282632072, 8427254754, 8427254755, 8427254756, 8427254757, 8427254758, 6282632072], "tags": {"addr:city": "Saint Peters", "addr:housenumber": "616", "addr:postcode": "63376", "addr:state": "MO", "addr:street": "Autumn Oaks Drive", "building": "house", "source": "microsoft/BuildingFootprints", "source:addr": "https://gis.sccmo.opendata.arcgis.com/ (2018)"}}, {"type": "way", "id": 907565770, "nodes": [6282632070, 8427254759, 8427254760, 8427254761, 6282632070], "tags": {"addr:city": "Saint Peters", "addr:housenumber": "617", "addr:postcode": "63376", "addr:state": "MO", "addr:street": "Autumn Oaks Drive", "building": "house", "source": "microsoft/BuildingFootprints", "source:addr": "https://gis.sccmo.opendata.arcgis.com/ (2018)"}}, {"type": "way", "id": 907565771, "nodes": [6282632063, 8427254762, 8427254763, 8427254764, 6282632063], "tags": {"addr:city": "Saint Peters", "addr:housenumber": "620", "addr:postcode": "63376", "addr:state": "MO", "addr:street": "Autumn Oaks Drive", "building": "house", "source": "microsoft/BuildingFootprints", "source:addr": "https://gis.sccmo.opendata.arcgis.com/ (2018)"}}, {"type": "way", "id": 907565772, "nodes": [6282632061, 8427254765, 8427254766, 8427254767, 6282632061], "tags": {"addr:city": "Saint Peters", "addr:housenumber": "624", "addr:postcode": "63376", "addr:state": "MO", "addr:street": "Autumn Oaks Drive", "building": "house", "source": "microsoft/BuildingFootprints", "source:addr": "https://gis.sccmo.opendata.arcgis.com/ (2018)"}}, {"type": "way", "id": 907565773, "nodes": [6282632077, 8427254768, 8427254769, 8427254770, 8427254771, 8427254772, 6282632077], "tags": {"addr:city": "Saint Peters", "addr:housenumber": "621", "addr:postcode": "63376", "addr:state": "MO", "addr:street": "Autumn Oaks Drive", "building": "house", "source": "microsoft/BuildingFootprints", "source:addr": "https://gis.sccmo.opendata.arcgis.com/ (2018)"}}, {"type": "way", "id": 907565774, "nodes": [6282632076, 8427254773, 8427254774, 8427254775, 6282632076], "tags": {"addr:city": "Saint Peters", "addr:housenumber": "625", "addr:postcode": "63376", "addr:state": "MO", "addr:street": "Autumn Oaks Drive", "building": "house", "source": "microsoft/BuildingFootprints", "source:addr": "https://gis.sccmo.opendata.arcgis.com/ (2018)"}}, {"type": "way", "id": 907565775, "nodes": [6282632064, 8427254776, 8427254777, 8427254778, 6282632064], "tags": {"addr:city": "Saint Peters", "addr:housenumber": "629", "addr:postcode": "63376", "addr:state": "MO", "addr:street": "Autumn Oaks Drive", "building": "house", "source": "microsoft/BuildingFootprints", "source:addr": "https://gis.sccmo.opendata.arcgis.com/ (2018)"}}, {"type": "way", "id": 907565776, "nodes": [6282632059, 8427254779, 8427254780, 8427254781, 6282632059], "tags": {"addr:city": "Saint Peters", "addr:housenumber": "633", "addr:postcode": "63376", "addr:state": "MO", "addr:street": "Autumn Oaks Drive", "building": "house", "source": "microsoft/BuildingFootprints", "source:addr": "https://gis.sccmo.opendata.arcgis.com/ (2018)"}}, {"type": "way", "id": 907565777, "nodes": [6282632060, 8427254782, 8427254783, 8427254784, 6282632060], "tags": {"addr:city": "Saint Peters", "addr:housenumber": "637", "addr:postcode": "63376", "addr:state": "MO", "addr:street": "Autumn Oaks Drive", "building": "house", "source": "microsoft/BuildingFootprints", "source:addr": "https://gis.sccmo.opendata.arcgis.com/ (2018)"}}, {"type": "way", "id": 907565778, "nodes": [6282632066, 8427254785, 8427254786, 8427254787, 6282632066], "tags": {"addr:city": "Saint Peters", "addr:housenumber": "641", "addr:postcode": "63376", "addr:state": "MO", "addr:street": "Autumn Oaks Drive", "building": "house", "source": "microsoft/BuildingFootprints", "source:addr": "https://gis.sccmo.opendata.arcgis.com/ (2018)"}}, {"type": "way", "id": 907565779, "nodes": [6282632071, 8427254788, 8427254789, 8427254790, 6282632071], "tags": {"addr:city": "Saint Peters", "addr:housenumber": "645", "addr:postcode": "63376", "addr:state": "MO", "addr:street": "Autumn Oaks Drive", "building": "house", "source": "microsoft/BuildingFootprints", "source:addr": "https://gis.sccmo.opendata.arcgis.com/ (2018)"}}, {"type": "way", "id": 907565780, "nodes": [6282632073, 8427254791, 8427254792, 8427254793, 8427254794, 8427254795, 6282632073], "tags": {"addr:city": "Saint Peters", "addr:housenumber": "634", "addr:postcode": "63376", "addr:street": "Autumn Oaks Drive", "building": "house", "source": "microsoft/BuildingFootprints", "source:addr": "https://gis.sccmo.opendata.arcgis.com/ (2018)"}}, {"type": "way", "id": 907565781, "nodes": [6282632065, 8427254796, 8427254797, 8427254798, 8427254799, 8427254800, 8427254801, 8427254802, 6282632065], "tags": {"addr:city": "Saint Peters", "addr:housenumber": "644", "addr:postcode": "63376", "addr:street": "Autumn Oaks Drive", "building": "house", "source": "microsoft/BuildingFootprints", "source:addr": "https://gis.sccmo.opendata.arcgis.com/ (2018)"}}, {"type": "way", "id": 907565782, "nodes": [6282632083, 8427254803, 8427254804, 8427254805, 6282632083], "tags": {"addr:city": "Saint Peters", "addr:housenumber": "3071", "addr:postcode": "63376", "addr:state": "MO", "addr:street": "Almond Tree Drive", "building": "house", "source": "microsoft/BuildingFootprints", "source:addr": "https://gis.sccmo.opendata.arcgis.com/ (2018)"}}, {"type": "way", "id": 907565783, "nodes": [6282632192, 8427254806, 8427254807, 8427254808, 8427254809, 8427254810, 8427254811, 8427254812, 6282632192], "tags": {"addr:city": "Saint Peters", "addr:housenumber": "3067", "addr:postcode": "63376", "addr:state": "MO", "addr:street": "Almond Tree Drive", "building": "house", "source": "microsoft/BuildingFootprints", "source:addr": "https://gis.sccmo.opendata.arcgis.com/ (2018)"}}, {"type": "way", "id": 907565784, "nodes": [6282632190, 8427254813, 8427254814, 8427254815, 6282632190], "tags": {"addr:city": "Saint Peters", "addr:housenumber": "3063", "addr:postcode": "63376", "addr:state": "MO", "addr:street": "Almond Tree Drive", "building": "house", "source": "microsoft/BuildingFootprints", "source:addr": "https://gis.sccmo.opendata.arcgis.com/ (2018)"}}, {"type": "way", "id": 907565785, "nodes": [6282632210, 8427254816, 8427254817, 8427254818, 8427254819, 8427254820, 6282632210], "tags": {"addr:city": "Saint Peters", "addr:housenumber": "3087", "addr:postcode": "63376", "addr:state": "MO", "addr:street": "Almond Tree Drive", "building": "house", "source": "microsoft/BuildingFootprints", "source:addr": "https://gis.sccmo.opendata.arcgis.com/ (2018)"}}, {"type": "way", "id": 907565786, "nodes": [6282632213, 8427254821, 8427254822, 8427254823, 8427254824, 8427254825, 6282632213], "tags": {"addr:city": "Saint Peters", "addr:housenumber": "3089", "addr:postcode": "63376", "addr:state": "MO", "addr:street": "Almond Tree Drive", "building": "house", "source": "microsoft/BuildingFootprints", "source:addr": "https://gis.sccmo.opendata.arcgis.com/ (2018)"}}, {"type": "way", "id": 907565787, "nodes": [6282632188, 8427254826, 8427254827, 8427254828, 8427254829, 8427254830, 6282632188], "tags": {"addr:city": "Saint Peters", "addr:housenumber": "3090", "addr:postcode": "63376", "addr:state": "MO", "addr:street": "Almond Tree Drive", "building": "house", "source": "microsoft/BuildingFootprints", "source:addr": "https://gis.sccmo.opendata.arcgis.com/ (2018)"}}, {"type": "way", "id": 907565788, "nodes": [6282632200, 8427254831, 8427254832, 8427254833, 8427254834, 8427254835, 6282632200], "tags": {"addr:city": "Saint Peters", "addr:housenumber": "3088", "addr:postcode": "63376", "addr:state": "MO", "addr:street": "Almond Tree Drive", "building": "house", "source": "microsoft/BuildingFootprints", "source:addr": "https://gis.sccmo.opendata.arcgis.com/ (2018)"}}, {"type": "way", "id": 907565789, "nodes": [6282632203, 8427254836, 8427254837, 8427254838, 8427254839, 8427254840, 6282632203], "tags": {"addr:city": "Saint Peters", "addr:housenumber": "3084", "addr:postcode": "63376", "addr:state": "MO", "addr:street": "Almond Tree Drive", "building": "house", "source": "microsoft/BuildingFootprints", "source:addr": "https://gis.sccmo.opendata.arcgis.com/ (2018)"}}, {"type": "way", "id": 907565790, "nodes": [6282632191, 8427254841, 8427254842, 8427254843, 8427254844, 8427254845, 6282632191], "tags": {"addr:city": "Saint Peters", "addr:housenumber": "3080", "addr:postcode": "63376", "addr:state": "MO", "addr:street": "Almond Tree Drive", "building": "house", "source": "microsoft/BuildingFootprints", "source:addr": "https://gis.sccmo.opendata.arcgis.com/ (2018)"}}, {"type": "way", "id": 907565791, "nodes": [6282632197, 8427254846, 8427254847, 8427254848, 8427254849, 8427254850, 8427254851, 8427254852, 6282632197], "tags": {"addr:city": "Saint Peters", "addr:housenumber": "3076", "addr:postcode": "63376", "addr:state": "MO", "addr:street": "Almond Tree Drive", "building": "house", "source": "microsoft/BuildingFootprints", "source:addr": "https://gis.sccmo.opendata.arcgis.com/ (2018)"}}, {"type": "way", "id": 907565792, "nodes": [6282632201, 8427254853, 8427254854, 8427254855, 8427254856, 8427254857, 6282632201], "tags": {"addr:city": "Saint Peters", "addr:housenumber": "3072", "addr:postcode": "63376", "addr:state": "MO", "addr:street": "Almond Tree Drive", "building": "house", "source": "microsoft/BuildingFootprints", "source:addr": "https://gis.sccmo.opendata.arcgis.com/ (2018)"}}, {"type": "way", "id": 907565793, "nodes": [6282632195, 8427254858, 8427254859, 8427254860, 8427254861, 8427254862, 8427254863, 8427254864, 6282632195], "tags": {"addr:city": "Saint Peters", "addr:housenumber": "3068", "addr:postcode": "63376", "addr:state": "MO", "addr:street": "Almond Tree Drive", "building": "house", "source": "microsoft/BuildingFootprints", "source:addr": "https://gis.sccmo.opendata.arcgis.com/ (2018)"}}, {"type": "way", "id": 907565794, "nodes": [6282632082, 8427254865, 8427254866, 8427254867, 8427254868, 8427254869, 6282632082], "tags": {"addr:city": "Saint Peters", "addr:housenumber": "3064", "addr:postcode": "63376", "addr:state": "MO", "addr:street": "Almond Tree Drive", "building": "house", "source": "microsoft/BuildingFootprints", "source:addr": "https://gis.sccmo.opendata.arcgis.com/ (2018)"}}, {"type": "way", "id": 907565795, "nodes": [6282632078, 8427254870, 8427254871, 8427254872, 8427254873, 8427254874, 6282632078], "tags": {"addr:city": "Saint Peters", "addr:housenumber": "3060", "addr:postcode": "63376", "addr:state": "MO", "addr:street": "Almond Tree Drive", "building": "house", "source": "microsoft/BuildingFootprints", "source:addr": "https://gis.sccmo.opendata.arcgis.com/ (2018)"}}, {"type": "way", "id": 907565796, "nodes": [6282632199, 8427254875, 8427254876, 8427254877, 6282632199], "tags": {"addr:city": "Saint Peters", "addr:housenumber": "3059", "addr:postcode": "63376", "addr:state": "MO", "addr:street": "Almond Tree Drive", "building": "house", "source": "microsoft/BuildingFootprints", "source:addr": "https://gis.sccmo.opendata.arcgis.com/ (2018)"}}, {"type": "way", "id": 907565797, "nodes": [6282632204, 8427254878, 8427254879, 8427254880, 6282632204], "tags": {"addr:city": "Saint Peters", "addr:housenumber": "3058", "addr:postcode": "63376", "addr:state": "MO", "addr:street": "Almond Tree Drive", "building": "house", "source": "microsoft/BuildingFootprints", "source:addr": "https://gis.sccmo.opendata.arcgis.com/ (2018)"}}, {"type": "way", "id": 907565798, "nodes": [6282632208, 8427254881, 8427254882, 8427254883, 6282632208], "tags": {"addr:city": "Saint Peters", "addr:housenumber": "3054", "addr:postcode": "63376", "addr:state": "MO", "addr:street": "Almond Tree Drive", "building": "house", "source": "microsoft/BuildingFootprints", "source:addr": "https://gis.sccmo.opendata.arcgis.com/ (2018)"}}, {"type": "way", "id": 907565799, "nodes": [6282632217, 8427254884, 8427254885, 8427254886, 8427254887, 8427254888, 6282632217], "tags": {"addr:city": "Saint Peters", "addr:housenumber": "3050", "addr:postcode": "63376", "addr:state": "MO", "addr:street": "Almond Tree Drive", "building": "house", "source": "microsoft/BuildingFootprints", "source:addr": "https://gis.sccmo.opendata.arcgis.com/ (2018)"}}, {"type": "way", "id": 907565800, "nodes": [6282632079, 8427254889, 8427254890, 8427254891, 6282632079], "tags": {"addr:city": "Saint Peters", "addr:housenumber": "3048", "addr:postcode": "63376", "addr:state": "MO", "addr:street": "Almond Tree Drive", "building": "house", "source": "microsoft/BuildingFootprints", "source:addr": "https://gis.sccmo.opendata.arcgis.com/ (2018)"}}, {"type": "way", "id": 907565801, "nodes": [6282632194, 8427254892, 8427254893, 8427254894, 8427254895, 8427254896, 6282632194], "tags": {"addr:city": "Saint Peters", "addr:housenumber": "3040", "addr:postcode": "63376", "addr:state": "MO", "addr:street": "Almond Tree Drive", "building": "house", "source": "microsoft/BuildingFootprints", "source:addr": "https://gis.sccmo.opendata.arcgis.com/ (2018)"}}, {"type": "way", "id": 1337429483, "nodes": [12370404828, 12370398990, 12370404827, 12370404826, 12370404825, 12370404824, 12370404823, 12370404822, 12370404821, 12370404820, 12370398989, 12370404819, 12370404828], "tags": {"addr:city": "Saint Peters", "addr:housenumber": "1755", "addr:postcode": "63376", "addr:state": "MO", "addr:street": "Woodstone Drive", "building": "yes", "emergency": "ambulance_station", "name": "St. Charles County Ambulance District - Station 23", "operator": "St. Charles County Ambulance District"}}, {"type": "way", "id": 1337429510, "nodes": [12370404996, 12370404995, 12370404994, 12370404911, 12370404912, 12370404993, 12370404996], "tags": {"addr:city": "Saint Peters", "addr:housenumber": "1770", "addr:postcode": "63376", "addr:state": "MO", "addr:street": "Woodstone Drive", "amenity": "bank", "atm": "yes", "building": "yes", "drive_through": "yes", "name": "Together Credit Union", "operator": "Together Credit Union"}}, {"type": "way", "id": 1337612368, "nodes": [12372703690, 12372703691, 12372703692, 12372703693, 12372703694, 12372703695, 12372703690], "tags": {"building": "house"}}, {"type": "way", "id": 1337612369, "nodes": [12372703696, 12372703697, 12372703698, 12372703699, 12372703700, 12372711701, 12372711702, 12372711703, 12372711704, 12372711705, 12372711706, 12372711707, 12372703696], "tags": {"building": "house", "house": "terraced"}}, {"type": "way", "id": 1337612373, "nodes": [12372711740, 12372711741, 12372711742, 12372711743, 12372711744, 12372711745, 12372711746, 12372711747, 12372711748, 12372711749, 12372711740], "tags": {"building": "house", "house": "terraced"}}]}