{"version": 0.6, "generator": "Overpass API 0.7.62.5 1bd436f1", "osm3s": {"timestamp_osm_base": "2025-04-18T11:22:41Z", "copyright": "The data included in this document is from www.openstreetmap.org. The data is made available under ODbL."}, "elements": [{"type": "node", "id": 5618687239, "lat": 38.7876355, "lon": -90.5631179}, {"type": "node", "id": 5618687246, "lat": 38.7873376, "lon": -90.5631255}, {"type": "node", "id": 5618687250, "lat": 38.7876415, "lon": -90.5630366}, {"type": "node", "id": 5618687251, "lat": 38.7876564, "lon": -90.5630362}, {"type": "node", "id": 5618687252, "lat": 38.7876529, "lon": -90.5628123}, {"type": "node", "id": 5618687253, "lat": 38.7876375, "lon": -90.5628126}, {"type": "node", "id": 5618687254, "lat": 38.7876352, "lon": -90.5626649}, {"type": "node", "id": 5618687255, "lat": 38.78761, "lon": -90.5626656}, {"type": "node", "id": 5618687256, "lat": 38.7875982, "lon": -90.5618986}, {"type": "node", "id": 5618687257, "lat": 38.7875839, "lon": -90.561899}, {"type": "node", "id": 5618687258, "lat": 38.7875814, "lon": -90.5617396}, {"type": "node", "id": 5618687259, "lat": 38.7867001, "lon": -90.5617619}, {"type": "node", "id": 5618687260, "lat": 38.786716, "lon": -90.562791}, {"type": "node", "id": 5618687261, "lat": 38.7868127, "lon": -90.5627886}, {"type": "node", "id": 5618687262, "lat": 38.7868146, "lon": -90.562909}, {"type": "node", "id": 5618687263, "lat": 38.7868495, "lon": -90.5629081}, {"type": "node", "id": 5618687264, "lat": 38.786853, "lon": -90.5631378}, {"type": "node", "id": 5618687265, "lat": 38.7876427, "lon": -90.5631178}, {"type": "node", "id": 5637791708, "lat": 38.7838238, "lon": -90.5606713, "tags": {"addr:housenumber": "2432", "addr:postcode": "63303", "addr:street": "Muegge Road"}}, {"type": "node", "id": 5637791709, "lat": 38.7824315, "lon": -90.5590612, "tags": {"addr:city": "Saint Charles", "addr:housenumber": "2407", "addr:postcode": "63303", "addr:street": "Muegge Road"}}, {"type": "node", "id": 5637791713, "lat": 38.7822917, "lon": -90.5587835, "tags": {"addr:city": "Saint Charles", "addr:housenumber": "2403", "addr:postcode": "63303", "addr:street": "Muegge Road"}}, {"type": "node", "id": 5637791717, "lat": 38.7823935, "lon": -90.5589778, "tags": {"addr:city": "Saint Charles", "addr:housenumber": "2405", "addr:postcode": "63303", "addr:street": "Muegge Road"}}, {"type": "node", "id": 5637792323, "lat": 38.7828477, "lon": -90.5598543, "tags": {"addr:city": "Saint Charles", "addr:housenumber": "2417", "addr:postcode": "63303", "addr:street": "Muegge Road"}}, {"type": "node", "id": 5637792326, "lat": 38.7828993, "lon": -90.5599655, "tags": {"addr:city": "Saint Charles", "addr:housenumber": "2419", "addr:postcode": "63303", "addr:street": "Muegge Road"}}, {"type": "node", "id": 5637792327, "lat": 38.7832649, "lon": -90.5592389, "tags": {"addr:city": "Saint Charles", "addr:housenumber": "2416", "addr:postcode": "63303", "addr:street": "Muegge Road"}}, {"type": "node", "id": 5637792329, "lat": 38.7827421, "lon": -90.5596479, "tags": {"addr:city": "Saint Charles", "addr:housenumber": "2415", "addr:postcode": "63303", "addr:street": "Muegge Road"}}, {"type": "node", "id": 5637792337, "lat": 38.783, "lon": -90.5601424, "tags": {"addr:city": "Saint Charles", "addr:housenumber": "2421", "addr:postcode": "63303", "addr:street": "Muegge Road"}}, {"type": "node", "id": 5637792338, "lat": 38.7820364, "lon": -90.5581907, "tags": {"addr:city": "Saint Charles", "addr:housenumber": "2355", "addr:postcode": "63303", "addr:street": "Muegge Road"}}, {"type": "node", "id": 5637792339, "lat": 38.782251, "lon": -90.558714, "tags": {"addr:city": "Saint Charles", "addr:housenumber": "2401", "addr:postcode": "63303", "addr:street": "Muegge Road"}}, {"type": "node", "id": 5637792346, "lat": 38.7830431, "lon": -90.5602213, "tags": {"addr:city": "Saint Charles", "addr:housenumber": "2423", "addr:postcode": "63303", "addr:street": "Muegge Road"}}, {"type": "node", "id": 5637792347, "lat": 38.7837122, "lon": -90.560394, "tags": {"addr:city": "Saint Charles", "addr:housenumber": "2426", "addr:postcode": "63303", "addr:street": "Muegge Road"}}, {"type": "node", "id": 5637792350, "lat": 38.7831072, "lon": -90.5604971, "tags": {"addr:city": "Saint Charles", "addr:housenumber": "2425", "addr:postcode": "63303", "addr:street": "Muegge Road"}}, {"type": "node", "id": 5637792351, "lat": 38.782564, "lon": -90.5593759, "tags": {"addr:city": "Saint Charles", "addr:housenumber": "2411", "addr:postcode": "63303", "addr:street": "Muegge Road"}}, {"type": "node", "id": 5637792353, "lat": 38.7825069, "lon": -90.5592845, "tags": {"addr:city": "Saint Charles", "addr:housenumber": "2409", "addr:postcode": "63303", "addr:street": "Muegge Road"}}, {"type": "node", "id": 5637792356, "lat": 38.7840651, "lon": -90.5610432, "tags": {"addr:city": "Saint Charles", "addr:housenumber": "2552", "addr:postcode": "63303", "addr:street": "Muegge Road"}}, {"type": "node", "id": 5637792359, "lat": 38.7831434, "lon": -90.5605636, "tags": {"addr:city": "Saint Charles", "addr:housenumber": "2427", "addr:postcode": "63303", "addr:street": "Muegge Road"}}, {"type": "node", "id": 5637792360, "lat": 38.7823701, "lon": -90.5577713, "tags": {"addr:housenumber": "2400", "addr:postcode": "63303", "addr:street": "Muegge Road"}}, {"type": "node", "id": 5637792370, "lat": 38.7832075, "lon": -90.558771, "tags": {"addr:city": "Saint Charles", "addr:housenumber": "2408", "addr:postcode": "63303", "addr:street": "Muegge Road"}}, {"type": "node", "id": 5637792372, "lat": 38.7836838, "lon": -90.559922, "tags": {"addr:city": "Saint Charles", "addr:housenumber": "2424", "addr:postcode": "63303", "addr:street": "Muegge Road"}}, {"type": "node", "id": 5637792389, "lat": 38.7826905, "lon": -90.5595541, "tags": {"addr:city": "Saint Charles", "addr:housenumber": "2413", "addr:postcode": "63303", "addr:street": "Muegge Road"}}, {"type": "node", "id": 5637792397, "lat": 38.7823512, "lon": -90.5528742, "tags": {"addr:city": "Saint Charles", "addr:housenumber": "661", "addr:postcode": "63303", "addr:street": "Timberidge Drive"}}, {"type": "node", "id": 5637792402, "lat": 38.7840095, "lon": -90.5536044, "tags": {"addr:city": "Saint Charles", "addr:housenumber": "692", "addr:postcode": "63303", "addr:street": "Timberidge Drive"}}, {"type": "node", "id": 5637792413, "lat": 38.7825229, "lon": -90.5523053, "tags": {"addr:city": "Saint Charles", "addr:housenumber": "664", "addr:postcode": "63303", "addr:street": "Timberidge Drive"}}, {"type": "node", "id": 5637793168, "lat": 38.7840099, "lon": -90.5532737, "tags": {"addr:city": "Saint Charles", "addr:housenumber": "688", "addr:postcode": "63303", "addr:street": "Timberidge Drive"}}, {"type": "node", "id": 5637793196, "lat": 38.7833102, "lon": -90.5529813, "tags": {"addr:city": "Saint Charles", "addr:housenumber": "677", "addr:postcode": "63303", "addr:street": "Timberidge Drive"}}, {"type": "node", "id": 5637793200, "lat": 38.783045, "lon": -90.5526798, "tags": {"addr:city": "Saint Charles", "addr:housenumber": "673", "addr:postcode": "63303", "addr:street": "Timberidge Drive"}}, {"type": "node", "id": 5637793203, "lat": 38.78301, "lon": -90.5521113, "tags": {"addr:city": "Saint Charles", "addr:housenumber": "672", "addr:postcode": "63303", "addr:street": "Timberidge Drive"}}, {"type": "node", "id": 5637793204, "lat": 38.7827648, "lon": -90.5521935, "tags": {"addr:city": "Saint Charles", "addr:housenumber": "668", "addr:postcode": "63303", "addr:street": "Timberidge Drive"}}, {"type": "node", "id": 5637793724, "lat": 38.783775, "lon": -90.5530128, "tags": {"addr:city": "Saint Charles", "addr:housenumber": "684", "addr:postcode": "63303", "addr:street": "Timberidge Drive"}}, {"type": "node", "id": 5637793727, "lat": 38.7834146, "lon": -90.5532729, "tags": {"addr:city": "Saint Charles", "addr:housenumber": "681", "addr:postcode": "63303", "addr:street": "Timberidge Drive"}}, {"type": "node", "id": 5637793730, "lat": 38.7837935, "lon": -90.5537637, "tags": {"addr:city": "Saint Charles", "addr:housenumber": "689", "addr:postcode": "63303", "addr:street": "Timberidge Drive"}}, {"type": "node", "id": 5637793732, "lat": 38.783533, "lon": -90.5536657, "tags": {"addr:city": "Saint Charles", "addr:housenumber": "685", "addr:postcode": "63303", "addr:street": "Timberidge Drive"}}, {"type": "node", "id": 5637793734, "lat": 38.7828018, "lon": -90.552838, "tags": {"addr:city": "Saint Charles", "addr:housenumber": "665", "addr:postcode": "63303", "addr:street": "Timberidge Drive"}}, {"type": "node", "id": 5637793740, "lat": 38.7820676, "lon": -90.5528679, "tags": {"addr:city": "Saint Charles", "addr:housenumber": "651", "addr:postcode": "63303", "addr:street": "Timberidge Drive"}}, {"type": "way", "id": 588251230, "nodes": [5618687239, 5618687246]}, {"type": "way", "id": 588251233, "nodes": [5618687246, 5618687264, 5618687263, 5618687262, 5618687261, 5618687260, 5618687259, 5618687258, 5618687257, 5618687256, 5618687255, 5618687254, 5618687253, 5618687252, 5618687251, 5618687250, 5618687265, 5618687239]}, {"type": "relation", "id": 8299296, "members": [{"type": "way", "ref": 588251233, "role": "outer"}, {"type": "way", "ref": 588251230, "role": "outer"}], "tags": {"addr:city": "Saint Charles", "addr:country": "US", "addr:housenumber": "3881", "addr:postcode": "63303-3042", "addr:state": "MO", "addr:street": "Mexico Road", "brand": "Target", "brand:wikidata": "Q1046951", "building": "retail", "name": "Target", "opening_hours": "08:00-22:00", "phone": "+1 636-922-0165", "shop": "department_store", "type": "multipolygon", "website": "https://www.target.com/sl/st-charles/1280"}}]}